{"type":"FeatureCollection","features":[{"type":"Feature","geometry":{"type":"Polygon","coordinates":[[[-84.361126,41.282278],[-84.361,41.282477],[-84.360885,41.282436],[-84.361023,41.282241],[-84.361126,41.282278]]]},"properties":{"p":"B01-1020-0-014-00","o":"GIEBLER RICHARD G %CECILIA GIEBLER","a":"315  FIFTH","d":"DEFIANCE CITY SCHOOL DISTRICT","t":474.65,"l":"510: Res-Single Family","c":0}},{"type":"Feature","geometry":{"type":"Polygon","coordinates":[[[-84.361567,41.281495],[-84.361176,41.281354],[-84.361264,41.281214],[-84.361655,41.281355],[-84.361567,41.281495]]]},"properties":{"p":"B01-1020-0-030-00","o":"WOODSON LINDA S % LINDA S HALL","a":"630  WASHINGTON","d":"DEFIANCE CITY SCHOOL DISTRICT","t":2743.53,"l":"510: Res-Single Family","c":0}},{"type":"Feature","geometry":{"type":"Polygon","coordinates":[[[-84.365027,41.288048],[-84.365037,41.287937],[-84.365193,41.287942],[-84.365279,41.287965],[-84.365241,41.288025],[-84.365027,41.288048]]]},"properties":{"p":"B01-1024-0-020-00","o":"WARNCKE TIMMY L","a":"803  FIRST & 803 1/2","d":"DEFIANCE CITY SCHOOL DISTRICT","t":1613.37,"l":"500: Res-Vacant Land","c":0}},{"type":"Feature","geometry":{"type":"Polygon","coordinates":[[[-84.359681,41.281178],[-84.359247,41.281022],[-84.359318,41.280911],[-84.359752,41.281066],[-84.359681,41.281178]]]},"properties":{"p":"B01-1030-0-008-00","o":"C PROPERTYS LLC","a":"623  RIVERSIDE","d":"DEFIANCE CITY SCHOOL DISTRICT","t":595.59,"l":"510: Res-Single Family","c":0}},{"type":"Feature","geometry":{"type":"Polygon","coordinates":[[[-84.365588,41.27397],[-84.365154,41.273815],[-84.365186,41.273764],[-84.36562,41.27392],[-84.365588,41.27397]]]},"properties":{"p":"B01-1043-0-031-00","o":"CASTILLO ERICA A & DAVID","a":"WASHINGTON","d":"DEFIANCE CITY SCHOOL DISTRICT","t":60.28,"l":"500: Res-Vacant Land","c":0}},{"type":"Feature","geometry":{"type":"Polygon","coordinates":[[[-84.370873,41.284098],[-84.370732,41.2842],[-84.370417,41.28393],[-84.370553,41.283835],[-84.370873,41.284098]]]},"properties":{"p":"B01-1097-0-003-00","o":"WILLIS JOHN","a":"727  KENTNER","d":"DEFIANCE CITY SCHOOL DISTRICT","t":638.18,"l":"510: Res-Single Family","c":0}},{"type":"Feature","geometry":{"type":"Polygon","coordinates":[[[-84.428436,41.269554],[-84.428433,41.270264],[-84.424807,41.273653],[-84.423019,41.27366],[-84.4194,41.273938],[-84.420138,41.273085],[-84.42183,41.271738],[-84.422557,41.271415],[-84.423908,41.270964],[-84.427076,41.269992],[-84.428307,41.269606],[-84.428436,41.269554]]]},"properties":{"p":"B01-2111-0-010-03","o":"STATE OF OHIO","a":"ST RT 24","d":"DEFIANCE CITY SCHOOL DISTRICT","t":6526.73,"l":"100: Agr-Vacant Land","c":0}},{"type":"Feature","geometry":{"type":"Polygon","coordinates":[[[-84.349183,41.281258],[-84.349402,41.281258],[-84.349404,41.28162],[-84.349185,41.28162],[-84.349183,41.281258]]]},"properties":{"p":"B01-4148-0-022-00","o":"PHILLIPS LEROY D ETAL","a":"712  HOPKINS","d":"DEFIANCE CITY SCHOOL DISTRICT","t":645.85,"l":"510: Res-Single Family","c":0}},{"type":"Feature","geometry":{"type":"Polygon","coordinates":[[[-84.347141,41.280409],[-84.346677,41.280409],[-84.346676,41.280272],[-84.347141,41.280272],[-84.347141,41.280409]]]},"properties":{"p":"B01-4149-0-095-00","o":"HARRISON TAYLOR % TAYLOR YARNELL","a":"622  RAVINE","d":"DEFIANCE CITY SCHOOL DISTRICT","t":953.55,"l":"510: Res-Single Family","c":0}},{"type":"Feature","geometry":{"type":"Polygon","coordinates":[[[-84.348952,41.277036],[-84.34877,41.277037],[-84.348769,41.276708],[-84.348951,41.276708],[-84.348952,41.277036]]]},"properties":{"p":"B01-4158-0-019-00","o":"GLYCERIN TRADERS LLC","a":"SAUERS","d":"DEFIANCE CITY SCHOOL DISTRICT","t":44.25,"l":"620: Exm-County","c":0}},{"type":"Feature","geometry":{"type":"Polygon","coordinates":[[[-84.348225,41.277038],[-84.348043,41.277038],[-84.348041,41.27671],[-84.348223,41.276709],[-84.348225,41.277038]]]},"properties":{"p":"B01-4158-0-023-00","o":"GLYCERIN TRADERS LLC","a":"SAUERS","d":"DEFIANCE CITY SCHOOL DISTRICT","t":44.25,"l":"620: Exm-County","c":0}},{"type":"Feature","geometry":{"type":"Polygon","coordinates":[[[-84.347861,41.277038],[-84.347735,41.277039],[-84.34745,41.276709],[-84.347859,41.27671],[-84.347861,41.277038]]]},"properties":{"p":"B01-4158-0-024-00","o":"GLYCERIN TRADERS LLC","a":"SAUERS","d":"DEFIANCE CITY SCHOOL DISTRICT","t":82.54,"l":"620: Exm-County","c":0}},{"type":"Feature","geometry":{"type":"Polygon","coordinates":[[[-84.34782,41.277448],[-84.347311,41.277445],[-84.347144,41.277188],[-84.346503,41.276705],[-84.347183,41.276708],[-84.34782,41.277448]]]},"properties":{"p":"B01-4158-0-025-00","o":"GLYCERIN TRADERS LLC","a":"SCHRACK","d":"DEFIANCE CITY SCHOOL DISTRICT","t":76.02,"l":"620: Exm-County","c":0}},{"type":"Feature","geometry":{"type":"Polygon","coordinates":[[[-84.348043,41.277038],[-84.347861,41.277038],[-84.347859,41.27671],[-84.348041,41.27671],[-84.348043,41.277038]]]},"properties":{"p":"B01-4158-0-026-00","o":"GLYCERIN TRADERS LLC","a":"SAUERS","d":"DEFIANCE CITY SCHOOL DISTRICT","t":44.25,"l":"620: Exm-County","c":0}},{"type":"Feature","geometry":{"type":"Polygon","coordinates":[[[-84.349187,41.274376],[-84.348945,41.274142],[-84.349097,41.274054],[-84.349426,41.27401],[-84.349501,41.274336],[-84.349187,41.274376]]]},"properties":{"p":"B01-4162-0-017-00","o":"MONTEZ ALFRED & ANGELA % SERENE ELLIS","a":"620  BLAINE","d":"DEFIANCE CITY SCHOOL DISTRICT","t":2822.09,"l":"500: Res-Vacant Land","c":0}},{"type":"Feature","geometry":{"type":"Polygon","coordinates":[[[-84.34366,41.239248],[-84.342855,41.239238],[-84.342624,41.238233],[-84.343675,41.238246],[-84.34366,41.239248]]]},"properties":{"p":"B11-0001-0-011-00","o":"JOHNSON TIMOTHY D","a":"24889  WATSON","d":"DEFIANCE CITY SCHOOL DISTRICT","t":71.8,"l":"569: Res-Custom Code","c":0}},{"type":"Feature","geometry":{"type":"Polygon","coordinates":[[[-84.403601,41.232104],[-84.403293,41.232103],[-84.403293,41.231994],[-84.403601,41.231995],[-84.403601,41.232104]]]},"properties":{"p":"B11-0009-A-028-00","o":"GARN ELMER SR & LAURIE","a":"21297  PARKVIEW","d":"DEFIANCE CITY SCHOOL DISTRICT","t":216.81,"l":"500: Res-Vacant Land","c":0}},{"type":"Feature","geometry":{"type":"Polygon","coordinates":[[[-84.403601,41.231995],[-84.403293,41.231994],[-84.403293,41.231884],[-84.403601,41.231884],[-84.403601,41.231995]]]},"properties":{"p":"B11-0009-A-029-00","o":"GARN ELMER SR & LAURIE","a":"PARKVIEW","d":"DEFIANCE CITY SCHOOL DISTRICT","t":41.51,"l":"500: Res-Vacant Land","c":0}},{"type":"Feature","geometry":{"type":"Polygon","coordinates":[[[-84.361062,41.221582],[-84.35868,41.221553],[-84.358676,41.220641],[-84.361058,41.220669],[-84.361062,41.221582]]]},"properties":{"p":"B11-0013-0-005-06","o":"NICHOLS DAMIAN HASKELL","a":"15191  ST RT 66","d":"DEFIANCE CITY SCHOOL DISTRICT","t":604.26,"l":"511: Res-Custom Code","c":0}},{"type":"Feature","geometry":{"type":"Polygon","coordinates":[[[-84.409192,41.216576],[-84.40439,41.216576],[-84.404381,41.214759],[-84.407384,41.214764],[-84.407384,41.215244],[-84.407425,41.215244],[-84.407364,41.215276],[-84.40736,41.215344],[-84.409193,41.215347],[-84.409192,41.216576]]]},"properties":{"p":"B11-0016-0-012-01","o":"WATHEN JACOB T & LEA L","a":"15525  SPONSELLER","d":"DEFIANCE CITY SCHOOL DISTRICT","t":1383.78,"l":"101: Agr-Cash-Grain Farm","c":0}},{"type":"Feature","geometry":{"type":"Polygon","coordinates":[[[-84.407425,41.215244],[-84.407384,41.215244],[-84.407384,41.214764],[-84.408156,41.214765],[-84.408037,41.214811],[-84.407915,41.214888],[-84.407783,41.214929],[-84.407711,41.214985],[-84.407665,41.215059],[-84.407634,41.215166],[-84.407599,41.215193],[-84.407425,41.215244]]]},"properties":{"p":"B11-0016-0-012-02","o":"WATHEN JACOB T & LEA L","a":"SPONSELLER","d":"DEFIANCE CITY SCHOOL DISTRICT","t":31.57,"l":"501: Res-Custom Code","c":0}},{"type":"Feature","geometry":{"type":"Polygon","coordinates":[[[-84.550069,41.278139],[-84.55012,41.27748],[-84.553467,41.277522],[-84.553458,41.278168],[-84.550069,41.278139]]]},"properties":{"p":"C17-0029-0-007-01","o":"HOOTMAN JANE & ALBERT R MILLER JR","a":"11281  US RT 127","d":"CENTRAL LOCAL SCHOOL DISTRICT","t":1169.43,"l":"560: Res-Mobile Home","c":0}},{"type":"Feature","geometry":{"type":"Polygon","coordinates":[[[-84.553725,41.254834],[-84.55373,41.254329],[-84.554331,41.254025],[-84.554329,41.25463],[-84.553725,41.254834]]]},"properties":{"p":"C17-0031-0-013-00","o":"BENNETT JERRAD P","a":"13980  COUNTY ROAD 424","d":"CENTRAL LOCAL SCHOOL DISTRICT","t":168.53,"l":"599: Res-Other","c":0}},{"type":"Feature","geometry":{"type":"Polygon","coordinates":[[[-84.557977,41.284187],[-84.558159,41.284189],[-84.55816,41.284551],[-84.557978,41.284549],[-84.557977,41.284187]]]},"properties":{"p":"C18-0003-0-161-00","o":"PIASECKI DAVID S","a":"420 W MAPLE","d":"CENTRAL LOCAL SCHOOL DISTRICT","t":1043.42,"l":"560: Res-Mobile Home","c":0}},{"type":"Feature","geometry":{"type":"Polygon","coordinates":[[[-84.55306,41.297117],[-84.552878,41.297116],[-84.552879,41.297031],[-84.552842,41.297031],[-84.552843,41.296948],[-84.553062,41.29695],[-84.55306,41.297117]]]},"properties":{"p":"C18-0017-A-003-00","o":"C PROPERTYS LLC","a":"US RT 127","d":"CENTRAL LOCAL SCHOOL DISTRICT","t":1391.95,"l":"455: Com-Garage","c":0}},{"type":"Feature","geometry":{"type":"Polygon","coordinates":[[[-84.551042,41.297235],[-84.551043,41.297111],[-84.551144,41.297111],[-84.551143,41.297235],[-84.551042,41.297235]]]},"properties":{"p":"C18-0017-C-004-00","o":"PARADISE LIVING LLC","a":"106  WIRTH","d":"CENTRAL LOCAL SCHOOL DISTRICT","t":56.96,"l":"550: Res-Condo","c":0}},{"type":"Feature","geometry":{"type":"Polygon","coordinates":[[[-84.550941,41.297234],[-84.550941,41.297111],[-84.551043,41.297111],[-84.551042,41.297235],[-84.550941,41.297234]]]},"properties":{"p":"C18-0017-C-005-00","o":"PARADISE LIVING LLC","a":"108  WIRTH","d":"CENTRAL LOCAL SCHOOL DISTRICT","t":56.96,"l":"550: Res-Condo","c":0}},{"type":"Feature","geometry":{"type":"Polygon","coordinates":[[[-84.550839,41.297234],[-84.55084,41.297111],[-84.550941,41.297111],[-84.550941,41.297234],[-84.550839,41.297234]]]},"properties":{"p":"C18-0017-C-006-00","o":"PARADISE LIVING LLC","a":"110  WIRTH","d":"CENTRAL LOCAL SCHOOL DISTRICT","t":56.96,"l":"550: Res-Condo","c":0}},{"type":"Feature","geometry":{"type":"Polygon","coordinates":[[[-84.550738,41.29711],[-84.550738,41.297234],[-84.550636,41.297234],[-84.550637,41.29711],[-84.550738,41.29711]]]},"properties":{"p":"C18-0017-C-008-00","o":"PARADISE LIVING LLC","a":"114  WIRTH","d":"CENTRAL LOCAL SCHOOL DISTRICT","t":56.96,"l":"550: Res-Condo","c":0}},{"type":"Feature","geometry":{"type":"Polygon","coordinates":[[[-84.551984,41.297921],[-84.551983,41.29799],[-84.551816,41.297989],[-84.551817,41.29792],[-84.551984,41.297921]]]},"properties":{"p":"C18-0017-C-022-00","o":"PARADISE LIVING LLC","a":"710  HERITAGE","d":"CENTRAL LOCAL SCHOOL DISTRICT","t":56.96,"l":"550: Res-Condo","c":0}},{"type":"Feature","geometry":{"type":"Polygon","coordinates":[[[-84.551815,41.298103],[-84.551816,41.298034],[-84.551982,41.298035],[-84.551982,41.298104],[-84.551815,41.298103]]]},"properties":{"p":"C18-0017-C-023-00","o":"PARADISE LIVING LLC","a":"712  HERITAGE","d":"CENTRAL LOCAL SCHOOL DISTRICT","t":56.96,"l":"550: Res-Condo","c":0}},{"type":"Feature","geometry":{"type":"Polygon","coordinates":[[[-84.551982,41.298104],[-84.551981,41.298174],[-84.551814,41.298172],[-84.551815,41.298103],[-84.551982,41.298104]]]},"properties":{"p":"C18-0017-C-024-00","o":"PARADISE LIVING LLC","a":"714  HERITAGE","d":"CENTRAL LOCAL SCHOOL DISTRICT","t":56.96,"l":"550: Res-Condo","c":0}},{"type":"Feature","geometry":{"type":"Polygon","coordinates":[[[-84.551143,41.297235],[-84.551144,41.297111],[-84.551245,41.297112],[-84.551245,41.297235],[-84.551143,41.297235]]]},"properties":{"p":"C18-0017-C-003-00","o":"PARADISE LIVING LLC","a":"104  WIRTH","d":"CENTRAL LOCAL SCHOOL DISTRICT","t":56.96,"l":"550: Res-Condo","c":0}},{"type":"Feature","geometry":{"type":"Polygon","coordinates":[[[-84.551245,41.297235],[-84.551245,41.297112],[-84.551347,41.297112],[-84.551346,41.297235],[-84.551245,41.297235]]]},"properties":{"p":"C18-0017-C-002-00","o":"PARADISE LIVING LLC","a":"102  WIRTH","d":"CENTRAL LOCAL SCHOOL DISTRICT","t":56.96,"l":"550: Res-Condo","c":0}},{"type":"Feature","geometry":{"type":"Polygon","coordinates":[[[-84.551346,41.297235],[-84.551347,41.297112],[-84.551448,41.297112],[-84.551448,41.297236],[-84.551346,41.297235]]]},"properties":{"p":"C18-0017-C-001-00","o":"PARADISE LIVING LLC","a":"100  WIRTH","d":"CENTRAL LOCAL SCHOOL DISTRICT","t":56.96,"l":"550: Res-Condo","c":0}},{"type":"Feature","geometry":{"type":"Polygon","coordinates":[[[-84.557432,41.284147],[-84.55725,41.284145],[-84.557249,41.283783],[-84.557431,41.283785],[-84.557432,41.284147]]]},"properties":{"p":"C18-0003-0-167-00","o":"BEVERLY MARJORIE J","a":"CENTRAL","d":"CENTRAL LOCAL SCHOOL DISTRICT","t":398.92,"l":"500: Res-Vacant Land","c":0}},{"type":"Feature","geometry":{"type":"Polygon","coordinates":[[[-84.557614,41.284149],[-84.557432,41.284147],[-84.557431,41.283785],[-84.557613,41.283787],[-84.557614,41.284149]]]},"properties":{"p":"C18-0003-0-166-00","o":"BEVERLY MARJORIE J","a":"110 S CENTRAL","d":"CENTRAL LOCAL SCHOOL DISTRICT","t":4613.8,"l":"510: Res-Single Family","c":0}},{"type":"Feature","geometry":{"type":"Polygon","coordinates":[[[-84.557432,41.28507],[-84.55725,41.285067],[-84.55725,41.284705],[-84.557432,41.284707],[-84.557432,41.28507]]]},"properties":{"p":"C18-0003-0-144-00","o":"RANDY & APRIL BEAM","a":"405 W MAPLE","d":"CENTRAL LOCAL SCHOOL DISTRICT","t":464.83,"l":"560: Res-Mobile Home","c":0}},{"type":"Feature","geometry":{"type":"Polygon","coordinates":[[[-84.557614,41.285072],[-84.557432,41.28507],[-84.557432,41.284707],[-84.557614,41.284709],[-84.557614,41.285072]]]},"properties":{"p":"C18-0003-0-143-00","o":"RANDY & APRIL BEAM","a":"MAPLE","d":"CENTRAL LOCAL SCHOOL DISTRICT","t":37.4,"l":"500: Res-Vacant Land","c":0}},{"type":"Feature","geometry":{"type":"Polygon","coordinates":[[[-84.554029,41.285243],[-84.553527,41.285235],[-84.553527,41.285056],[-84.554029,41.285062],[-84.554029,41.285243]]]},"properties":{"p":"C18-0003-0-103-00","o":"BAER JOHN H JR & SUSAN RENEE","a":"204 S HARRISON","d":"CENTRAL LOCAL SCHOOL DISTRICT","t":1303.51,"l":"510: Res-Single Family","c":0}},{"type":"Feature","geometry":{"type":"Polygon","coordinates":[[[-84.547361,41.285106],[-84.547115,41.285101],[-84.547128,41.28492],[-84.547375,41.284925],[-84.547361,41.285106]]]},"properties":{"p":"C18-0003-0-025-00","o":"WORTHINGTON MARTHA M % ROGER WORTHINGTON","a":"105  MAUMEE","d":"CENTRAL LOCAL SCHOOL DISTRICT","t":4193.73,"l":"569: Res-Custom Code","c":0}},{"type":"Feature","geometry":{"type":"Polygon","coordinates":[[[-84.548696,41.286418],[-84.549176,41.286418],[-84.54916,41.286599],[-84.54868,41.286599],[-84.548696,41.286418]]]},"properties":{"p":"C18-0002-0-098-00","o":"SMITH DAVID R JR & JAN A SMITH","a":"120 N OAK","d":"CENTRAL LOCAL SCHOOL DISTRICT","t":1329.92,"l":"510: Res-Single Family","c":0}},{"type":"Feature","geometry":{"type":"Polygon","coordinates":[[[-84.54722,41.286019],[-84.548028,41.286048],[-84.547997,41.286417],[-84.547785,41.286414],[-84.547639,41.286263],[-84.54722,41.286019]]]},"properties":{"p":"C18-0002-0-095-01","o":"RICHARDS WENONA ETAL","a":"OAK","d":"CENTRAL LOCAL SCHOOL DISTRICT","t":27.9,"l":"500: Res-Vacant Land","c":0}},{"type":"Feature","geometry":{"type":"Polygon","coordinates":[[[-84.547997,41.286417],[-84.548012,41.286236],[-84.548493,41.286236],[-84.548477,41.286417],[-84.547997,41.286417]]]},"properties":{"p":"C18-0002-0-092-00","o":"RICHARDS WENONA ETAL","a":"115 N OAK","d":"CENTRAL LOCAL SCHOOL DISTRICT","t":327,"l":"510: Res-Single Family","c":0}},{"type":"Feature","geometry":{"type":"Polygon","coordinates":[[[-84.553323,41.293487],[-84.55278,41.293486],[-84.55278,41.293247],[-84.553323,41.293249],[-84.553323,41.293487]]]},"properties":{"p":"C18-0002-0-015-00","o":"BRECKLER FREDA S % KEVIN COOPER","a":"519 N HARRISON","d":"CENTRAL LOCAL SCHOOL DISTRICT","t":921.81,"l":"510: Res-Single Family","c":0}},{"type":"Feature","geometry":{"type":"Polygon","coordinates":[[[-84.489421,41.282325],[-84.486782,41.282337],[-84.48677,41.281704],[-84.489421,41.282325]]]},"properties":{"p":"C17-0026-0-013-01","o":"YEARLING IDA","a":"COUNTY ROAD 424 (REAR)","d":"CENTRAL LOCAL SCHOOL DISTRICT","t":1746.49,"l":"501: Res-Custom Code","c":0}},{"type":"Feature","geometry":{"type":"Polygon","coordinates":[[[-84.518152,41.284121],[-84.517937,41.284094],[-84.518004,41.283769],[-84.518219,41.283796],[-84.518152,41.284121]]]},"properties":{"p":"C17-0021-A-051-00","o":"SCHAFFER JAMES C","a":"MAIN","d":"CENTRAL LOCAL SCHOOL DISTRICT","t":1730.21,"l":"500: Res-Vacant Land","c":0}},{"type":"Feature","geometry":{"type":"Polygon","coordinates":[[[-84.50313,41.297232],[-84.503116,41.296659],[-84.504635,41.296638],[-84.504649,41.297211],[-84.50313,41.297232]]]},"properties":{"p":"C17-0015-0-010-00","o":"CORWIN BRANDY L ETAL","a":"16651  ST RT 18","d":"CENTRAL LOCAL SCHOOL DISTRICT","t":517.6,"l":"511: Res-Custom Code","c":0}},{"type":"Feature","geometry":{"type":"Polygon","coordinates":[[[-84.472449,41.302357],[-84.472444,41.301913],[-84.477345,41.301838],[-84.47735,41.302282],[-84.472449,41.302357]]]},"properties":{"p":"C17-0013-0-005-05","o":"BOFF ROGER L","a":"9645  FLICKINGER","d":"CENTRAL LOCAL SCHOOL DISTRICT","t":2.38,"l":"511: Res-Custom Code","c":0}},{"type":"Feature","geometry":{"type":"Polygon","coordinates":[[[-84.544572,41.334075],[-84.544547,41.332701],[-84.547234,41.332728],[-84.547258,41.334237],[-84.544572,41.334075]]]},"properties":{"p":"C17-0005-0-012-00","o":"POUCHER BARBARA L","a":"14473  MUD CREEK","d":"CENTRAL LOCAL SCHOOL DISTRICT","t":979.49,"l":"511: Res-Custom Code","c":0}},{"type":"Feature","geometry":{"type":"Polygon","coordinates":[[[-84.523161,41.33989],[-84.523089,41.33989],[-84.523065,41.338173],[-84.523137,41.338174],[-84.523161,41.33989]]]},"properties":{"p":"C17-0004-0-003-04","o":"SPONSELLER SCOTT LEE","a":"BRADSHAW","d":"CENTRAL LOCAL SCHOOL DISTRICT","t":490.45,"l":"501: Res-Custom Code","c":0}},{"type":"Feature","geometry":{"type":"Polygon","coordinates":[[[-84.410959,41.267946],[-84.409168,41.268416],[-84.409177,41.267933],[-84.410959,41.267946]]]},"properties":{"p":"B11-0028-0-021-00","o":"ZELLER CORP","a":"KISER (REAR)","d":"DEFIANCE CITY SCHOOL DISTRICT","t":766.76,"l":"501: Res-Custom Code","c":0}},{"type":"Feature","geometry":{"type":"Polygon","coordinates":[[[-84.36348,41.214943],[-84.361763,41.215267],[-84.361758,41.214587],[-84.361024,41.21459],[-84.36102,41.214054],[-84.363473,41.214044],[-84.36348,41.214943]]]},"properties":{"p":"B11-0014-0-011-05","o":"GORRELL DON F & LANA D","a":"15656  ST RT 66","d":"DEFIANCE CITY SCHOOL DISTRICT","t":3884.86,"l":"511: Res-Custom Code","c":0}},{"type":"Feature","geometry":{"type":"Polygon","coordinates":[[[-84.403601,41.231884],[-84.403293,41.231884],[-84.403292,41.231775],[-84.403601,41.231775],[-84.403601,41.231884]]]},"properties":{"p":"B11-0009-A-030-00","o":"GARN ELMER SR ETAL","a":"PARKVIEW","d":"DEFIANCE CITY SCHOOL DISTRICT","t":36.37,"l":"500: Res-Vacant Land","c":0}},{"type":"Feature","geometry":{"type":"Polygon","coordinates":[[[-84.403602,41.232214],[-84.403293,41.232214],[-84.403293,41.232103],[-84.403601,41.232104],[-84.403602,41.232214]]]},"properties":{"p":"B11-0009-A-027-00","o":"GARN ELMER E SR & LAURIE S","a":"PARKVIEW","d":"DEFIANCE CITY SCHOOL DISTRICT","t":37.75,"l":"599: Res-Other","c":0}},{"type":"Feature","geometry":{"type":"Polygon","coordinates":[[[-84.403602,41.232324],[-84.403294,41.232324],[-84.403293,41.232214],[-84.403602,41.232214],[-84.403602,41.232324]]]},"properties":{"p":"B11-0009-A-026-00","o":"GARN ELMER E SR & LAURIE S","a":"21275  PARKVIEW","d":"DEFIANCE CITY SCHOOL DISTRICT","t":547.39,"l":"510: Res-Single Family","c":0}},{"type":"Feature","geometry":{"type":"Polygon","coordinates":[[[-84.403602,41.232434],[-84.403294,41.232433],[-84.403294,41.232324],[-84.403602,41.232324],[-84.403602,41.232434]]]},"properties":{"p":"B11-0009-A-025-00","o":"GARN ELMER E SR & LAURIE S","a":"PARKVIEW","d":"DEFIANCE CITY SCHOOL DISTRICT","t":32.18,"l":"500: Res-Vacant Land","c":0}},{"type":"Feature","geometry":{"type":"Polygon","coordinates":[[[-84.403602,41.232543],[-84.403294,41.232543],[-84.403294,41.232433],[-84.403602,41.232434],[-84.403602,41.232543]]]},"properties":{"p":"B11-0009-A-024-00","o":"GARN ELMER E SR & LAURIE S","a":"PARKVIEW","d":"DEFIANCE CITY SCHOOL DISTRICT","t":32.18,"l":"500: Res-Vacant Land","c":0}},{"type":"Feature","geometry":{"type":"Polygon","coordinates":[[[-84.406987,41.236656],[-84.406602,41.236064],[-84.407009,41.235908],[-84.407396,41.236506],[-84.406987,41.236656]]]},"properties":{"p":"B11-0009-0-043-00","o":"JONES MARY E ETAL % TOM JONES","a":"ST RT 111","d":"DEFIANCE CITY SCHOOL DISTRICT","t":48.46,"l":"501: Res-Custom Code","c":0}},{"type":"Feature","geometry":{"type":"Polygon","coordinates":[[[-84.403293,41.232103],[-84.403075,41.232103],[-84.403074,41.231884],[-84.403293,41.231884],[-84.403293,41.232103]]]},"properties":{"p":"B11-0009-0-009-01","o":"GARN ELMER SR & LAURIE","a":"PARKVIEW","d":"DEFIANCE CITY SCHOOL DISTRICT","t":29.85,"l":"501: Res-Custom Code","c":0}},{"type":"Feature","geometry":{"type":"Polygon","coordinates":[[[-84.403294,41.232543],[-84.403076,41.232542],[-84.403075,41.232103],[-84.403293,41.232103],[-84.403294,41.232543]]]},"properties":{"p":"B11-0009-0-009-00","o":"GARN ELMER E SR & LAURIE S","a":"PARKVIEW","d":"DEFIANCE CITY SCHOOL DISTRICT","t":46.17,"l":"501: Res-Custom Code","c":0}},{"type":"Feature","geometry":{"type":"Polygon","coordinates":[[[-84.422525,41.229874],[-84.422229,41.230104],[-84.421543,41.229628],[-84.421778,41.229405],[-84.422543,41.229859],[-84.422525,41.229874]]]},"properties":{"p":"B11-0008-B-033-00","o":"KLEINHENN THOMAS LEE","a":"14694  ST RT 111","d":"DEFIANCE CITY SCHOOL DISTRICT","t":837.2,"l":"510: Res-Single Family","c":0}},{"type":"Feature","geometry":{"type":"Polygon","coordinates":[[[-84.344115,41.239253],[-84.34366,41.239248],[-84.343673,41.238356],[-84.344128,41.238361],[-84.344115,41.239253]]]},"properties":{"p":"B11-0001-C-015-00","o":"JOHNSON TIMOTHY D","a":"WATSON","d":"DEFIANCE CITY SCHOOL DISTRICT","t":65.29,"l":"500: Res-Vacant Land","c":0}},{"type":"Feature","geometry":{"type":"Polygon","coordinates":[[[-84.345181,41.273971],[-84.343564,41.273963],[-84.342145,41.27245],[-84.343729,41.272458],[-84.345181,41.273971]]]},"properties":{"p":"B01-4174-0-012-00","o":"ONE WORLD RECYCLING LLC","a":"201  HILL","d":"DEFIANCE CITY SCHOOL DISTRICT","t":1754.18,"l":"499: Com-Other","c":0}},{"type":"Feature","geometry":{"type":"Polygon","coordinates":[[[-84.342426,41.268664],[-84.342815,41.268438],[-84.342921,41.268539],[-84.342532,41.268765],[-84.342426,41.268664]]]},"properties":{"p":"B01-4173-0-061-00","o":"ESTRADA OMAR","a":"1396  AYERSVILLE","d":"DEFIANCE CITY SCHOOL DISTRICT","t":688.06,"l":"510: Res-Single Family","c":0}},{"type":"Feature","geometry":{"type":"Polygon","coordinates":[[[-84.343171,41.268726],[-84.343065,41.268625],[-84.343446,41.268403],[-84.343552,41.268505],[-84.343171,41.268726]]]},"properties":{"p":"B01-4173-0-051-00","o":"WHITMORE DAVID L JR","a":"1403  MILWAUKEE","d":"DEFIANCE CITY SCHOOL DISTRICT","t":506.79,"l":"510: Res-Single Family","c":0}},{"type":"Feature","geometry":{"type":"Polygon","coordinates":[[[-84.349621,41.272652],[-84.349005,41.272734],[-84.348959,41.272626],[-84.349594,41.272541],[-84.349621,41.272652]]]},"properties":{"p":"B01-4171-0-071-00","o":"GUERRA MARTHA","a":"1125  OTTAWA","d":"DEFIANCE CITY SCHOOL DISTRICT","t":595.76,"l":"510: Res-Single Family","c":0}},{"type":"Feature","geometry":{"type":"Polygon","coordinates":[[[-84.348719,41.273338],[-84.348654,41.273235],[-84.34919,41.273164],[-84.349235,41.273269],[-84.348719,41.273338]]]},"properties":{"p":"B01-4171-0-055-00","o":"PENA DANIEL L & MILCA C","a":"1114  THURMAN","d":"DEFIANCE CITY SCHOOL DISTRICT","t":19.14,"l":"510: Res-Single Family","c":0}},{"type":"Feature","geometry":{"type":"Polygon","coordinates":[[[-84.349516,41.272209],[-84.348819,41.272302],[-84.348727,41.272086],[-84.349462,41.271985],[-84.349516,41.272209]]]},"properties":{"p":"B01-4171-0-044-00","o":"C PROPERTIES LLC","a":"1131  OTTAWA","d":"DEFIANCE CITY SCHOOL DISTRICT","t":712.63,"l":"499: Com-Other","c":0}},{"type":"Feature","geometry":{"type":"Polygon","coordinates":[[[-84.349276,41.271198],[-84.348803,41.271259],[-84.348771,41.271124],[-84.349244,41.271063],[-84.349276,41.271198]]]},"properties":{"p":"B01-4170-0-007-00","o":"OSBORNE CONNOR E","a":"1211  OTTAWA","d":"DEFIANCE CITY SCHOOL DISTRICT","t":2781.22,"l":"510: Res-Single Family","c":0}},{"type":"Feature","geometry":{"type":"Polygon","coordinates":[[[-84.362135,41.264491],[-84.362135,41.264497],[-84.361641,41.264496],[-84.362135,41.264491]]]},"properties":{"p":"B01-4167-C-039-01","o":"GRABER HOMES INC","a":"WOODHURST","d":"DEFIANCE CITY SCHOOL DISTRICT","t":117.73,"l":"500: Res-Vacant Land","c":0}},{"type":"Feature","geometry":{"type":"Polygon","coordinates":[[[-84.351811,41.274217],[-84.35181,41.273915],[-84.351955,41.273915],[-84.351956,41.274217],[-84.351811,41.274217]]]},"properties":{"p":"B01-4163-0-058-00","o":"STRAKA RICHARD","a":"511  HAIG","d":"DEFIANCE CITY SCHOOL DISTRICT","t":1225.92,"l":"510: Res-Single Family","c":0}},{"type":"Feature","geometry":{"type":"Polygon","coordinates":[[[-84.351956,41.274217],[-84.351955,41.273915],[-84.352101,41.273914],[-84.352102,41.274216],[-84.351956,41.274217]]]},"properties":{"p":"B01-4163-0-057-00","o":"STRAKA RICHARD","a":"HAIG","d":"DEFIANCE CITY SCHOOL DISTRICT","t":74.61,"l":"500: Res-Vacant Land","c":0}},{"type":"Feature","geometry":{"type":"Polygon","coordinates":[[[-84.350783,41.274818],[-84.350811,41.274936],[-84.35038,41.274937],[-84.350355,41.27483],[-84.350783,41.274818]]]},"properties":{"p":"B01-4163-0-039-00","o":"GONZALES SHAYNA","a":"1022  OTTAWA","d":"DEFIANCE CITY SCHOOL DISTRICT","t":480.02,"l":"510: Res-Single Family","c":0}},{"type":"Feature","geometry":{"type":"Polygon","coordinates":[[[-84.344799,41.274108],[-84.34491,41.274109],[-84.34519,41.274439],[-84.344797,41.274438],[-84.344799,41.274108]]]},"properties":{"p":"B01-4161-0-043-00","o":"C PROPERTYS LLC","a":"124  HILL","d":"DEFIANCE CITY SCHOOL DISTRICT","t":392.33,"l":"510: Res-Single Family","c":0}},{"type":"Feature","geometry":{"type":"Polygon","coordinates":[[[-84.345227,41.274162],[-84.345457,41.27444],[-84.345242,41.274439],[-84.345202,41.274392],[-84.345227,41.274162]]]},"properties":{"p":"B01-4161-0-040-00","o":"C PROPERTY'S LLC","a":"111  HILL","d":"DEFIANCE CITY SCHOOL DISTRICT","t":771.46,"l":"510: Res-Single Family","c":0}},{"type":"Feature","geometry":{"type":"Polygon","coordinates":[[[-84.345655,41.274112],[-84.345653,41.274441],[-84.345509,41.27444],[-84.345235,41.27411],[-84.345655,41.274112]]]},"properties":{"p":"B01-4161-0-040-00","o":"C PROPERTY'S LLC","a":"111  HILL","d":"DEFIANCE CITY SCHOOL DISTRICT","t":771.46,"l":"510: Res-Single Family","c":0}},{"type":"Feature","geometry":{"type":"Polygon","coordinates":[[[-84.346746,41.274445],[-84.346749,41.274117],[-84.34693,41.274118],[-84.346928,41.274446],[-84.346746,41.274445]]]},"properties":{"p":"B01-4161-0-033-00","o":"C PROPERTYS LLC","a":"104  HILL","d":"DEFIANCE CITY SCHOOL DISTRICT","t":307.06,"l":"510: Res-Single Family","c":0}},{"type":"Feature","geometry":{"type":"Polygon","coordinates":[[[-84.347105,41.274447],[-84.347105,41.274118],[-84.34728,41.274119],[-84.34728,41.274448],[-84.347105,41.274447]]]},"properties":{"p":"B01-4161-0-031-00","o":"C PROPERTYS LLC","a":"102  HILL","d":"DEFIANCE CITY SCHOOL DISTRICT","t":1378.91,"l":"510: Res-Single Family","c":0}},{"type":"Feature","geometry":{"type":"Polygon","coordinates":[[[-84.346083,41.276221],[-84.346083,41.276567],[-84.345901,41.276566],[-84.345901,41.27622],[-84.346083,41.276221]]]},"properties":{"p":"B01-4159-0-030-00","o":"RODRIQUEZ RAUL D","a":"MARTIN","d":"DEFIANCE CITY SCHOOL DISTRICT","t":39.61,"l":"500: Res-Vacant Land","c":0}},{"type":"Feature","geometry":{"type":"Polygon","coordinates":[[[-84.345901,41.276566],[-84.345719,41.276565],[-84.345719,41.276236],[-84.3459,41.276237],[-84.345901,41.276566]]]},"properties":{"p":"B01-4159-0-029-00","o":"RODRIQUEZ RAUL D","a":"MARTIN","d":"DEFIANCE CITY SCHOOL DISTRICT","t":33.12,"l":"500: Res-Vacant Land","c":0}},{"type":"Feature","geometry":{"type":"Polygon","coordinates":[[[-84.345719,41.276565],[-84.345537,41.276565],[-84.345537,41.276235],[-84.345719,41.276236],[-84.345719,41.276565]]]},"properties":{"p":"B01-4159-0-028-00","o":"RODRIQUEZ FELIX R","a":"MARTIN","d":"DEFIANCE CITY SCHOOL DISTRICT","t":26.65,"l":"500: Res-Vacant Land","c":0}},{"type":"Feature","geometry":{"type":"Polygon","coordinates":[[[-84.345537,41.276565],[-84.345355,41.276565],[-84.345355,41.276235],[-84.345537,41.276235],[-84.345537,41.276565]]]},"properties":{"p":"B01-4159-0-027-00","o":"ESCOVEDO DOLORES","a":"MARTIN","d":"DEFIANCE CITY SCHOOL DISTRICT","t":77.5,"l":"500: Res-Vacant Land","c":0}},{"type":"Feature","geometry":{"type":"Polygon","coordinates":[[[-84.349682,41.277533],[-84.348729,41.277524],[-84.348729,41.277455],[-84.348038,41.27745],[-84.347712,41.27707],[-84.34968,41.277068],[-84.349682,41.277533]]]},"properties":{"p":"B01-4158-0-025-00","o":"GLYCERIN TRADERS LLC","a":"SCHRACK","d":"DEFIANCE CITY SCHOOL DISTRICT","t":76.02,"l":"620: Exm-County","c":0}},{"type":"Feature","geometry":{"type":"Polygon","coordinates":[[[-84.348407,41.277037],[-84.348225,41.277038],[-84.348223,41.276709],[-84.348405,41.276709],[-84.348407,41.277037]]]},"properties":{"p":"B01-4158-0-022-00","o":"GLYCERIN TRADERS LLC","a":"SAUERS","d":"DEFIANCE CITY SCHOOL DISTRICT","t":44.25,"l":"620: Exm-County","c":0}},{"type":"Feature","geometry":{"type":"Polygon","coordinates":[[[-84.348588,41.277037],[-84.348407,41.277037],[-84.348405,41.276709],[-84.348587,41.276708],[-84.348588,41.277037]]]},"properties":{"p":"B01-4158-0-021-00","o":"GLYCERIN TRADERS LLC","a":"SAUERS","d":"DEFIANCE CITY SCHOOL DISTRICT","t":44.25,"l":"620: Exm-County","c":0}},{"type":"Feature","geometry":{"type":"Polygon","coordinates":[[[-84.34877,41.277037],[-84.348588,41.277037],[-84.348587,41.276708],[-84.348769,41.276708],[-84.34877,41.277037]]]},"properties":{"p":"B01-4158-0-020-00","o":"GLYCERIN TRADERS LLC","a":"SAUERS","d":"DEFIANCE CITY SCHOOL DISTRICT","t":44.25,"l":"620: Exm-County","c":0}},{"type":"Feature","geometry":{"type":"Polygon","coordinates":[[[-84.349134,41.277036],[-84.348952,41.277036],[-84.348951,41.276708],[-84.349132,41.276707],[-84.349134,41.277036]]]},"properties":{"p":"B01-4158-0-018-00","o":"GLYCERIN TRADERS LLC","a":"SAUERS","d":"DEFIANCE CITY SCHOOL DISTRICT","t":44.25,"l":"620: Exm-County","c":0}},{"type":"Feature","geometry":{"type":"Polygon","coordinates":[[[-84.349316,41.277036],[-84.349134,41.277036],[-84.349132,41.276707],[-84.349315,41.276707],[-84.349316,41.277036]]]},"properties":{"p":"B01-4158-0-017-00","o":"GLYCERIN TRADERS LLC","a":"SAUERS","d":"DEFIANCE CITY SCHOOL DISTRICT","t":44.25,"l":"620: Exm-County","c":0}},{"type":"Feature","geometry":{"type":"Polygon","coordinates":[[[-84.349498,41.277035],[-84.349316,41.277036],[-84.349315,41.276707],[-84.349496,41.276706],[-84.349498,41.277035]]]},"properties":{"p":"B01-4158-0-016-00","o":"GLYCERIN TRADERS LLC","a":"SAUERS","d":"DEFIANCE CITY SCHOOL DISTRICT","t":44.25,"l":"620: Exm-County","c":0}},{"type":"Feature","geometry":{"type":"Polygon","coordinates":[[[-84.34968,41.277035],[-84.349498,41.277035],[-84.349496,41.276706],[-84.349678,41.276706],[-84.34968,41.277035]]]},"properties":{"p":"B01-4158-0-015-00","o":"GLYCERIN TRADERS LLC","a":"SAUERS","d":"DEFIANCE CITY SCHOOL DISTRICT","t":44.25,"l":"620: Exm-County","c":0}},{"type":"Feature","geometry":{"type":"Polygon","coordinates":[[[-84.349678,41.276706],[-84.34986,41.276705],[-84.349862,41.277035],[-84.34968,41.277035],[-84.349678,41.276706]]]},"properties":{"p":"B01-4158-0-014-00","o":"GLYCERIN TRADERS LLC","a":"SAUERS","d":"DEFIANCE CITY SCHOOL DISTRICT","t":44.25,"l":"620: Exm-County","c":0}},{"type":"Feature","geometry":{"type":"Polygon","coordinates":[[[-84.34968,41.277068],[-84.349862,41.277068],[-84.349863,41.277397],[-84.349681,41.277395],[-84.34968,41.277068]]]},"properties":{"p":"B01-4158-0-005-00","o":"GLYCERIN TRADERS LLC","a":"GREENLER","d":"DEFIANCE CITY SCHOOL DISTRICT","t":44.25,"l":"620: Exm-County","c":0}},{"type":"Feature","geometry":{"type":"Polygon","coordinates":[[[-84.345901,41.278683],[-84.345717,41.278681],[-84.345716,41.278352],[-84.3459,41.278353],[-84.345901,41.278683]]]},"properties":{"p":"B01-4157-0-043-00","o":"KELLEY AMY","a":"906  COLUMBUS","d":"DEFIANCE CITY SCHOOL DISTRICT","t":568.35,"l":"510: Res-Single Family","c":0}},{"type":"Feature","geometry":{"type":"Polygon","coordinates":[[[-84.346084,41.278684],[-84.345901,41.278683],[-84.3459,41.278353],[-84.346083,41.278355],[-84.346084,41.278684]]]},"properties":{"p":"B01-4157-0-041-00","o":"ANDERS KATELYNE","a":"904  COLUMBUS","d":"DEFIANCE CITY SCHOOL DISTRICT","t":550.7,"l":"510: Res-Single Family","c":0}},{"type":"Feature","geometry":{"type":"Polygon","coordinates":[[[-84.352738,41.275784],[-84.352802,41.275626],[-84.353319,41.275691],[-84.353241,41.275874],[-84.352738,41.275784]]]},"properties":{"p":"B01-4154-0-002-00","o":"RAMIREZ SIMON JR","a":"920  KARNES","d":"DEFIANCE CITY SCHOOL DISTRICT","t":138.95,"l":"510: Res-Single Family","c":0}},{"type":"Feature","geometry":{"type":"Polygon","coordinates":[[[-84.352057,41.279312],[-84.351346,41.279305],[-84.351347,41.279168],[-84.352057,41.279174],[-84.352057,41.279312]]]},"properties":{"p":"B01-4153-0-028-00","o":"C PROPERTYS LLC","a":"716  OTTAWA","d":"DEFIANCE CITY SCHOOL DISTRICT","t":847.24,"l":"510: Res-Single Family","c":0}},{"type":"Feature","geometry":{"type":"Polygon","coordinates":[[[-84.352845,41.278425],[-84.352669,41.278426],[-84.352672,41.277864],[-84.352848,41.277862],[-84.352845,41.278425]]]},"properties":{"p":"B01-4153-0-015-00","o":"RAY CHRISTINA M","a":"436  RULF","d":"DEFIANCE CITY SCHOOL DISTRICT","t":115.54,"l":"500: Res-Vacant Land","c":0}},{"type":"Feature","geometry":{"type":"Polygon","coordinates":[[[-84.353936,41.280831],[-84.354117,41.280841],[-84.354121,41.281253],[-84.35394,41.281245],[-84.353936,41.280831]]]},"properties":{"p":"B01-4152-0-032-00","o":"PARTEE CARISA","a":"401  HOPKINS","d":"DEFIANCE CITY SCHOOL DISTRICT","t":275.03,"l":"510: Res-Single Family","c":0}},{"type":"Feature","geometry":{"type":"Polygon","coordinates":[[[-84.353102,41.281204],[-84.352921,41.281194],[-84.352917,41.280777],[-84.353098,41.280787],[-84.353102,41.281204]]]},"properties":{"p":"B01-4152-0-014-00","o":"HILL GUY W & KIMBERLY L","a":"425  HOPKINS & 427","d":"DEFIANCE CITY SCHOOL DISTRICT","t":18627.06,"l":"400: Com-Vacant Land","c":0}},{"type":"Feature","geometry":{"type":"Polygon","coordinates":[[[-84.356183,41.280608],[-84.355892,41.280593],[-84.355889,41.280447],[-84.356179,41.280462],[-84.356183,41.280608]]]},"properties":{"p":"B01-4151-0-046-00","o":"TAYLOR SHANNON D","a":"619  HENRY","d":"DEFIANCE CITY SCHOOL DISTRICT","t":201.72,"l":"510: Res-Single Family","c":0}},{"type":"Feature","geometry":{"type":"Polygon","coordinates":[[[-84.34308,41.282082],[-84.343565,41.282081],[-84.343566,41.282218],[-84.343081,41.282218],[-84.34308,41.282082]]]},"properties":{"p":"B01-4150-0-041-00","o":"HORSEY CINDY S","a":"502  TIEDEMAN","d":"DEFIANCE CITY SCHOOL DISTRICT","t":1055.36,"l":"510: Res-Single Family","c":0}},{"type":"Feature","geometry":{"type":"Polygon","coordinates":[[[-84.352201,41.282229],[-84.351802,41.282208],[-84.351802,41.282098],[-84.352202,41.282119],[-84.352201,41.282229]]]},"properties":{"p":"B01-4147-0-032-00","o":"PHILLIPS LEROY D","a":"415  HIGHLAND","d":"DEFIANCE CITY SCHOOL DISTRICT","t":994.76,"l":"510: Res-Single Family","c":0}},{"type":"Feature","geometry":{"type":"Polygon","coordinates":[[[-84.345489,41.283748],[-84.34503,41.283748],[-84.34503,41.283639],[-84.345489,41.283638],[-84.345489,41.283748]]]},"properties":{"p":"B01-4145-0-105-00","o":"STEELE JULIA","a":"410  OSCEOLA","d":"DEFIANCE CITY SCHOOL DISTRICT","t":987.22,"l":"510: Res-Single Family","c":0}},{"type":"Feature","geometry":{"type":"Polygon","coordinates":[[[-84.352458,41.285219],[-84.352383,41.285336],[-84.35195,41.28518],[-84.352024,41.285063],[-84.352458,41.285219]]]},"properties":{"p":"B01-4142-0-105-00","o":"STATE OF OHIO","a":"101  SENECA","d":"DEFIANCE CITY SCHOOL DISTRICT","t":2548.3,"l":"610: Exm-Ohio","c":0}},{"type":"Feature","geometry":{"type":"Polygon","coordinates":[[[-84.354184,41.284636],[-84.354122,41.284733],[-84.353689,41.284576],[-84.353751,41.284479],[-84.354184,41.284636]]]},"properties":{"p":"B01-4142-0-086-00","o":"JACKSON JOSEPH P","a":"SUMMIT","d":"DEFIANCE CITY SCHOOL DISTRICT","t":113.31,"l":"500: Res-Vacant Land","c":0}},{"type":"Feature","geometry":{"type":"Polygon","coordinates":[[[-84.369932,41.261549],[-84.369938,41.261275],[-84.370377,41.261276],[-84.370433,41.261295],[-84.370466,41.261333],[-84.370467,41.26155],[-84.369932,41.261549]]]},"properties":{"p":"B01-4035-B-011-00","o":"SPAIN SHIRLEY J","a":"1863  GINTER","d":"DEFIANCE CITY SCHOOL DISTRICT","t":1596.87,"l":"510: Res-Single Family","c":0}},{"type":"Feature","geometry":{"type":"Polygon","coordinates":[[[-84.369328,41.26998],[-84.369285,41.269946],[-84.369278,41.269878],[-84.368833,41.269618],[-84.368791,41.269604],[-84.368746,41.269613],[-84.368332,41.269428],[-84.368331,41.269143],[-84.37013,41.268619],[-84.369999,41.268868],[-84.369328,41.26998]]]},"properties":{"p":"B01-4026-0-003-00","o":"GROLL JAMES W","a":"JEFFERSON","d":"DEFIANCE CITY SCHOOL DISTRICT","t":56.25,"l":"501: Res-Custom Code","c":0}},{"type":"Feature","geometry":{"type":"Polygon","coordinates":[[[-84.357946,41.292437],[-84.357947,41.292071],[-84.358184,41.292088],[-84.35814,41.29245],[-84.357946,41.292437]]]},"properties":{"p":"B01-3134-0-008-00","o":"STRAKA RICHARD L","a":"219  CORWIN & 320 WALNUT","d":"DEFIANCE CITY SCHOOL DISTRICT","t":1452.47,"l":"510: Res-Single Family","c":0}},{"type":"Feature","geometry":{"type":"Polygon","coordinates":[[[-84.356494,41.294776],[-84.356265,41.294877],[-84.356256,41.29457],[-84.356339,41.294533],[-84.356494,41.294776]]]},"properties":{"p":"B01-3129-0-042-00","o":"RUBY GEORGIANNA","a":"229  WABASH","d":"DEFIANCE CITY SCHOOL DISTRICT","t":587.36,"l":"510: Res-Single Family","c":0}},{"type":"Feature","geometry":{"type":"Polygon","coordinates":[[[-84.356265,41.294877],[-84.356088,41.294955],[-84.356086,41.294645],[-84.356256,41.29457],[-84.356265,41.294877]]]},"properties":{"p":"B01-3129-0-041-00","o":"RUBY GEORGIANNA","a":"WABASH","d":"DEFIANCE CITY SCHOOL DISTRICT","t":54.81,"l":"500: Res-Vacant Land","c":0}},{"type":"Feature","geometry":{"type":"Polygon","coordinates":[[[-84.358603,41.294409],[-84.358145,41.294409],[-84.358145,41.29429],[-84.358604,41.294291],[-84.358603,41.294409]]]},"properties":{"p":"B01-3129-0-004-00","o":"A & J ENTERPRISES LLC % JACOB M SCHUMM","a":"511  PEARL","d":"DEFIANCE CITY SCHOOL DISTRICT","t":1404.69,"l":"510: Res-Single Family","c":0}},{"type":"Feature","geometry":{"type":"Polygon","coordinates":[[[-84.361975,41.294141],[-84.361975,41.294332],[-84.361494,41.29433],[-84.361495,41.294144],[-84.361975,41.294141]]]},"properties":{"p":"B01-3126-0-098-00","o":"C PROPERTYS LLC","a":"509  NICHOLAS","d":"DEFIANCE CITY SCHOOL DISTRICT","t":876.97,"l":"510: Res-Single Family","c":0}},{"type":"Feature","geometry":{"type":"Polygon","coordinates":[[[-84.361452,41.293963],[-84.360972,41.293967],[-84.360973,41.293786],[-84.361453,41.293782],[-84.361452,41.293963]]]},"properties":{"p":"B01-3126-0-058-00","o":"C PROPERTYS LLC","a":"500 N CLINTON","d":"DEFIANCE CITY SCHOOL DISTRICT","t":1500.41,"l":"510: Res-Single Family","c":0}},{"type":"Feature","geometry":{"type":"Polygon","coordinates":[[[-84.36507,41.297235],[-84.364589,41.297244],[-84.36459,41.297063],[-84.36507,41.297054],[-84.36507,41.297235]]]},"properties":{"p":"B01-3120-0-026-00","o":"RAMOS JOSE T & HEREMLINDA % MICHAEL RAMOS","a":"810  ELBERT","d":"DEFIANCE CITY SCHOOL DISTRICT","t":1427.32,"l":"510: Res-Single Family","c":0}},{"type":"Feature","geometry":{"type":"Polygon","coordinates":[[[-84.365598,41.296319],[-84.365597,41.2965],[-84.365117,41.296509],[-84.365117,41.296328],[-84.365598,41.296319]]]},"properties":{"p":"B01-3120-0-005-00","o":"WANN DENNIS W & TANIA R","a":"725  MOSS","d":"DEFIANCE CITY SCHOOL DISTRICT","t":333.69,"l":"560: Res-Mobile Home","c":0}},{"type":"Feature","geometry":{"type":"Polygon","coordinates":[[[-84.423566,41.270158],[-84.421903,41.267353],[-84.421763,41.265403],[-84.43688,41.261423],[-84.436948,41.261517],[-84.435964,41.261987],[-84.43464,41.262963],[-84.433582,41.26396],[-84.432816,41.264928],[-84.431619,41.266389],[-84.4307,41.267242],[-84.427778,41.268698],[-84.426557,41.269244],[-84.423566,41.270158]]]},"properties":{"p":"B01-2111-0-007-02","o":"STATE OF OHIO","a":"ST RT 24","d":"DEFIANCE CITY SCHOOL DISTRICT","t":26407.8,"l":"100: Agr-Vacant Land","c":0}},{"type":"Feature","geometry":{"type":"Polygon","coordinates":[[[-84.378748,41.275809],[-84.378624,41.275708],[-84.37891,41.275509],[-84.379034,41.275609],[-84.378748,41.275809]]]},"properties":{"p":"B01-2100-0-036-00","o":"PHILLIPS LEROY D","a":"1305 S JACKSON","d":"DEFIANCE CITY SCHOOL DISTRICT","t":729.9,"l":"510: Res-Single Family","c":0}},{"type":"Feature","geometry":{"type":"Polygon","coordinates":[[[-84.378584,41.27664],[-84.378257,41.276375],[-84.378433,41.276252],[-84.37876,41.276518],[-84.378584,41.27664]]]},"properties":{"p":"B01-2100-0-014-00","o":"JEFF KENT","a":"1240 S JACKSON","d":"DEFIANCE CITY SCHOOL DISTRICT","t":1022.77,"l":"510: Res-Single Family","c":0}},{"type":"Feature","geometry":{"type":"Polygon","coordinates":[[[-84.374053,41.28439],[-84.374007,41.284445],[-84.373116,41.2838],[-84.373174,41.283754],[-84.374053,41.28439]]]},"properties":{"p":"B01-2091-0-014-00","o":"ELSWICK SAMANTHA K","a":"HOLGATE","d":"DEFIANCE CITY SCHOOL DISTRICT","t":95.89,"l":"599: Res-Other","c":0}},{"type":"Feature","geometry":{"type":"Polygon","coordinates":[[[-84.369761,41.282199],[-84.369663,41.282117],[-84.369881,41.281972],[-84.369979,41.282053],[-84.369761,41.282199]]]},"properties":{"p":"B01-2090-0-013-00","o":"FRY SAM ETAL","a":"717  STRATTON","d":"DEFIANCE CITY SCHOOL DISTRICT","t":1573.03,"l":"510: Res-Single Family","c":0}},{"type":"Feature","geometry":{"type":"Polygon","coordinates":[[[-84.372071,41.280664],[-84.371735,41.280387],[-84.371859,41.280296],[-84.372197,41.280572],[-84.372071,41.280664]]]},"properties":{"p":"B01-2089-0-044-00","o":"CERVANTEZ ORALIA TERRAZAS","a":"907  JACKSON","d":"DEFIANCE CITY SCHOOL DISTRICT","t":973.84,"l":"510: Res-Single Family","c":0}},{"type":"Feature","geometry":{"type":"Polygon","coordinates":[[[-84.371833,41.280274],[-84.371709,41.280365],[-84.371385,41.280098],[-84.371506,41.280008],[-84.371833,41.280274]]]},"properties":{"p":"B01-2089-0-041-00","o":"CLEMENS DEBRA K ETAL","a":"906  PERRY","d":"DEFIANCE CITY SCHOOL DISTRICT","t":575.12,"l":"510: Res-Single Family","c":0}},{"type":"Feature","geometry":{"type":"Polygon","coordinates":[[[-84.373775,41.278433],[-84.373714,41.278384],[-84.37387,41.27827],[-84.374019,41.278387],[-84.373775,41.278433]]]},"properties":{"p":"B01-2081-0-020-00","o":"MAYFIELD WILLIAM %VERNON MAYFIELD","a":"PERRY","d":"DEFIANCE CITY SCHOOL DISTRICT","t":516.97,"l":"500: Res-Vacant Land","c":0}},{"type":"Feature","geometry":{"type":"Polygon","coordinates":[[[-84.374019,41.278387],[-84.37387,41.27827],[-84.373933,41.278224],[-84.374116,41.278368],[-84.374019,41.278387]]]},"properties":{"p":"B01-2081-0-019-00","o":"MAYFIELD WILLIAM % VERNON MAYFIELD","a":"PERRY","d":"DEFIANCE CITY SCHOOL DISTRICT","t":267.23,"l":"500: Res-Vacant Land","c":0}},{"type":"Feature","geometry":{"type":"Polygon","coordinates":[[[-84.385364,41.271192],[-84.385045,41.271416],[-84.384645,41.271083],[-84.38497,41.270862],[-84.385364,41.271192]]]},"properties":{"p":"B01-1106-0-016-01","o":"KINDER TIMOTHY M & CANDICE S","a":"1433 S JACKSON","d":"DEFIANCE CITY SCHOOL DISTRICT","t":42.09,"l":"510: Res-Single Family","c":0}},{"type":"Feature","geometry":{"type":"Polygon","coordinates":[[[-84.394516,41.26367],[-84.394149,41.263366],[-84.394339,41.263237],[-84.394706,41.263542],[-84.394516,41.26367]]]},"properties":{"p":"B01-1076-0-004-00","o":"SANTOS STEPHEN N","a":"1660  TERRAWENDA","d":"DEFIANCE CITY SCHOOL DISTRICT","t":145.32,"l":"510: Res-Single Family","c":0}},{"type":"Feature","geometry":{"type":"Polygon","coordinates":[[[-84.393366,41.259131],[-84.39286,41.258885],[-84.393072,41.258644],[-84.393559,41.258962],[-84.393366,41.259131]]]},"properties":{"p":"B01-1074-B-075-00","o":"RUFENACHT CHANNON","a":"1875  LANGLAN","d":"DEFIANCE CITY SCHOOL DISTRICT","t":240.42,"l":"510: Res-Single Family","c":0}},{"type":"Feature","geometry":{"type":"Polygon","coordinates":[[[-84.368426,41.273064],[-84.36794,41.272889],[-84.368034,41.272741],[-84.368519,41.272915],[-84.368426,41.273064]]]},"properties":{"p":"B01-1053-0-009-00","o":"FALL JEFFREY B","a":"1204  JEFFERSON","d":"DEFIANCE CITY SCHOOL DISTRICT","t":502.6,"l":"510: Res-Single Family","c":0}},{"type":"Feature","geometry":{"type":"Polygon","coordinates":[[[-84.372971,41.275064],[-84.373161,41.274765],[-84.373303,41.274817],[-84.373113,41.275115],[-84.372971,41.275064]]]},"properties":{"p":"B01-1048-0-020-00","o":"ROEHRIG DANNY L & MARY A","a":"897  DOWNS","d":"DEFIANCE CITY SCHOOL DISTRICT","t":209.41,"l":"510: Res-Single Family","c":0}},{"type":"Feature","geometry":{"type":"Polygon","coordinates":[[[-84.372571,41.27492],[-84.372761,41.27462],[-84.372975,41.274698],[-84.372784,41.274997],[-84.372571,41.27492]]]},"properties":{"p":"B01-1048-0-018-00","o":"BRYANT- OEHLER TERESA","a":"893  DOWNS","d":"DEFIANCE CITY SCHOOL DISTRICT","t":400.55,"l":"510: Res-Single Family","c":0}},{"type":"Feature","geometry":{"type":"Polygon","coordinates":[[[-84.363541,41.273919],[-84.363672,41.273966],[-84.363485,41.274263],[-84.363353,41.274216],[-84.363541,41.273919]]]},"properties":{"p":"B01-1044-0-004-00","o":"WASILEWSKI JACOB","a":"105  SPAFFORD","d":"DEFIANCE CITY SCHOOL DISTRICT","t":113.76,"l":"500: Res-Vacant Land","c":0}},{"type":"Feature","geometry":{"type":"Polygon","coordinates":[[[-84.364006,41.274331],[-84.363945,41.274428],[-84.363534,41.274281],[-84.363595,41.274184],[-84.364006,41.274331]]]},"properties":{"p":"B01-1044-0-003-00","o":"WASILEWSKI JACOB","a":"RIVERSIDE","d":"DEFIANCE CITY SCHOOL DISTRICT","t":105.04,"l":"500: Res-Vacant Land","c":0}},{"type":"Feature","geometry":{"type":"Polygon","coordinates":[[[-84.359752,41.281066],[-84.359318,41.280911],[-84.359389,41.2808],[-84.359823,41.280955],[-84.359752,41.281066]]]},"properties":{"p":"B01-1030-0-009-00","o":"C PROPERTIES LLC","a":"627  RIVERSIDE","d":"DEFIANCE CITY SCHOOL DISTRICT","t":795.2,"l":"510: Res-Single Family","c":0}},{"type":"Feature","geometry":{"type":"Polygon","coordinates":[[[-84.362159,41.278494],[-84.361726,41.278337],[-84.361791,41.278234],[-84.362224,41.278391],[-84.362159,41.278494]]]},"properties":{"p":"B01-1028-0-036-00","o":"FAIRCHILD HOLLIE","a":"828  RIVERSIDE","d":"DEFIANCE CITY SCHOOL DISTRICT","t":481.28,"l":"510: Res-Single Family","c":0}},{"type":"Feature","geometry":{"type":"Polygon","coordinates":[[[-84.362099,41.286287],[-84.361951,41.286234],[-84.361985,41.286179],[-84.362202,41.286257],[-84.362168,41.286312],[-84.362099,41.286287]]]},"properties":{"p":"B01-1005-0-010-00","o":"MILLER ANNETTE J","a":"309  CLINTON","d":"DEFIANCE CITY SCHOOL DISTRICT","t":1115.96,"l":"429: Com-Other","c":0}},{"type":"Feature","geometry":{"type":"Polygon","coordinates":[[[-84.551395,41.297853],[-84.551397,41.297727],[-84.551489,41.297728],[-84.551487,41.297853],[-84.551395,41.297853]]]},"properties":{"p":"C18-0017-C-025-00","o":"PARADISE LIVING LLC","a":"100  PARADISE","d":"CENTRAL LOCAL SCHOOL DISTRICT","t":56.96,"l":"550: Res-Condo","c":0}},{"type":"Feature","geometry":{"type":"Polygon","coordinates":[[[-84.551817,41.29792],[-84.551818,41.297851],[-84.551985,41.297852],[-84.551984,41.297921],[-84.551817,41.29792]]]},"properties":{"p":"C18-0017-C-021-00","o":"PARADISE LIVING LLC","a":"708  HERITAGE","d":"CENTRAL LOCAL SCHOOL DISTRICT","t":56.96,"l":"550: Res-Condo","c":0}},{"type":"Feature","geometry":{"type":"Polygon","coordinates":[[[-84.550738,41.297234],[-84.550738,41.29711],[-84.55084,41.297111],[-84.550839,41.297234],[-84.550738,41.297234]]]},"properties":{"p":"C18-0017-C-007-00","o":"PARADISE LIVING LLC","a":"112  WIRTH","d":"CENTRAL LOCAL SCHOOL DISTRICT","t":56.96,"l":"550: Res-Condo","c":0}},{"type":"Feature","geometry":{"type":"Polygon","coordinates":[[[-84.385383,41.267061],[-84.385263,41.267198],[-84.384805,41.266966],[-84.384924,41.266829],[-84.385383,41.267061]]]},"properties":{"p":"B01-1066-0-014-00","o":"LUCAS MATTHEW A","a":"1545 S CLINTON","d":"DEFIANCE CITY SCHOOL DISTRICT","t":143.92,"l":"510: Res-Single Family","c":0}},{"type":"Feature","geometry":{"type":"Polygon","coordinates":[[[-84.364069,41.274232],[-84.364006,41.274331],[-84.363595,41.274184],[-84.363658,41.274085],[-84.364069,41.274232]]]},"properties":{"p":"B01-1044-0-002-00","o":"WASILEWSKI JACOB","a":"RIVERSIDE","d":"DEFIANCE CITY SCHOOL DISTRICT","t":110.52,"l":"500: Res-Vacant Land","c":0}},{"type":"Feature","geometry":{"type":"Polygon","coordinates":[[[-84.364396,41.276257],[-84.364473,41.276132],[-84.364904,41.276289],[-84.364826,41.276413],[-84.364396,41.276257]]]},"properties":{"p":"B01-1032-0-015-00","o":"HARDY DEBORAH A","a":"934  WASHINGTON","d":"DEFIANCE CITY SCHOOL DISTRICT","t":1421.22,"l":"510: Res-Single Family","c":0}},{"type":"Feature","geometry":{"type":"Polygon","coordinates":[[[-84.36923,41.280565],[-84.36911,41.280645],[-84.368584,41.280205],[-84.368702,41.280124],[-84.36923,41.280565]]]},"properties":{"p":"B01-1023-0-023-00","o":"ROEHRIG MARY A ETAL","a":"866 S CLINTON","d":"DEFIANCE CITY SCHOOL DISTRICT","t":633.21,"l":"510: Res-Single Family","c":0}},{"type":"Feature","geometry":{"type":"Polygon","coordinates":[[[-84.551152,41.297851],[-84.55106,41.29785],[-84.551062,41.297724],[-84.551154,41.297725],[-84.551152,41.297851]]]},"properties":{"p":"C18-0017-C-028-00","o":"PARADISE LIVING LLC","a":"106  PARADISE","d":"CENTRAL LOCAL SCHOOL DISTRICT","t":56.96,"l":"550: Res-Condo","c":0}},{"type":"Feature","geometry":{"type":"Polygon","coordinates":[[[-84.550906,41.297849],[-84.550814,41.297848],[-84.550815,41.297722],[-84.550907,41.297723],[-84.550906,41.297849]]]},"properties":{"p":"C18-0017-C-030-00","o":"PARADISE LIVING LLC","a":"110  PARADISE","d":"CENTRAL LOCAL SCHOOL DISTRICT","t":56.96,"l":"550: Res-Condo","c":0}},{"type":"Feature","geometry":{"type":"Polygon","coordinates":[[[-84.550663,41.297847],[-84.550571,41.297846],[-84.550572,41.297721],[-84.550664,41.297721],[-84.550663,41.297847]]]},"properties":{"p":"C18-0017-C-032-00","o":"PARADISE LIVING LLC","a":"114  PARADISE","d":"CENTRAL LOCAL SCHOOL DISTRICT","t":56.96,"l":"550: Res-Condo","c":0}},{"type":"Feature","geometry":{"type":"Polygon","coordinates":[[[-84.551154,41.298129],[-84.551153,41.298255],[-84.551061,41.298254],[-84.551063,41.298128],[-84.551154,41.298129]]]},"properties":{"p":"C18-0017-C-036-00","o":"PARADISE LIVING LLC","a":"107  PARADISE","d":"CENTRAL LOCAL SCHOOL DISTRICT","t":56.96,"l":"550: Res-Condo","c":0}},{"type":"Feature","geometry":{"type":"Polygon","coordinates":[[[-84.550665,41.298125],[-84.550663,41.298251],[-84.550571,41.29825],[-84.550573,41.298124],[-84.550665,41.298125]]]},"properties":{"p":"C18-0017-C-040-00","o":"PARADISE LIVING LLC","a":"115  PARADISE","d":"CENTRAL LOCAL SCHOOL DISTRICT","t":56.96,"l":"550: Res-Condo","c":0}},{"type":"Feature","geometry":{"type":"Polygon","coordinates":[[[-84.611354,41.348861],[-84.610296,41.348872],[-84.610289,41.34846],[-84.611346,41.348449],[-84.611354,41.348861]]]},"properties":{"p":"D24-0035-0-006-03","o":"STECHER JOYCE A","a":"6411  WILLIAMS CENTER CECIL","d":"CENTRAL LOCAL SCHOOL DISTRICT","t":554.99,"l":"511: Res-Custom Code","c":0}},{"type":"Feature","geometry":{"type":"Polygon","coordinates":[[[-84.757403,41.297351],[-84.757648,41.297556],[-84.756627,41.298243],[-84.756359,41.298019],[-84.756821,41.297709],[-84.756843,41.297727],[-84.757403,41.297351]]]},"properties":{"p":"E06-0006-0-048-00","o":"FULMER DAMIEN S","a":"110  BUNNELL","d":"HICKSVILLE EX VILL SCHOOL DISTRICT","t":6943.67,"l":"455: Com-Garage","c":0}},{"type":"Feature","geometry":{"type":"Polygon","coordinates":[[[-84.765235,41.295708],[-84.765076,41.295574],[-84.76542,41.295343],[-84.765742,41.295481],[-84.765669,41.295531],[-84.765595,41.295468],[-84.765235,41.295708]]]},"properties":{"p":"E06-0015-0-038-00","o":"ZARTMAN EUGENE H & JESSICA C","a":"306 N MAIN","d":"HICKSVILLE EX VILL SCHOOL DISTRICT","t":3994.79,"l":"510: Res-Single Family","c":0}},{"type":"Feature","geometry":{"type":"Polygon","coordinates":[[[-84.781172,41.324927],[-84.781164,41.323571],[-84.781255,41.323571],[-84.781263,41.324928],[-84.781172,41.324927]]]},"properties":{"p":"E20-0008-0-003-01","o":"BENNETT ROBERT E & TIFFANY","a":"BUCKSKIN","d":"HICKSVILLE EX VILL SCHOOL DISTRICT","t":20.81,"l":"500: Res-Vacant Land","c":0}},{"type":"Feature","geometry":{"type":"Polygon","coordinates":[[[-84.716093,41.281416],[-84.715658,41.281415],[-84.715659,41.280842],[-84.716418,41.280844],[-84.716417,41.281416],[-84.716093,41.281416]]]},"properties":{"p":"E20-0026-0-003-01","o":"C PROPERTYS LLC","a":"5614  FOUNTAIN STREET","d":"HICKSVILLE EX VILL SCHOOL DISTRICT","t":359.03,"l":"511: Res-Custom Code","c":0}},{"type":"Feature","geometry":{"type":"Polygon","coordinates":[[[-84.795499,41.275462],[-84.795463,41.275482],[-84.795428,41.267025],[-84.80024,41.267037],[-84.800251,41.272234],[-84.799016,41.272945],[-84.799246,41.273384],[-84.797516,41.274339],[-84.796882,41.273685],[-84.796016,41.274163],[-84.796651,41.274819],[-84.795499,41.275462]]]},"properties":{"p":"E20-0030-0-015-00","o":"SCHWARTZ NOAH & LORENE","a":"11717  ST RT 2","d":"HICKSVILLE EX VILL SCHOOL DISTRICT","t":2.78,"l":"111: Agr-CAUV-Cash-Grain Farm","c":0}},{"type":"Feature","geometry":{"type":"Polygon","coordinates":[[[-84.321084,41.247565],[-84.318967,41.247572],[-84.318967,41.24716],[-84.321082,41.247151],[-84.321084,41.247565]]]},"properties":{"p":"F12-0005-A-007-00","o":"SMITH DONALD L & REGINA B","a":"14823  GAIL","d":"AYERSVILLE LOCAL SCHOOL DISTRICT","t":1864.82,"l":"511: Res-Custom Code","c":0}},{"type":"Feature","geometry":{"type":"Polygon","coordinates":[[[-84.323768,41.24949],[-84.323163,41.24949],[-84.323164,41.249204],[-84.32377,41.249204],[-84.323768,41.24949]]]},"properties":{"p":"F12-0005-D-052-00","o":"VANCLEVE REGINA ANN","a":"26185  ELIZABETH","d":"AYERSVILLE LOCAL SCHOOL DISTRICT","t":1430.46,"l":"500: Res-Vacant Land","c":0}},{"type":"Feature","geometry":{"type":"Polygon","coordinates":[[[-84.339452,41.238216],[-84.339472,41.234536],[-84.340062,41.234534],[-84.340043,41.238218],[-84.339452,41.238216]]]},"properties":{"p":"F12-0007-0-005-07","o":"FIELDS SHEILA","a":"25114  WATSON","d":"AYERSVILLE LOCAL SCHOOL DISTRICT","t":548.13,"l":"511: Res-Custom Code","c":0}},{"type":"Feature","geometry":{"type":"Polygon","coordinates":[[[-84.323353,41.230936],[-84.323356,41.230634],[-84.323901,41.230634],[-84.323898,41.230936],[-84.323353,41.230936]]]},"properties":{"p":"F12-0008-0-007-06","o":"HERALD WILLIAM","a":"14516  DOHONEY","d":"AYERSVILLE LOCAL SCHOOL DISTRICT","t":933.22,"l":"511: Res-Custom Code","c":0}},{"type":"Feature","geometry":{"type":"Polygon","coordinates":[[[-84.307671,41.230959],[-84.307122,41.230961],[-84.307126,41.230548],[-84.307671,41.230549],[-84.307671,41.230959]]]},"properties":{"p":"F12-0008-0-012-00","o":"MURPHY LORI B & MURPHY CINDA","a":"26864  SUTPHEN","d":"AYERSVILLE LOCAL SCHOOL DISTRICT","t":975.41,"l":"511: Res-Custom Code","c":0}},{"type":"Feature","geometry":{"type":"Polygon","coordinates":[[[-84.263962,41.214863],[-84.263032,41.214864],[-84.263035,41.214245],[-84.264057,41.214191],[-84.264058,41.214863],[-84.263962,41.214863]]]},"properties":{"p":"F12-0014-0-008-00","o":"DEBARBA JESSICA J","a":"HARRIS","d":"AYERSVILLE LOCAL SCHOOL DISTRICT","t":43.56,"l":"599: Res-Other","c":0}},{"type":"Feature","geometry":{"type":"Polygon","coordinates":[[[-84.338304,41.223238],[-84.338987,41.223237],[-84.338988,41.2236],[-84.338388,41.223601],[-84.338304,41.223238]]]},"properties":{"p":"F12-0018-0-004-00","o":"TAYLOR SHANNON D ETAL","a":"15010  ST RT 15","d":"AYERSVILLE LOCAL SCHOOL DISTRICT","t":1739.41,"l":"560: Res-Mobile Home","c":0}},{"type":"Feature","geometry":{"type":"Polygon","coordinates":[[[-84.611135,41.267234],[-84.611135,41.267248],[-84.608734,41.267256],[-84.608745,41.265443],[-84.611147,41.265439],[-84.611135,41.267234]]]},"properties":{"p":"G19-0035-0-006-02","o":"LAMBERT CARMEN L","a":"11054  JERICHO","d":"CENTRAL LOCAL SCHOOL DISTRICT","t":18.9,"l":"169: Res-Custom Code","c":0}},{"type":"Feature","geometry":{"type":"Polygon","coordinates":[[[-84.7229,41.426273],[-84.721623,41.426278],[-84.721592,41.426128],[-84.721754,41.425844],[-84.722198,41.425274],[-84.724248,41.4249],[-84.724799,41.424835],[-84.724807,41.425581],[-84.722896,41.425587],[-84.7229,41.426273]]]},"properties":{"p":"H21-0002-0-004-06","o":"BARTLETT ROGER D JR & LORALEE A","a":"5378  DEFIANCE WILLIAMS CO LINE","d":"EDGERTON LOCAL SCHOOL DISTRICT","t":4967.91,"l":"511: Res-Custom Code","c":0}},{"type":"Feature","geometry":{"type":"Polygon","coordinates":[[[-84.348265,41.291491],[-84.347392,41.29173],[-84.347271,41.291471],[-84.348232,41.291218],[-84.348265,41.291491]]]},"properties":{"p":"I02-0140-0-053-00","o":"FRANZDORF CAROLYN A TOD","a":"204  JOHNSON CIRCLE","d":"DEFIANCE CITY SCHOOL DISTRICT","t":1053.34,"l":"510: Res-Single Family","c":0}},{"type":"Feature","geometry":{"type":"Polygon","coordinates":[[[-84.371222,41.297393],[-84.371107,41.297352],[-84.371117,41.296251],[-84.372154,41.296257],[-84.372162,41.297377],[-84.371222,41.297393]]]},"properties":{"p":"I02-3115-0-053-01","o":"EXCELSIOR CARE GROUP ATTN: YEHUDA YOVITS","a":"395  HARDING","d":"DEFIANCE CITY SCHOOL DISTRICT","t":16333.43,"l":"412: Com-Nursing Home","c":0}},{"type":"Feature","geometry":{"type":"Polygon","coordinates":[[[-84.394517,41.337102],[-84.397064,41.337065],[-84.397076,41.337849],[-84.399342,41.337816],[-84.399342,41.337858],[-84.394529,41.337928],[-84.394517,41.337102]]]},"properties":{"p":"I13-0003-0-010-01","o":"HELTON JOHN R","a":"7193  STEVER","d":"NORTHEASTERN LOCAL SCHOOL DISTRICT","t":3791.54,"l":"511: Res-Custom Code","c":0}},{"type":"Feature","geometry":{"type":"Polygon","coordinates":[[[-84.341363,41.310575],[-84.340138,41.31057],[-84.340149,41.30874],[-84.341267,41.308722],[-84.341265,41.309194],[-84.341363,41.310575]]]},"properties":{"p":"J08-0018-0-013-00","o":"S & D MANAGEMENT OF OHIO LLC","a":"1225  CARPENTER","d":"NORTHEASTERN LOCAL SCHOOL DISTRICT","t":1268.55,"l":"455: Com-Garage","c":0}},{"type":"Feature","geometry":{"type":"Polygon","coordinates":[[[-84.333406,41.279742],[-84.333402,41.280109],[-84.332617,41.280104],[-84.332621,41.279738],[-84.333406,41.279742]]]},"properties":{"p":"J09-0030-0-022-00","o":"C PROPERTYS LLC % HACKER COMBS","a":"1810  SPRUCE","d":"AYERSVILLE LOCAL SCHOOL DISTRICT","t":3256.3,"l":"482: Com-Truck Terminal","c":0}},{"type":"Feature","geometry":{"type":"Polygon","coordinates":[[[-84.523291,41.380899],[-84.523056,41.38086],[-84.523163,41.380506],[-84.523397,41.380546],[-84.523291,41.380899]]]},"properties":{"p":"L16-0021-B-067-00","o":"WYSE JOSHUA B","a":"145 E HANNA","d":"CENTRAL LOCAL SCHOOL DISTRICT","t":135.43,"l":"510: Res-Single Family","c":0}},{"type":"Feature","geometry":{"type":"Polygon","coordinates":[[[-84.522316,41.380772],[-84.522434,41.380792],[-84.522327,41.381145],[-84.52221,41.381126],[-84.522316,41.380772]]]},"properties":{"p":"L16-0021-B-057-00","o":"JAERAE LLC","a":"210 E MAIN","d":"CENTRAL LOCAL SCHOOL DISTRICT","t":618.65,"l":"430: Com-Retaurant","c":0}},{"type":"Feature","geometry":{"type":"Polygon","coordinates":[[[-84.52221,41.381126],[-84.522092,41.381106],[-84.522199,41.380752],[-84.522316,41.380772],[-84.52221,41.381126]]]},"properties":{"p":"L16-0021-B-056-00","o":"JAERAE LLC","a":"220 E MAIN","d":"CENTRAL LOCAL SCHOOL DISTRICT","t":98.78,"l":"400: Com-Vacant Land","c":0}},{"type":"Feature","geometry":{"type":"Polygon","coordinates":[[[-84.519446,41.382048],[-84.519406,41.382041],[-84.519437,41.381906],[-84.51906,41.381584],[-84.518902,41.381176],[-84.518424,41.381114],[-84.518027,41.381101],[-84.518402,41.380975],[-84.518593,41.380695],[-84.520135,41.380944],[-84.520064,41.381171],[-84.52012,41.381346],[-84.520153,41.381584],[-84.520112,41.381716],[-84.520346,41.381759],[-84.520324,41.381828],[-84.519554,41.381698],[-84.519446,41.382048]]]},"properties":{"p":"L16-0021-A-093-00","o":"PREUSS SUSAN ETAL","a":"MAIN","d":"CENTRAL LOCAL SCHOOL DISTRICT","t":45.77,"l":"500: Res-Vacant Land","c":0}},{"type":"Feature","geometry":{"type":"Polygon","coordinates":[[[-84.527808,41.382821],[-84.527605,41.382091],[-84.528379,41.382218],[-84.528295,41.382519],[-84.527808,41.382821]]]},"properties":{"p":"L15-0021-0-003-00","o":"BRANDT MATTHEW & AMY M","a":"15437  ST RT 249","d":"CENTRAL LOCAL SCHOOL DISTRICT","t":1208.38,"l":"511: Res-Custom Code","c":0}},{"type":"Feature","geometry":{"type":"Polygon","coordinates":[[[-84.555497,41.418151],[-84.555492,41.417328],[-84.556366,41.417324],[-84.556371,41.418148],[-84.555497,41.418151]]]},"properties":{"p":"L15-0006-0-006-01","o":"SEIBERT ROBERT L","a":"1644  US RT 127","d":"CENTRAL LOCAL SCHOOL DISTRICT","t":305.86,"l":"511: Res-Custom Code","c":0}},{"type":"Feature","geometry":{"type":"Polygon","coordinates":[[[-84.396085,41.427285],[-84.3956,41.427263],[-84.395615,41.427082],[-84.396099,41.427104],[-84.396085,41.427285]]]},"properties":{"p":"K14-0003-A-100-00","o":"NORCAP 1 LLC","a":"1015  MAIN","d":"NORTHEASTERN LOCAL SCHOOL DISTRICT","t":2484.18,"l":"510: Res-Single Family","c":0}},{"type":"Feature","geometry":{"type":"Polygon","coordinates":[[[-84.396875,41.426513],[-84.39639,41.426491],[-84.396405,41.42631],[-84.396889,41.426332],[-84.396875,41.426513]]]},"properties":{"p":"K14-0003-A-094-00","o":"SCHMIDT JEREMY & JENNIFER","a":"MAIN","d":"NORTHEASTERN LOCAL SCHOOL DISTRICT","t":101.53,"l":"599: Res-Other","c":0}},{"type":"Feature","geometry":{"type":"Polygon","coordinates":[[[-84.399246,41.427077],[-84.397609,41.427007],[-84.397624,41.426832],[-84.399575,41.426915],[-84.399573,41.427036],[-84.399251,41.427022],[-84.399246,41.427077]]]},"properties":{"p":"K14-0003-A-042-00","o":"ELLIOTT DONALD E & MARY K","a":"1050  WEST","d":"NORTHEASTERN LOCAL SCHOOL DISTRICT","t":976.41,"l":"510: Res-Single Family","c":0}},{"type":"Feature","geometry":{"type":"Polygon","coordinates":[[[-84.274893,41.283102],[-84.274545,41.283101],[-84.27455,41.282544],[-84.274899,41.282545],[-84.274893,41.283102]]]},"properties":{"p":"J09-0022-C-003-00","o":"ISAACS PATRICIA","a":"ST RT 281","d":"AYERSVILLE LOCAL SCHOOL DISTRICT","t":291.31,"l":"500: Res-Vacant Land","c":0}},{"type":"Feature","geometry":{"type":"Polygon","coordinates":[[[-84.275663,41.283105],[-84.275293,41.283104],[-84.275299,41.282547],[-84.275664,41.282548],[-84.275663,41.283105]]]},"properties":{"p":"J09-0022-C-001-00","o":"ISAACS PATRICIA","a":"ST RT 281","d":"AYERSVILLE LOCAL SCHOOL DISTRICT","t":306.4,"l":"500: Res-Vacant Land","c":0}},{"type":"Feature","geometry":{"type":"Polygon","coordinates":[[[-84.27884,41.325831],[-84.278539,41.32583],[-84.27854,41.325188],[-84.278841,41.325189],[-84.27884,41.325831]]]},"properties":{"p":"J08-0004-A-036-00","o":"BOETZ LORAINE B","a":"28332  JEWELL","d":"NORTHEASTERN LOCAL SCHOOL DISTRICT","t":453.33,"l":"510: Res-Single Family","c":0}},{"type":"Feature","geometry":{"type":"Polygon","coordinates":[[[-84.262397,41.340355],[-84.262404,41.338402],[-84.261189,41.338431],[-84.261191,41.336677],[-84.265079,41.336739],[-84.265076,41.339189],[-84.263135,41.339154],[-84.263122,41.339329],[-84.263221,41.33936],[-84.263203,41.340315],[-84.262397,41.340355]]]},"properties":{"p":"J08-0002-0-005-01","o":"COPSEY DANIEL WILLIAM","a":"FLORY","d":"NORTHEASTERN LOCAL SCHOOL DISTRICT","t":6027.16,"l":"199: Agr-CAUV-Other","c":0}},{"type":"Feature","geometry":{"type":"Polygon","coordinates":[[[-84.324942,41.287017],[-84.324476,41.287016],[-84.32448,41.28677],[-84.32508,41.286771],[-84.324958,41.286894],[-84.324942,41.287017]]]},"properties":{"p":"J04-0019-C-043-00","o":"SHOUP THOMAS J","a":"1995  RIVERVIEW","d":"AYERSVILLE LOCAL SCHOOL DISTRICT","t":2273.82,"l":"510: Res-Single Family","c":0}},{"type":"Feature","geometry":{"type":"Polygon","coordinates":[[[-84.388414,41.310174],[-84.380108,41.309992],[-84.380111,41.309611],[-84.387823,41.30978],[-84.388414,41.310174]]]},"properties":{"p":"I13-0015-0-022-01","o":"LUCAS RUTH ANN","a":"CHRISTY","d":"NORTHEASTERN LOCAL SCHOOL DISTRICT","t":97.44,"l":"100: Agr-Vacant Land","c":0}},{"type":"Feature","geometry":{"type":"Polygon","coordinates":[[[-84.380115,41.3091],[-84.380119,41.308551],[-84.381029,41.308542],[-84.381024,41.309091],[-84.380115,41.3091]]]},"properties":{"p":"I13-0015-0-021-01","o":"LUCAS RUTH ANN","a":"9196  CHRISTY","d":"NORTHEASTERN LOCAL SCHOOL DISTRICT","t":1221.45,"l":"511: Res-Custom Code","c":0}},{"type":"Feature","geometry":{"type":"Polygon","coordinates":[[[-84.375253,41.316399],[-84.375254,41.316112],[-84.380069,41.316043],[-84.380067,41.316326],[-84.375253,41.316399]]]},"properties":{"p":"I13-0011-A-006-00","o":"BURRIS TIMOTHY ALLAN","a":"8701  CHRISTY","d":"NORTHEASTERN LOCAL SCHOOL DISTRICT","t":1226.31,"l":"511: Res-Custom Code","c":0}},{"type":"Feature","geometry":{"type":"Polygon","coordinates":[[[-84.41609,41.316166],[-84.414504,41.316166],[-84.414505,41.315617],[-84.41609,41.315617],[-84.41609,41.316166]]]},"properties":{"p":"I13-0009-0-005-38","o":"STRAKA RICHARD L","a":"8699  ASHPACHER","d":"NORTHEASTERN LOCAL SCHOOL DISTRICT","t":1797.79,"l":"520: Res-Two Family","c":0}},{"type":"Feature","geometry":{"type":"Polygon","coordinates":[[[-84.418469,41.316167],[-84.41609,41.316166],[-84.41609,41.315617],[-84.418469,41.315618],[-84.418469,41.316167]]]},"properties":{"p":"I13-0009-0-005-35","o":"STRAKA RICHARD L","a":"8709  ASHPACHER","d":"NORTHEASTERN LOCAL SCHOOL DISTRICT","t":2158.76,"l":"530: Res-Three Family","c":0}},{"type":"Feature","geometry":{"type":"Polygon","coordinates":[[[-84.370519,41.29714],[-84.370533,41.296247],[-84.371117,41.296251],[-84.371107,41.297352],[-84.370519,41.29714]]]},"properties":{"p":"I02-3115-0-053-00","o":"EXCELSOIR CARE GROUP ATTN: YEHUDA YOVITS","a":"WILSON","d":"DEFIANCE CITY SCHOOL DISTRICT","t":333.5,"l":"412: Com-Nursing Home","c":0}},{"type":"Feature","geometry":{"type":"Polygon","coordinates":[[[-84.386154,41.294177],[-84.385106,41.294135],[-84.385111,41.293982],[-84.384369,41.293855],[-84.382888,41.292993],[-84.382882,41.292536],[-84.386241,41.292462],[-84.386322,41.29267],[-84.386445,41.293477],[-84.386154,41.294177]]]},"properties":{"p":"I02-0111-0-005-02","o":"FLORMAK DEVELOPMENTS USA INC","a":"W HIGH","d":"DEFIANCE CITY SCHOOL DISTRICT","t":49616.11,"l":"350: Ind-Warehouse","c":0}},{"type":"Feature","geometry":{"type":"Polygon","coordinates":[[[-84.72755,41.353794],[-84.727557,41.355031],[-84.726774,41.355033],[-84.726767,41.353797],[-84.72755,41.353794]]]},"properties":{"p":"H22-0026-0-006-00","o":"CARLISLE CHRISTINA M","a":"5079  ARROWSMITH","d":"CENTRAL LOCAL SCHOOL DISTRICT","t":439.16,"l":"511: Res-Custom Code","c":0}},{"type":"Feature","geometry":{"type":"Polygon","coordinates":[[[-84.708961,41.387896],[-84.709755,41.387889],[-84.709763,41.388437],[-84.70897,41.388444],[-84.708961,41.387896]]]},"properties":{"p":"H22-0013-0-005-01","o":"COGSWELL LYNN & MICHELLE","a":"3649  CICERO","d":"CENTRAL LOCAL SCHOOL DISTRICT","t":1248.88,"l":"511: Res-Custom Code","c":0}},{"type":"Feature","geometry":{"type":"Polygon","coordinates":[[[-84.271453,41.187962],[-84.271345,41.187963],[-84.271346,41.187288],[-84.271455,41.187287],[-84.271453,41.187962]]]},"properties":{"p":"F12-0027-0-013-13","o":"CEREGHIN LEONARD N & DOLORES E","a":"HARRIS REAR","d":"AYERSVILLE LOCAL SCHOOL DISTRICT","t":286.93,"l":"501: Res-Custom Code","c":0}},{"type":"Feature","geometry":{"type":"Polygon","coordinates":[[[-84.324759,41.217252],[-84.324141,41.217253],[-84.324143,41.217039],[-84.324761,41.217038],[-84.324759,41.217252]]]},"properties":{"p":"F12-0018-A-046-00","o":"PHIPPS JASON R & LISA L","a":"15442  DOHONEY","d":"AYERSVILLE LOCAL SCHOOL DISTRICT","t":6428.39,"l":"510: Res-Single Family","c":0}},{"type":"Feature","geometry":{"type":"Polygon","coordinates":[[[-84.307878,41.230959],[-84.307671,41.230959],[-84.307671,41.230549],[-84.307126,41.230548],[-84.307128,41.23039],[-84.307884,41.230388],[-84.307878,41.230959]]]},"properties":{"p":"F12-0008-0-013-00","o":"MURPHY LORI B ETAL","a":"SUTPHEN","d":"AYERSVILLE LOCAL SCHOOL DISTRICT","t":148.49,"l":"501: Res-Custom Code","c":0}},{"type":"Feature","geometry":{"type":"Polygon","coordinates":[[[-84.319125,41.228816],[-84.319129,41.228363],[-84.323921,41.228354],[-84.323917,41.228807],[-84.319125,41.228816]]]},"properties":{"p":"F12-0008-0-007-07","o":"FOSTER, JOSHUA Z & SARAH M ETAL","a":"14663  DOHONEY","d":"AYERSVILLE LOCAL SCHOOL DISTRICT","t":47.96,"l":"560: Res-Mobile Home","c":0}},{"type":"Feature","geometry":{"type":"Polygon","coordinates":[[[-84.3245,41.224488],[-84.323954,41.224488],[-84.323958,41.224077],[-84.324503,41.224076],[-84.3245,41.224488]]]},"properties":{"p":"F12-0007-0-011-03","o":"MILLER SHANE E","a":"14950  DOHONEY","d":"AYERSVILLE LOCAL SCHOOL DISTRICT","t":1297.96,"l":"560: Res-Mobile Home","c":0}},{"type":"Feature","geometry":{"type":"Polygon","coordinates":[[[-84.322946,41.24602],[-84.322948,41.245773],[-84.323642,41.245775],[-84.323641,41.246022],[-84.322946,41.24602]]]},"properties":{"p":"F12-0005-E-012-00","o":"MONSIVAIS ANTONIO JR","a":"13497  DOHONEY","d":"AYERSVILLE LOCAL SCHOOL DISTRICT","t":2003.53,"l":"510: Res-Single Family","c":0}},{"type":"Feature","geometry":{"type":"Polygon","coordinates":[[[-84.320154,41.251449],[-84.319674,41.251447],[-84.319675,41.251222],[-84.320155,41.251224],[-84.320154,41.251449]]]},"properties":{"p":"F12-0005-D-029-00","o":"TRESSLER RYAN","a":"13330  ORIS","d":"AYERSVILLE LOCAL SCHOOL DISTRICT","t":1815.44,"l":"569: Res-Custom Code","c":0}},{"type":"Feature","geometry":{"type":"Polygon","coordinates":[[[-84.320155,41.251224],[-84.319675,41.251222],[-84.319676,41.251159],[-84.320156,41.251161],[-84.320155,41.251224]]]},"properties":{"p":"F12-0005-D-028-00","o":"TRESSLER RYAN","a":"ORIS","d":"AYERSVILLE LOCAL SCHOOL DISTRICT","t":26.26,"l":"500: Res-Vacant Land","c":0}},{"type":"Feature","geometry":{"type":"Polygon","coordinates":[[[-84.320159,41.250549],[-84.319679,41.250547],[-84.31968,41.250322],[-84.32016,41.250324],[-84.320159,41.250549]]]},"properties":{"p":"F12-0005-D-024-00","o":"DEANE WYNTON M & BREANNA M","a":"13750  ORIS","d":"AYERSVILLE LOCAL SCHOOL DISTRICT","t":1070.23,"l":"510: Res-Single Family","c":0}},{"type":"Feature","geometry":{"type":"Polygon","coordinates":[[[-84.32064,41.250326],[-84.32016,41.250324],[-84.320162,41.249979],[-84.320642,41.249985],[-84.32064,41.250326]]]},"properties":{"p":"F12-0005-D-022-00","o":"KLEMAN MELVIN A","a":"13925  GUY","d":"AYERSVILLE LOCAL SCHOOL DISTRICT","t":272.45,"l":"569: Res-Custom Code","c":0}},{"type":"Feature","geometry":{"type":"Polygon","coordinates":[[[-84.265551,41.240891],[-84.265153,41.240914],[-84.26516,41.240331],[-84.265558,41.240307],[-84.265551,41.240891]]]},"properties":{"p":"F12-0002-A-004-00","o":"PHILLIPS JOHN N","a":"29015  STEINMAIER & 29037","d":"AYERSVILLE LOCAL SCHOOL DISTRICT","t":915.14,"l":"520: Res-Two Family","c":0}},{"type":"Feature","geometry":{"type":"Polygon","coordinates":[[[-84.799246,41.273384],[-84.799016,41.272945],[-84.800251,41.272234],[-84.800252,41.272832],[-84.799246,41.273384]]]},"properties":{"p":"E20-0030-0-015-04","o":"SCHWARTZ NOAH & LORENE","a":"11807  ST RT 2","d":"HICKSVILLE EX VILL SCHOOL DISTRICT","t":1721.49,"l":"560: Res-Mobile Home","c":0}},{"type":"Feature","geometry":{"type":"Polygon","coordinates":[[[-84.73543,41.310468],[-84.735423,41.30969],[-84.735936,41.309688],[-84.736489,41.31018],[-84.73603,41.310473],[-84.73543,41.310468]]]},"properties":{"p":"E20-0015-0-004-00","o":"ROHRS WILLIAM R","a":"4610  THIEL","d":"HICKSVILLE EX VILL SCHOOL DISTRICT","t":844.02,"l":"511: Res-Custom Code","c":0}},{"type":"Feature","geometry":{"type":"Polygon","coordinates":[[[-84.73305,41.310448],[-84.733042,41.309504],[-84.733733,41.30951],[-84.733742,41.310454],[-84.73305,41.310448]]]},"properties":{"p":"E20-0015-0-003-00","o":"ROHRS WILLIAM R","a":"4722  THIEL","d":"HICKSVILLE EX VILL SCHOOL DISTRICT","t":805.77,"l":"511: Res-Custom Code","c":0}},{"type":"Feature","geometry":{"type":"Polygon","coordinates":[[[-84.71148,41.335309],[-84.711153,41.335382],[-84.710292,41.335803],[-84.709189,41.335807],[-84.709185,41.335064],[-84.711479,41.335087],[-84.71148,41.335309]]]},"properties":{"p":"E20-0002-0-008-06","o":"PRESCOTT SARA","a":"7276  CICERO","d":"HICKSVILLE EX VILL SCHOOL DISTRICT","t":1582.47,"l":"560: Res-Mobile Home","c":0}},{"type":"Feature","geometry":{"type":"Polygon","coordinates":[[[-84.709152,41.32536],[-84.709152,41.325087],[-84.709622,41.324791],[-84.710012,41.324796],[-84.710004,41.32587],[-84.710003,41.325371],[-84.709152,41.32536]]]},"properties":{"p":"E20-0002-0-003-00","o":"MILLER JILL K","a":"CICERO","d":"HICKSVILLE EX VILL SCHOOL DISTRICT","t":51.42,"l":"501: Res-Custom Code","c":0}},{"type":"Feature","geometry":{"type":"Polygon","coordinates":[[[-84.768202,41.292471],[-84.768113,41.292405],[-84.768468,41.29207],[-84.768645,41.292177],[-84.768202,41.292471]]]},"properties":{"p":"E06-0024-0-038-00","o":"TAYLOR JAY T & RHONDA K","a":"MILLCREEK","d":"HICKSVILLE EX VILL SCHOOL DISTRICT","t":20.81,"l":"500: Res-Vacant Land","c":0}},{"type":"Feature","geometry":{"type":"Polygon","coordinates":[[[-84.767786,41.292748],[-84.767678,41.292656],[-84.768083,41.292386],[-84.768202,41.292471],[-84.767786,41.292748]]]},"properties":{"p":"E06-0024-0-034-00","o":"TAYLOR JAY T & RHONDA K","a":"MILLCREEK","d":"HICKSVILLE EX VILL SCHOOL DISTRICT","t":124.9,"l":"500: Res-Vacant Land","c":0}},{"type":"Feature","geometry":{"type":"Polygon","coordinates":[[[-84.768113,41.292405],[-84.767898,41.29227],[-84.768294,41.292005],[-84.768442,41.292094],[-84.768113,41.292405]]]},"properties":{"p":"E06-0024-0-032-01","o":"TAYLOR JAY T & RHONDA K","a":"MILLCREEK","d":"HICKSVILLE EX VILL SCHOOL DISTRICT","t":28.25,"l":"599: Res-Other","c":0}},{"type":"Feature","geometry":{"type":"Polygon","coordinates":[[[-84.767898,41.29227],[-84.767669,41.292127],[-84.767993,41.291824],[-84.768294,41.292005],[-84.767898,41.29227]]]},"properties":{"p":"E06-0024-0-032-00","o":"LANUM ELIZABETH CARMEN ETAL","a":"MILLCREEK","d":"HICKSVILLE EX VILL SCHOOL DISTRICT","t":18.63,"l":"599: Res-Other","c":0}},{"type":"Feature","geometry":{"type":"Polygon","coordinates":[[[-84.757144,41.289032],[-84.757154,41.287481],[-84.757191,41.287481],[-84.75718,41.289055],[-84.757144,41.289032]]]},"properties":{"p":"E06-0023-0-013-00","o":"LILLY VICK R & HEIDI J","a":"CLEMMER (REAR)","d":"HICKSVILLE EX VILL SCHOOL DISTRICT","t":16.63,"l":"400: Com-Vacant Land","c":0}},{"type":"Feature","geometry":{"type":"Polygon","coordinates":[[[-84.758823,41.288533],[-84.758715,41.288605],[-84.757942,41.28813],[-84.757187,41.288077],[-84.757187,41.288046],[-84.757952,41.288051],[-84.757953,41.287485],[-84.756931,41.287481],[-84.756902,41.285358],[-84.758765,41.286919],[-84.758354,41.287195],[-84.75945,41.288112],[-84.758823,41.288533]]]},"properties":{"p":"E06-0023-0-012-00","o":"LILLY VICK R & HEIDI J","a":"CLEMMER (REAR)","d":"HICKSVILLE EX VILL SCHOOL DISTRICT","t":1037.64,"l":"400: Com-Vacant Land","c":0}},{"type":"Feature","geometry":{"type":"Polygon","coordinates":[[[-84.757182,41.288713],[-84.757187,41.288077],[-84.757371,41.28809],[-84.757364,41.288746],[-84.757182,41.288713]]]},"properties":{"p":"E06-0023-0-011-00","o":"LILLY VICK R & HEIDI J","a":"S MAIN","d":"HICKSVILLE EX VILL SCHOOL DISTRICT","t":32.24,"l":"400: Com-Vacant Land","c":0}},{"type":"Feature","geometry":{"type":"Polygon","coordinates":[[[-84.757191,41.287481],[-84.757953,41.287485],[-84.757952,41.288051],[-84.757187,41.288046],[-84.757191,41.287481]]]},"properties":{"p":"E06-0023-0-010-00","o":"LILLY VICK R & HEIDI J","a":"525 S MAIN","d":"HICKSVILLE EX VILL SCHOOL DISTRICT","t":112.72,"l":"499: Com-Other","c":0}},{"type":"Feature","geometry":{"type":"Polygon","coordinates":[[[-84.759807,41.290253],[-84.759626,41.290099],[-84.759883,41.289928],[-84.760065,41.290081],[-84.759807,41.290253]]]},"properties":{"p":"E06-0022-0-084-00","o":"GREER PETER & BRENDA","a":"105 W HICKS","d":"HICKSVILLE EX VILL SCHOOL DISTRICT","t":617.04,"l":"510: Res-Single Family","c":0}},{"type":"Feature","geometry":{"type":"Polygon","coordinates":[[[-84.771043,41.289895],[-84.771055,41.289714],[-84.771534,41.289731],[-84.771523,41.289912],[-84.771043,41.289895]]]},"properties":{"p":"E06-0019-0-006-00","o":"GALLARDO ANDRES","a":"334 W ARTHUR","d":"HICKSVILLE EX VILL SCHOOL DISTRICT","t":492.53,"l":"510: Res-Single Family","c":0}},{"type":"Feature","geometry":{"type":"Polygon","coordinates":[[[-84.767108,41.294693],[-84.766931,41.294812],[-84.766611,41.294542],[-84.766788,41.294423],[-84.767108,41.294693]]]},"properties":{"p":"E06-0016-0-090-00","o":"CHANEY DONALD R","a":"115 W ARTHUR","d":"HICKSVILLE EX VILL SCHOOL DISTRICT","t":1949.23,"l":"510: Res-Single Family","c":0}},{"type":"Feature","geometry":{"type":"Polygon","coordinates":[[[-84.760411,41.294413],[-84.760171,41.294207],[-84.760318,41.294108],[-84.760557,41.294315],[-84.760411,41.294413]]]},"properties":{"p":"E06-0013-0-077-00","o":"LYSAGHT & STRAUB VENTURES LC=FELIX & PATRICIA SALINAS","a":"160 E HIGH","d":"HICKSVILLE EX VILL SCHOOL DISTRICT","t":2008.72,"l":"429: Com-Other","c":0}},{"type":"Feature","geometry":{"type":"Polygon","coordinates":[[[-84.757968,41.29185],[-84.757858,41.291756],[-84.75825,41.291489],[-84.758361,41.291584],[-84.757968,41.29185]]]},"properties":{"p":"E06-0013-0-020-00","o":"WELLS KELLY","a":"311  WENDELL","d":"HICKSVILLE EX VILL SCHOOL DISTRICT","t":377.25,"l":"560: Res-Mobile Home","c":0}},{"type":"Feature","geometry":{"type":"Polygon","coordinates":[[[-84.758515,41.291479],[-84.758404,41.291384],[-84.758795,41.291118],[-84.758907,41.291213],[-84.758515,41.291479]]]},"properties":{"p":"E06-0013-0-019-00","o":"RANDALL JESSICA A","a":"312  WENDELL","d":"HICKSVILLE EX VILL SCHOOL DISTRICT","t":1426.89,"l":"560: Res-Mobile Home","c":0}},{"type":"Feature","geometry":{"type":"Polygon","coordinates":[[[-84.757486,41.292304],[-84.757076,41.292576],[-84.757073,41.29229],[-84.757293,41.29214],[-84.757486,41.292304]]]},"properties":{"p":"E06-0012-0-014-00","o":"JEFFREY CHRISTY J %CHRISTY J FROST","a":"517 S MAPLE","d":"HICKSVILLE EX VILL SCHOOL DISTRICT","t":1259.78,"l":"510: Res-Single Family","c":0}},{"type":"Feature","geometry":{"type":"Polygon","coordinates":[[[-84.754568,41.294338],[-84.753986,41.294339],[-84.753987,41.294202],[-84.754569,41.294201],[-84.754568,41.294338]]]},"properties":{"p":"E06-0011-0-080-00","o":"DAUGHERTY DANIELLE E ETAL","a":"305  CROOK","d":"HICKSVILLE EX VILL SCHOOL DISTRICT","t":770.59,"l":"510: Res-Single Family","c":0}},{"type":"Feature","geometry":{"type":"Polygon","coordinates":[[[-84.751135,41.293794],[-84.750953,41.293795],[-84.750943,41.293355],[-84.751125,41.293354],[-84.751135,41.293794]]]},"properties":{"p":"E06-0010-0-094-00","o":"MCCAIN LESLIE R C/O LESLIE KRONTZ","a":"610  OGEN","d":"HICKSVILLE EX VILL SCHOOL DISTRICT","t":1741.5,"l":"510: Res-Single Family","c":0}},{"type":"Feature","geometry":{"type":"Polygon","coordinates":[[[-84.750953,41.293795],[-84.750771,41.293795],[-84.750761,41.293357],[-84.750943,41.293355],[-84.750953,41.293795]]]},"properties":{"p":"E06-0010-0-093-00","o":"MCCAIN LESLIE R % LESLIE KRONTZ","a":"612  OGEN","d":"HICKSVILLE EX VILL SCHOOL DISTRICT","t":641.54,"l":"510: Res-Single Family","c":0}},{"type":"Feature","geometry":{"type":"Polygon","coordinates":[[[-84.751526,41.297762],[-84.751308,41.297762],[-84.751307,41.297211],[-84.751525,41.297211],[-84.751526,41.297762]]]},"properties":{"p":"E06-0009-0-065-00","o":"KESLER DAVID G","a":"228  COLUMBIA","d":"HICKSVILLE EX VILL SCHOOL DISTRICT","t":539.26,"l":"510: Res-Single Family","c":0}},{"type":"Feature","geometry":{"type":"Polygon","coordinates":[[[-84.753608,41.297042],[-84.753426,41.297043],[-84.753424,41.29659],[-84.753606,41.29659],[-84.753608,41.297042]]]},"properties":{"p":"E06-0009-0-032-00","o":"SPRAGUE DARCI M ETAL C/O CINDY L SCHLOSSER","a":"211  COLUMBIA","d":"HICKSVILLE EX VILL SCHOOL DISTRICT","t":1138.01,"l":"510: Res-Single Family","c":0}},{"type":"Feature","geometry":{"type":"Polygon","coordinates":[[[-84.750967,41.300747],[-84.750735,41.300901],[-84.750324,41.300551],[-84.750556,41.300397],[-84.750967,41.300747]]]},"properties":{"p":"E06-0008-0-019-00","o":"VAUGHN DAVID C JR","a":"912 E HIGH","d":"HICKSVILLE EX VILL SCHOOL DISTRICT","t":3280.26,"l":"510: Res-Single Family","c":0}},{"type":"Feature","geometry":{"type":"Polygon","coordinates":[[[-84.754427,41.296921],[-84.754305,41.296819],[-84.754762,41.296512],[-84.754883,41.296614],[-84.754427,41.296921]]]},"properties":{"p":"E06-0007-0-018-00","o":"FULMER DAMIEN S","a":"200  PEARL","d":"HICKSVILLE EX VILL SCHOOL DISTRICT","t":3760.83,"l":"510: Res-Single Family","c":0}},{"type":"Feature","geometry":{"type":"Polygon","coordinates":[[[-84.757847,41.297724],[-84.757711,41.297815],[-84.757541,41.297672],[-84.757677,41.297581],[-84.757847,41.297724]]]},"properties":{"p":"E06-0006-0-047-01","o":"FULMER DAMIEN S","a":"BUNNELL","d":"HICKSVILLE EX VILL SCHOOL DISTRICT","t":153.27,"l":"400: Com-Vacant Land","c":0}},{"type":"Feature","geometry":{"type":"Polygon","coordinates":[[[-84.758168,41.298199],[-84.758303,41.298108],[-84.758792,41.298514],[-84.758656,41.298606],[-84.758168,41.298199]]]},"properties":{"p":"E06-0006-0-001-00","o":"CHANEY DONALD","a":"501 E SMITH","d":"HICKSVILLE EX VILL SCHOOL DISTRICT","t":686,"l":"599: Res-Other","c":0}},{"type":"Feature","geometry":{"type":"Polygon","coordinates":[[[-84.761416,41.297998],[-84.761253,41.298107],[-84.76093,41.297838],[-84.761093,41.297728],[-84.761416,41.297998]]]},"properties":{"p":"E06-0004-0-008-00","o":"FORSTER KIMBERLY","a":"311 E CORNELIA","d":"HICKSVILLE EX VILL SCHOOL DISTRICT","t":1286.44,"l":"510: Res-Single Family","c":0}},{"type":"Feature","geometry":{"type":"Polygon","coordinates":[[[-84.685454,41.426505],[-84.680012,41.426551],[-84.679942,41.422944],[-84.685395,41.422907],[-84.685454,41.426505]]]},"properties":{"p":"D24-0006-0-005-00","o":"MOBLEY KIM MARIE ETAL C/O KIM KUHN","a":"WILLIAMS DEFIANCE CO LINE","d":"CENTRAL LOCAL SCHOOL DISTRICT","t":15.28,"l":"110: Agr-CAUV-Vacant Land","c":0}},{"type":"Feature","geometry":{"type":"Polygon","coordinates":[[[-84.550665,41.298125],[-84.550757,41.298126],[-84.550755,41.298252],[-84.550663,41.298251],[-84.550665,41.298125]]]},"properties":{"p":"C18-0017-C-039-00","o":"PARADISE LIVING LLC","a":"113  PARADISE","d":"CENTRAL LOCAL SCHOOL DISTRICT","t":56.96,"l":"550: Res-Condo","c":0}},{"type":"Feature","geometry":{"type":"Polygon","coordinates":[[[-84.550908,41.298127],[-84.550906,41.298253],[-84.550814,41.298252],[-84.550816,41.298126],[-84.550908,41.298127]]]},"properties":{"p":"C18-0017-C-038-00","o":"PARADISE LIVING LLC","a":"111  PARADISE","d":"CENTRAL LOCAL SCHOOL DISTRICT","t":56.96,"l":"550: Res-Condo","c":0}},{"type":"Feature","geometry":{"type":"Polygon","coordinates":[[[-84.550908,41.298127],[-84.551,41.298128],[-84.550998,41.298254],[-84.550906,41.298253],[-84.550908,41.298127]]]},"properties":{"p":"C18-0017-C-037-00","o":"PARADISE LIVING LLC","a":"109  PARADISE","d":"CENTRAL LOCAL SCHOOL DISTRICT","t":56.96,"l":"550: Res-Condo","c":0}},{"type":"Feature","geometry":{"type":"Polygon","coordinates":[[[-84.551154,41.298129],[-84.551246,41.29813],[-84.551245,41.298255],[-84.551153,41.298255],[-84.551154,41.298129]]]},"properties":{"p":"C18-0017-C-035-00","o":"PARADISE LIVING LLC","a":"105  PARADISE","d":"CENTRAL LOCAL SCHOOL DISTRICT","t":56.96,"l":"550: Res-Condo","c":0}},{"type":"Feature","geometry":{"type":"Polygon","coordinates":[[[-84.550663,41.297847],[-84.550664,41.297721],[-84.550756,41.297722],[-84.550754,41.297848],[-84.550663,41.297847]]]},"properties":{"p":"C18-0017-C-031-00","o":"PARADISE LIVING LLC","a":"112  PARADISE","d":"CENTRAL LOCAL SCHOOL DISTRICT","t":56.96,"l":"550: Res-Condo","c":0}},{"type":"Feature","geometry":{"type":"Polygon","coordinates":[[[-84.550906,41.297849],[-84.550907,41.297723],[-84.550999,41.297724],[-84.550997,41.29785],[-84.550906,41.297849]]]},"properties":{"p":"C18-0017-C-029-00","o":"PARADISE LIVING LLC","a":"108  PARADISE","d":"CENTRAL LOCAL SCHOOL DISTRICT","t":56.96,"l":"550: Res-Condo","c":0}},{"type":"Feature","geometry":{"type":"Polygon","coordinates":[[[-84.551152,41.297851],[-84.551154,41.297725],[-84.551246,41.297726],[-84.551244,41.297852],[-84.551152,41.297851]]]},"properties":{"p":"C18-0017-C-027-00","o":"PARADISE LIVING LLC","a":"104  PARADISE","d":"CENTRAL LOCAL SCHOOL DISTRICT","t":56.96,"l":"550: Res-Condo","c":0}},{"type":"Feature","geometry":{"type":"Polygon","coordinates":[[[-84.551395,41.297853],[-84.551303,41.297852],[-84.551305,41.297726],[-84.551397,41.297727],[-84.551395,41.297853]]]},"properties":{"p":"C18-0017-C-026-00","o":"PARADISE LIVING LLC","a":"102  PARADISE","d":"CENTRAL LOCAL SCHOOL DISTRICT","t":56.96,"l":"550: Res-Condo","c":0}},{"type":"Feature","geometry":{"type":"Polygon","coordinates":[[[-84.523832,41.379583],[-84.523362,41.379505],[-84.523381,41.379328],[-84.523851,41.379407],[-84.523832,41.379583]]]},"properties":{"p":"L16-0021-B-020-00","o":"DUBREE JACKIE R % JACKIE R HERRINGTON","a":"295 S WATER","d":"CENTRAL LOCAL SCHOOL DISTRICT","t":404.97,"l":"510: Res-Single Family","c":0}},{"type":"Feature","geometry":{"type":"Polygon","coordinates":[[[-84.523793,41.379956],[-84.52377,41.380129],[-84.52336,41.38006],[-84.523388,41.379887],[-84.523793,41.379956]]]},"properties":{"p":"L16-0021-B-012-03","o":"KELLY JANIE","a":"255 S WATER","d":"CENTRAL LOCAL SCHOOL DISTRICT","t":1252.64,"l":"510: Res-Single Family","c":0}},{"type":"Feature","geometry":{"type":"Polygon","coordinates":[[[-84.520222,41.381364],[-84.520153,41.381584],[-84.52012,41.381346],[-84.520064,41.381171],[-84.520135,41.380944],[-84.520341,41.380979],[-84.520222,41.381364]]]},"properties":{"p":"L16-0021-A-088-00","o":"PREUSS SUSAN ETAL","a":"385  MAIN","d":"CENTRAL LOCAL SCHOOL DISTRICT","t":1022.86,"l":"510: Res-Single Family","c":0}},{"type":"Feature","geometry":{"type":"Polygon","coordinates":[[[-84.412471,41.386954],[-84.412115,41.386659],[-84.413644,41.385438],[-84.413793,41.385244],[-84.413995,41.385334],[-84.41324,41.386297],[-84.412471,41.386954]]]},"properties":{"p":"K14-0016-0-004-00","o":"EIS RONALD & JULIE ANN","a":"3877  EVANSPORT","d":"NORTHEASTERN LOCAL SCHOOL DISTRICT","t":164.56,"l":"511: Res-Custom Code","c":0}},{"type":"Feature","geometry":{"type":"Polygon","coordinates":[[[-84.230315,41.260467],[-84.230309,41.262081],[-84.229685,41.26208],[-84.229692,41.260466],[-84.230315,41.260467]]]},"properties":{"p":"J09-0036-0-007-04","o":"EICKHOLT BRYCE A % ALAN D EICKHOLT","a":"30869  THIEROFF","d":"AYERSVILLE LOCAL SCHOOL DISTRICT","t":1376.52,"l":"511: Res-Custom Code","c":0}},{"type":"Feature","geometry":{"type":"Polygon","coordinates":[[[-84.275293,41.283104],[-84.274893,41.283102],[-84.274899,41.282545],[-84.275299,41.282547],[-84.275293,41.283104]]]},"properties":{"p":"J09-0022-C-002-00","o":"ISAACS PATRICIA","a":"28527  ST RT 281","d":"AYERSVILLE LOCAL SCHOOL DISTRICT","t":5498.48,"l":"510: Res-Single Family","c":0}},{"type":"Feature","geometry":{"type":"Polygon","coordinates":[[[-84.299627,41.325823],[-84.299387,41.325805],[-84.299388,41.32553],[-84.299628,41.32553],[-84.299627,41.325823]]]},"properties":{"p":"J08-0009-0-008-00","o":"LEHMAN STEVEN C ETAL % STEVEN C LEHMAN","a":"JEWELL","d":"NORTHEASTERN LOCAL SCHOOL DISTRICT","t":240.93,"l":"501: Res-Custom Code","c":0}},{"type":"Feature","geometry":{"type":"Polygon","coordinates":[[[-84.452568,41.297809],[-84.452459,41.297833],[-84.452459,41.297085],[-84.452568,41.297085],[-84.452568,41.297809]]]},"properties":{"p":"I13-0018-0-003-00","o":"MOTTER GEORGE L & IRENE","a":"ST RT 18","d":"NORTHEASTERN LOCAL SCHOOL DISTRICT","t":1148.35,"l":"501: Res-Custom Code","c":0}},{"type":"Feature","geometry":{"type":"Polygon","coordinates":[[[-84.389532,41.311696],[-84.385832,41.31174],[-84.385823,41.310795],[-84.387403,41.310787],[-84.38886,41.310588],[-84.389532,41.311696]]]},"properties":{"p":"I13-0015-0-022-04","o":"BLACK SHERRI M","a":"CHRISTY (REAR)","d":"NORTHEASTERN LOCAL SCHOOL DISTRICT","t":123.08,"l":"501: Res-Custom Code","c":0}},{"type":"Feature","geometry":{"type":"Polygon","coordinates":[[[-84.37533,41.304565],[-84.375342,41.303269],[-84.376418,41.302841],[-84.37785,41.30279],[-84.378191,41.302487],[-84.379015,41.303029],[-84.380155,41.303737],[-84.380149,41.304475],[-84.37533,41.304565]]]},"properties":{"p":"I13-0014-0-007-00","o":"OHIO PARK VILLAGE LLC % HOWARD FAIRBANKS","a":"1409  MUSTANG","d":"NORTHEASTERN LOCAL SCHOOL DISTRICT","t":40665,"l":"415: Com-Mobile Home Park","c":0}},{"type":"Feature","geometry":{"type":"Polygon","coordinates":[[[-84.693812,41.412044],[-84.69366,41.412046],[-84.693649,41.411473],[-84.6938,41.411471],[-84.693812,41.412044]]]},"properties":{"p":"H22-0012-0-007-06","o":"PARROTT SHELBY","a":"SCOTT","d":"CENTRAL LOCAL SCHOOL DISTRICT","t":20.05,"l":"501: Res-Custom Code","c":0}},{"type":"Feature","geometry":{"type":"Polygon","coordinates":[[[-84.748192,41.369182],[-84.748173,41.368178],[-84.748817,41.368175],[-84.748192,41.369182]]]},"properties":{"p":"H21-0021-0-001-00","o":"SINDEL JOHN ET AL % THOMAS A SINDEL","a":"ST RT 49","d":"EDGERTON LOCAL SCHOOL DISTRICT","t":546.02,"l":"501: Res-Custom Code","c":0}},{"type":"Feature","geometry":{"type":"Polygon","coordinates":[[[-84.779075,41.382511],[-84.776692,41.382495],[-84.776686,41.378999],[-84.780176,41.378972],[-84.780233,41.382519],[-84.779075,41.382511]]]},"properties":{"p":"H21-0020-0-002-00","o":"DENNIS MARK R & LADONNA MAXWELL","a":"2440  ST RT 249","d":"EDGERTON LOCAL SCHOOL DISTRICT","t":127.4,"l":"101: Agr-Cash-Grain Farm","c":0}},{"type":"Feature","geometry":{"type":"Polygon","coordinates":[[[-84.577275,41.254132],[-84.577277,41.254296],[-84.576833,41.254185],[-84.576294,41.25423],[-84.57628,41.252813],[-84.577262,41.252814],[-84.577275,41.254132]]]},"properties":{"p":"G19-0036-0-012-06","o":"OVERMYER SETH & GINA","a":"12787  DEFIANCE PAULDING CO LINE","d":"CENTRAL LOCAL SCHOOL DISTRICT","t":27.03,"l":"511: Res-Custom Code","c":0}},{"type":"Feature","geometry":{"type":"Polygon","coordinates":[[[-84.579653,41.296377],[-84.579688,41.298192],[-84.578406,41.298206],[-84.578381,41.296891],[-84.578687,41.296887],[-84.578677,41.296388],[-84.579653,41.296377]]]},"properties":{"p":"G19-0013-0-014-02","o":"VILLA JOSE CRUZ AVALOS & CARMEN AVALOS VILLA","a":"12671  ST RT 18","d":"CENTRAL LOCAL SCHOOL DISTRICT","t":753.84,"l":"511: Res-Custom Code","c":0}},{"type":"Feature","geometry":{"type":"Polygon","coordinates":[[[-84.233436,41.196121],[-84.233427,41.194908],[-84.235233,41.1949],[-84.235212,41.196114],[-84.233436,41.196121]]]},"properties":{"p":"F12-0024-0-013-02","o":"BURDINE JOHNNY ARNOLD JR & JENNIFER LYNN","a":"30649  HOFFMAN","d":"AYERSVILLE LOCAL SCHOOL DISTRICT","t":283.61,"l":"511: Res-Custom Code","c":0}},{"type":"Feature","geometry":{"type":"Polygon","coordinates":[[[-84.324761,41.217038],[-84.324143,41.217039],[-84.324146,41.216825],[-84.324764,41.216824],[-84.324761,41.217038]]]},"properties":{"p":"F12-0018-A-047-00","o":"PHIPPS JASON R & LISA L","a":"DOHONEY","d":"AYERSVILLE LOCAL SCHOOL DISTRICT","t":123.6,"l":"500: Res-Vacant Land","c":0}},{"type":"Feature","geometry":{"type":"Polygon","coordinates":[[[-84.320156,41.251062],[-84.319676,41.25106],[-84.319677,41.250997],[-84.320157,41.250999],[-84.320156,41.251062]]]},"properties":{"p":"F12-0005-D-027-00","o":"TRESSLER RYAN","a":"ORIS","d":"AYERSVILLE LOCAL SCHOOL DISTRICT","t":28.97,"l":"500: Res-Vacant Land","c":0}}]}