{"type":"FeatureCollection","features":[{"type":"Feature","geometry":{"type":"Polygon","coordinates":[[[-84.64186165805626,40.35535946380229],[-84.6418618720235,40.355139413335216],[-84.64234460676147,40.35513663224777],[-84.64234665816238,40.35535637172116],[-84.6423477097608,40.355469082614725],[-84.64186154999145,40.35547073894717],[-84.64186165805626,40.35535946380229]]]},"properties":{"p":"220082000000","o":"KREMER DAVID J & KELLY I","a":"119 JEFFERSON ST BURKETTSVILLE OH 45310","d":"ST HENRY CONSOLIDATED LOCAL SCHOOL DISTRICT","t":12576.58,"l":"510","c":0}},{"type":"Feature","geometry":{"type":"Polygon","coordinates":[[[-84.64168284603993,40.35352833639988],[-84.64168307447123,40.3536930500586],[-84.64117328412651,40.35369371992507],[-84.64117378933611,40.35352981315515],[-84.64168284603993,40.35352833639988]]]},"properties":{"p":"220111000000","o":"PRICE JASON M","a":"54 JEFFERSON ST BURKETTSVILLE OH 45310","d":"ST HENRY CONSOLIDATED LOCAL SCHOOL DISTRICT","t":5954.86,"l":"510","c":0}},{"type":"Feature","geometry":{"type":"Polygon","coordinates":[[[-84.64168284603993,40.35352833639988],[-84.64117378933611,40.35352981315515],[-84.64117425147452,40.353379788855854],[-84.64168263599107,40.35337780223121],[-84.64168284603993,40.35352833639988]]]},"properties":{"p":"220110000000","o":"PRICE JASON M","a":"0 JEFFERSON ST","d":"ST HENRY CONSOLIDATED LOCAL SCHOOL DISTRICT","t":442.88,"l":"500","c":0}},{"type":"Feature","geometry":{"type":"Polygon","coordinates":[[[-84.78389615086002,40.41250454354361],[-84.78398182318834,40.41250833160693],[-84.7841357608575,40.41251488677951],[-84.78413437633492,40.412539655743416],[-84.78389713017091,40.41265955126049],[-84.78388109184732,40.412667656702894],[-84.78388095394604,40.41266772522664],[-84.78389615086002,40.41250454354361]]]},"properties":{"p":"390015000000","o":"ANDRONE WILLIAM","a":"208 CALDWELL ST","d":"FORT RECOVERY LOCAL SCHOOL DISTRICT","t":15258.91,"l":"510","c":0}},{"type":"Feature","geometry":{"type":"Polygon","coordinates":[[[-84.7797302217112,40.41068516513031],[-84.77971414482434,40.41082256032098],[-84.77911865838458,40.410827801325226],[-84.77913468305248,40.41069087663406],[-84.7797302217112,40.41068516513031]]]},"properties":{"p":"170027000000","o":"SCHWIETERMAN ANDREW C","a":"213 S WAYNE ST","d":"FORT RECOVERY LOCAL SCHOOL DISTRICT","t":4393.24,"l":"510","c":0}},{"type":"Feature","geometry":{"type":"Polygon","coordinates":[[[-84.78144579403813,40.407182480373876],[-84.78144779149763,40.40747069308894],[-84.78144881959695,40.40751784155358],[-84.78107263884273,40.40751946437829],[-84.78105384101251,40.40751956823473],[-84.78105440044162,40.407588189056035],[-84.7805224305567,40.40759049576489],[-84.78055703548966,40.40738569971548],[-84.7810956383205,40.40738335205373],[-84.7811186364959,40.40724723884831],[-84.78114163451576,40.40711112383823],[-84.7811645614152,40.40697544716154],[-84.78144436035154,40.40697674092415],[-84.78144579403813,40.407182480373876]]]},"properties":{"p":"170394000000","o":"WOOD PHILLIP A","a":"508 S WAYNE ST FT RECOVERY OH 45846","d":"FORT RECOVERY LOCAL SCHOOL DISTRICT","t":6795.53,"l":"510","c":0}},{"type":"Feature","geometry":{"type":"Polygon","coordinates":[[[-84.78196368643219,40.40873289686175],[-84.78196338859591,40.40868991287357],[-84.7824122319583,40.40868751258529],[-84.78241442538402,40.409003729203505],[-84.7819655854893,40.409007015834845],[-84.78196368643219,40.40873289686175]]]},"properties":{"p":"170535000000","o":"ELLENBERGER KADY","a":"203 W MILLIGAN ST FT RECOVERY OH 45846","d":"FORT RECOVERY LOCAL SCHOOL DISTRICT","t":6986.85,"l":"510","c":0}},{"type":"Feature","geometry":{"type":"Polygon","coordinates":[[[-84.77696794671225,40.410908690590105],[-84.77735273009615,40.41089042602103],[-84.77763784650139,40.410773576522296],[-84.77795646940314,40.410773748118196],[-84.77794641796895,40.411011826091524],[-84.777935620422,40.41126755868541],[-84.77692476372988,40.41127501926923],[-84.77696794671225,40.410908690590105]]]},"properties":{"p":"170015000000","o":"DUKE MATTHEW D & RENEE A","a":"206 S LINK ST","d":"FORT RECOVERY LOCAL SCHOOL DISTRICT","t":1006.14,"l":"510","c":0}},{"type":"Feature","geometry":{"type":"Polygon","coordinates":[[[-84.78125527139862,40.41307318113659],[-84.78094033322041,40.41305320881658],[-84.78096701048247,40.41282520735774],[-84.78099340229502,40.412599649325095],[-84.78099867992945,40.41255453773209],[-84.78118477837286,40.412566340017484],[-84.78131361694705,40.41257450986731],[-84.78125527139862,40.41307318113659]]]},"properties":{"p":"170044000000","o":"POWELL JAMES S","a":"121 W BUTLER ST FT RECOVERY OH 45846","d":"FORT RECOVERY LOCAL SCHOOL DISTRICT","t":6569.8,"l":"510","c":0}},{"type":"Feature","geometry":{"type":"Polygon","coordinates":[[[-84.51831045006726,40.39409014639669],[-84.51830121743113,40.393030657903005],[-84.52040151841003,40.39301725093406],[-84.5204015310423,40.39301863973325],[-84.5204108678683,40.39408614115801],[-84.51997763009808,40.394088354719116],[-84.51831045006726,40.39409014639669]]]},"properties":{"p":"310686000000","o":"DWENGER ROBERT","a":"7337 FT RECOVERY MINSTER RD MARIA STEIN OH 45860","d":"MARION LOCAL SCHOOL DISTRICT","t":18780.45,"l":"510","c":0}},{"type":"Feature","geometry":{"type":"Polygon","coordinates":[[[-84.64055852307021,40.416171066265896],[-84.64097559116829,40.41617130597845],[-84.64097407335082,40.41637717170141],[-84.64055625201901,40.41637693167892],[-84.64055852307021,40.416171066265896]]]},"properties":{"p":"230174000000","o":"UHLENHAKE JEFFREY J","a":"182 S SYCAMORE ST ST HENRY OH 45883","d":"ST HENRY CONSOLIDATED LOCAL SCHOOL DISTRICT","t":417.99,"l":"510","c":0}},{"type":"Feature","geometry":{"type":"Polygon","coordinates":[[[-84.78413437633492,40.412539655743416],[-84.78413441576161,40.412539636936756],[-84.7841343342427,40.412540662847775],[-84.78411774571725,40.41274871458699],[-84.78411283336791,40.41281033903775],[-84.78389238760509,40.412808542278015],[-84.78389879326204,40.412716475785075],[-84.78387999484654,40.41271595218969],[-84.78388107808344,40.41266825244739],[-84.78388109184732,40.412667656702894],[-84.78389713017091,40.41265955126049],[-84.78413437633492,40.412539655743416]]]},"properties":{"p":"390015000000","o":"ANDRONE WILLIAM","a":"208 CALDWELL ST","d":"FORT RECOVERY LOCAL SCHOOL DISTRICT","t":15258.91,"l":"510","c":0}},{"type":"Feature","geometry":{"type":"Polygon","coordinates":[[[-84.77406029589592,40.41534366329206],[-84.77395255445431,40.41569649251467],[-84.77372170072881,40.41565561047448],[-84.77382941371802,40.41530270818999],[-84.77406029589592,40.41534366329206]]]},"properties":{"p":"390191000000","o":"RAMIREZ DIANA","a":"405 BALSAM ST","d":"FORT RECOVERY LOCAL SCHOOL DISTRICT","t":81.2,"l":"510","c":0}},{"type":"Feature","geometry":{"type":"Polygon","coordinates":[[[-84.69358393320557,40.45052227743497],[-84.69358196997216,40.44987535804886],[-84.69365383073915,40.449875272383146],[-84.69365602872885,40.45059926742593],[-84.69365604459276,40.45060447576319],[-84.6935841827279,40.45060462359405],[-84.6935841670921,40.450599350392224],[-84.69358393320557,40.45052227743497]]]},"properties":{"p":"360002000101","o":"FORTKAMP YVONNE M","a":"0 PHILOTHEA RD","d":"COLDWATER EX VILL SCHOOL DISTRICT","t":151.61,"l":"500","c":0}},{"type":"Feature","geometry":{"type":"Polygon","coordinates":[[[-84.55007904733537,40.48901396859084],[-84.54992437993783,40.48901393337902],[-84.54976523015921,40.48901343251895],[-84.5497650914056,40.48878628168908],[-84.55004868010995,40.48878746844013],[-84.55007834030683,40.48878751705598],[-84.55007904733537,40.48901396859084]]]},"properties":{"p":"140076000000","o":"MABRY WALTER & BARBARA","a":"16 W MAIN ST MONTEZUMA OH 45866","d":"CELINA CITY SCHOOL DISTRICT","t":7305.55,"l":"510","c":0}},{"type":"Feature","geometry":{"type":"Polygon","coordinates":[[[-84.550075332043,40.48782352056665],[-84.5500748003159,40.487653413728545],[-84.55010425042344,40.48765339944053],[-84.5505406716516,40.48765307002639],[-84.5505493524272,40.48765306009687],[-84.55055007053802,40.48788242465076],[-84.55054191168776,40.48788241169687],[-84.55020651681193,40.48788189591885],[-84.55020598434764,40.48782299755446],[-84.550075332043,40.48782352056665]]]},"properties":{"p":"140091000000","o":"GOLDSBERRY SHEILA","a":"32 W RILEY ST","d":"CELINA CITY SCHOOL DISTRICT","t":6748.31,"l":"510","c":0}},{"type":"Feature","geometry":{"type":"Polygon","coordinates":[[[-84.5500755128932,40.48788169379029],[-84.550075332043,40.48782352056665],[-84.55020598434764,40.48782299755446],[-84.55020651681193,40.48788189591885],[-84.5500755128932,40.48788169379029]]]},"properties":{"p":"140090000000","o":"GOLDSBERRY SHEILA","a":"0 W RILEY ST","d":"CELINA CITY SCHOOL DISTRICT","t":298.99,"l":"500","c":0}},{"type":"Feature","geometry":{"type":"Polygon","coordinates":[[[-84.51936299290756,40.54818912079364],[-84.51936491564726,40.54827474330964],[-84.51935306151121,40.548276478660874],[-84.51934805443356,40.54827721298109],[-84.51932170030372,40.548194695603634],[-84.51936299290756,40.54818912079364]]]},"properties":{"p":"261548000200","o":"SCOTT ELIZABETH M (DECEASED)","a":"0 ST RTE 703","d":"CELINA CITY SCHOOL DISTRICT","t":991.29,"l":"500","c":0}},{"type":"Feature","geometry":{"type":"Polygon","coordinates":[[[-84.51945147595734,40.548179739687136],[-84.51959352379339,40.54815846212604],[-84.5197324199587,40.548137657139975],[-84.51973321626447,40.54822054583376],[-84.51969876371251,40.54822586120378],[-84.51945443583975,40.54826163531324],[-84.51945147595734,40.548179739687136]]]},"properties":{"p":"261548000200","o":"SCOTT ELIZABETH M (DECEASED)","a":"0 ST RTE 703","d":"CELINA CITY SCHOOL DISTRICT","t":991.29,"l":"500","c":0}},{"type":"Feature","geometry":{"type":"Polygon","coordinates":[[[-84.52011436850728,40.548090120961945],[-84.52025614864719,40.54806365782681],[-84.52040299659716,40.54803624828799],[-84.52040397844819,40.548114837825764],[-84.52032170033438,40.54812889772933],[-84.52023180510218,40.54814263278528],[-84.52011696612846,40.54816212236063],[-84.52011436850728,40.548090120961945]]]},"properties":{"p":"261548000200","o":"SCOTT ELIZABETH M (DECEASED)","a":"0 ST RTE 703","d":"CELINA CITY SCHOOL DISTRICT","t":991.29,"l":"500","c":0}},{"type":"Feature","geometry":{"type":"Polygon","coordinates":[[[-84.46625071072816,40.50101844589046],[-84.46622207661709,40.50101893875876],[-84.46622143122937,40.500997089698295],[-84.46625006533105,40.50099659683015],[-84.46625071072816,40.50101844589046]]]},"properties":{"p":"091102000104","o":"BEIGHLEY BRIAN","a":"0 LOT 104 HECHT'S LANDING","d":"CELINA CITY SCHOOL DISTRICT","t":4375.36,"l":"510","c":0}},{"type":"Feature","geometry":{"type":"Polygon","coordinates":[[[-84.48168694372544,40.54793314212742],[-84.48218831351977,40.54789122397737],[-84.48219164681613,40.548031771508015],[-84.48161375722705,40.54808201885353],[-84.48161937310782,40.54806976000571],[-84.48168694372544,40.54793314212742]]]},"properties":{"p":"261239500000","o":"MITCHELL THOMAS L & BEVERLY G","a":"0 FAIRWAY DR","d":"CELINA CITY SCHOOL DISTRICT","t":392.84,"l":"500","c":0}},{"type":"Feature","geometry":{"type":"Polygon","coordinates":[[[-84.48359559927287,40.548116978935305],[-84.48353988530617,40.54843989446347],[-84.48336497977392,40.5484268042951],[-84.48342260830529,40.54809813115692],[-84.48359559927287,40.548116978935305]]]},"properties":{"p":"261042000000","o":"SWONGER MARY K","a":"0 BAYWOOD LN CELINA OH 45822","d":"CELINA CITY SCHOOL DISTRICT","t":2504.28,"l":"500","c":0}},{"type":"Feature","geometry":{"type":"Polygon","coordinates":[[[-84.48376858918509,40.54813582737274],[-84.48371479211436,40.54845298524411],[-84.48353988530617,40.54843989446347],[-84.48359559927287,40.548116978935305],[-84.48376858918509,40.54813582737274]]]},"properties":{"p":"261043000000","o":"SWONGER MARY K","a":"0 BAYWOOD LN CELINA OH 45822","d":"CELINA CITY SCHOOL DISTRICT","t":2476.97,"l":"500","c":0}},{"type":"Feature","geometry":{"type":"Polygon","coordinates":[[[-84.48161375722705,40.54808201885353],[-84.48219164681613,40.548031771508015],[-84.48219498012654,40.54817231903825],[-84.48156750431605,40.54822711285866],[-84.48157179381323,40.54819506424333],[-84.48158509001998,40.54814459158242],[-84.48161375722705,40.54808201885353]]]},"properties":{"p":"261239000000","o":"MITCHELL THOMAS L & BEVERLY G","a":"0 FAIRWAY DR","d":"CELINA CITY SCHOOL DISTRICT","t":409.32,"l":"500","c":0}},{"type":"Feature","geometry":{"type":"Polygon","coordinates":[[[-84.48322013085284,40.548244905014506],[-84.48291068898281,40.54821242482289],[-84.48289386647895,40.54815859565703],[-84.48287152610533,40.54807708649238],[-84.48286828208647,40.54806321572402],[-84.48286815128218,40.54806255141193],[-84.48286804993056,40.54806188478743],[-84.48286797921196,40.54806121582996],[-84.48286794036021,40.548060546319725],[-84.48286793096116,40.548059874497035],[-84.48286795112216,40.54805920396317],[-84.48286800317688,40.548058533776874],[-84.48286808481852,40.54805786577973],[-84.48286819722725,40.54805719995123],[-84.48286834045687,40.54805653809201],[-84.48286851214674,40.54805588024307],[-84.48286871468433,40.5480552272638],[-84.48286894691613,40.548054580074925],[-84.4828692076619,40.54805393869691],[-84.48286949818241,40.54805330581028],[-84.48286981724378,40.54805267963489],[-84.48287016374617,40.54805206289211],[-84.48287053889679,40.54805145646186],[-84.48287094148849,40.54805085946418],[-84.48287137039465,40.548050273720314],[-84.48287182561535,40.54804969923017],[-84.48287230720422,40.548049137794436],[-84.482872813981,40.548048589433584],[-84.48287334476541,40.54804805416803],[-84.4828738996112,40.54804753379844],[-84.48287447851834,40.548047028324895],[-84.48287507912629,40.54804653778822],[-84.482875702669,40.54804606396865],[-84.48287634681283,40.54804560780742],[-84.48287701150406,40.54804516750388],[-84.48287769564296,40.54804474577948],[-84.48287839804927,40.54804434265474],[-84.4828791199033,40.54804395810916],[-84.4828798576642,40.54804359220407],[-84.4828806113857,40.54804324674021],[-84.4828813810678,40.54804292171759],[-84.48288216432312,40.54804261627674],[-84.48288296120532,40.548042332218365],[-84.48288377053427,40.548042069562925],[-84.48288459230982,40.5480418283104],[-84.48288542301816,40.54804160942259],[-84.48288626381263,40.54804141197865],[-84.48288711353983,40.54804123689939],[-84.4828879698661,40.54804108512606],[-84.4828888339449,40.54804095573787],[-84.4828897022354,40.54804084879627],[-84.48289057476444,40.54804076520153],[-84.48289145153207,40.54804070495367],[-84.48289232897065,40.54804066721384],[-84.4828932094944,40.54804065374162],[-84.4828940883286,40.548040662818345],[-84.4828949666803,40.54804069532388],[-84.4828958433694,40.548040751278656],[-84.48289671718862,40.54804082980281],[-84.48324961740886,40.54807928221645],[-84.48322013085284,40.548244905014506]]]},"properties":{"p":"261040000000","o":"SWONGER MARY K","a":"0 NORTHWOOD DR CELINA OH 45822","d":"CELINA CITY SCHOOL DISTRICT","t":2751.76,"l":"500","c":0}},{"type":"Feature","geometry":{"type":"Polygon","coordinates":[[[-84.48322013085284,40.548244905014506],[-84.48319007667104,40.54841371381819],[-84.48312066011925,40.5484085189078],[-84.48296773728329,40.5483970726398],[-84.48294656638774,40.54832722908635],[-84.48291068898281,40.54821242482289],[-84.48322013085284,40.548244905014506]]]},"properties":{"p":"261039000000","o":"SWONGER MARY K","a":"0 NORTHWOOD DR CELINA OH 45822","d":"CELINA CITY SCHOOL DISTRICT","t":2476.97,"l":"500","c":0}},{"type":"Feature","geometry":{"type":"Polygon","coordinates":[[[-84.48324961740886,40.54807928221645],[-84.48342260830529,40.54809813115692],[-84.48336497977392,40.5484268042951],[-84.48319007667104,40.54841371381819],[-84.48322013085284,40.548244905014506],[-84.48324961740886,40.54807928221645]]]},"properties":{"p":"261041000000","o":"SWONGER MARY K","a":"0 BAYWOOD LN","d":"CELINA CITY SCHOOL DISTRICT","t":2504.28,"l":"500","c":0}},{"type":"Feature","geometry":{"type":"Polygon","coordinates":[[[-84.46769819708972,40.50075738328637],[-84.4676695619222,40.500757876537776],[-84.46766891608858,40.500736028385795],[-84.46769755124673,40.50073553513456],[-84.46769819708972,40.50075738328637]]]},"properties":{"p":"091102000125","o":"RUSSELL GARY","a":"0 LOT 125 HECHT'S LANDING","d":"CELINA CITY SCHOOL DISTRICT","t":29.15,"l":"599","c":0}},{"type":"Feature","geometry":{"type":"Polygon","coordinates":[[[-84.5409611962955,40.504650102727545],[-84.54096222805435,40.50488341655622],[-84.54090828797898,40.50488359473887],[-84.54056666889302,40.50488471690768],[-84.54057047441763,40.504774960403864],[-84.54063570650962,40.504774999540345],[-84.5406375607644,40.504651487551484],[-84.54090725801035,40.504650333127486],[-84.5409611962955,40.504650102727545]]]},"properties":{"p":"090262000000","o":"GOLDEN ALAN S","a":"5346 WINDY POINT RD CELINA OH 45822","d":"CELINA CITY SCHOOL DISTRICT","t":1327.47,"l":"510","c":0}},{"type":"Feature","geometry":{"type":"Polygon","coordinates":[[[-84.49321821960211,40.4873949572772],[-84.4932182247668,40.487312609851536],[-84.49321824577093,40.48694205052893],[-84.49321824885902,40.48688528822077],[-84.49358770841921,40.4867078555977],[-84.49364526497915,40.48674933565109],[-84.49369152190494,40.48681489642823],[-84.49369278916869,40.486940504519715],[-84.49369276962615,40.487311063863004],[-84.49369276622745,40.487393411268094],[-84.49321821960211,40.4873949572772]]]},"properties":{"p":"091158000000","o":"MULLINS JERRY & REGINA","a":"7992 COUNTY ROAD 219A CELINA OH 45822","d":"CELINA CITY SCHOOL DISTRICT","t":741.45,"l":"510","c":0}},{"type":"Feature","geometry":{"type":"Polygon","coordinates":[[[-84.50319846746777,40.502373769317956],[-84.5031936423342,40.502053689622905],[-84.50338422291561,40.502053311043916],[-84.50338904882994,40.50237338622932],[-84.50339387396485,40.50269339477024],[-84.50320329247242,40.502693803976065],[-84.50319846746777,40.502373769317956]]]},"properties":{"p":"090785000000","o":"FREEMAN CARRIE F","a":"7739 CHANNEL DR","d":"CELINA CITY SCHOOL DISTRICT","t":2477.08,"l":"510","c":0}},{"type":"Feature","geometry":{"type":"Polygon","coordinates":[[[-84.56895747206181,40.550856281495825],[-84.56895734191941,40.550495032814894],[-84.56914778628934,40.550496424085246],[-84.5691483755951,40.55070081166217],[-84.56914837247645,40.55085673489853],[-84.56907011128797,40.55085642637892],[-84.56895747206181,40.550856281495825]]]},"properties":{"p":"270929000000","o":"TESTER GEORGE A &","a":"222 N ASH ST CELINA OH 45822","d":"CELINA CITY SCHOOL DISTRICT","t":1660.79,"l":"510","c":0}},{"type":"Feature","geometry":{"type":"Polygon","coordinates":[[[-84.54799005571651,40.48738025925297],[-84.54799706451305,40.48665017750686],[-84.54980145656558,40.486648523317534],[-84.54992594406606,40.48664840849644],[-84.54985592924741,40.48670635534229],[-84.54978147594112,40.486777562333536],[-84.54971539924992,40.48684448335467],[-84.54967493707842,40.48689718578898],[-84.54964611644434,40.486937449097404],[-84.54962148951856,40.48698375267644],[-84.54959495324589,40.48703314783561],[-84.54957270474571,40.487091638900374],[-84.54955804521016,40.487136234025975],[-84.54954179983957,40.48719699726855],[-84.54953373850849,40.48724541138275],[-84.54944319256875,40.48724509143551],[-84.54925915086095,40.48724444119963],[-84.54926307106774,40.48738165389275],[-84.54874015031895,40.487381097124334],[-84.54814726487747,40.48738043519627],[-84.54799005571651,40.48738025925297]]]},"properties":{"p":"091224000000","o":"BROOKHART GARY","a":"81 S HIGH ST MONTEZUMA OH 45866","d":"CELINA CITY SCHOOL DISTRICT","t":18583.64,"l":"510","c":0}},{"type":"Feature","geometry":{"type":"Polygon","coordinates":[[[-84.52299352792534,40.545922730495754],[-84.52340128403078,40.54591761407217],[-84.52340395428327,40.546041462121195],[-84.52299495328926,40.54604659426695],[-84.52299352792534,40.545922730495754]]]},"properties":{"p":"262104000000","o":"DENNEY DEBRA E","a":"0 COTTONWOOD DR","d":"CELINA CITY SCHOOL DISTRICT","t":1485.81,"l":"500","c":0}},{"type":"Feature","geometry":{"type":"Polygon","coordinates":[[[-84.54443897447698,40.5007669147338],[-84.54443907615725,40.500904159738255],[-84.54416939495204,40.50090288942318],[-84.54416929385535,40.50076564531881],[-84.54443897447698,40.5007669147338]]]},"properties":{"p":"090401000000","o":"CONAWAY RICHARD A","a":"0 GROVE DR","d":"CELINA CITY SCHOOL DISTRICT","t":2540.07,"l":"599","c":0}},{"type":"Feature","geometry":{"type":"Polygon","coordinates":[[[-84.54553188251941,40.495224820511595],[-84.5455277543479,40.494718682391635],[-84.54570893794293,40.4947139349504],[-84.5457104404462,40.494805717631984],[-84.54607241279047,40.49480059874718],[-84.54616155752022,40.49479907028395],[-84.54616478383674,40.494908680463084],[-84.54607104179607,40.494910474142294],[-84.54607502521861,40.49520530689797],[-84.54603508947368,40.49520629161375],[-84.54599175683265,40.49520735878206],[-84.54590551621354,40.49521144740664],[-84.54568133260157,40.49521956768287],[-84.54553188251941,40.495224820511595]]]},"properties":{"p":"090618000000","o":"LECOMPTE SHANE P & KELLY K","a":"6051 NAGY DR CELINA OH 45822","d":"CELINA CITY SCHOOL DISTRICT","t":8743.88,"l":"560","c":0}},{"type":"Feature","geometry":{"type":"Polygon","coordinates":[[[-84.52146790241501,40.54778388894598],[-84.5216144268688,40.547746686512745],[-84.52174992190727,40.54771228405672],[-84.52182066984687,40.54769432122452],[-84.52189141774828,40.54767635834848],[-84.52203291343642,40.54764043246508],[-84.52203369013681,40.54771380284605],[-84.52169523369643,40.5478048413465],[-84.52146987843479,40.54786526959303],[-84.52146790241501,40.54778388894598]]]},"properties":{"p":"261548000200","o":"SCOTT ELIZABETH M (DECEASED)","a":"0 ST RTE 703","d":"CELINA CITY SCHOOL DISTRICT","t":991.29,"l":"500","c":0}},{"type":"Feature","geometry":{"type":"Polygon","coordinates":[[[-84.45647879957708,40.549686226718656],[-84.4560670671424,40.549687272545995],[-84.45606508257504,40.549549553994574],[-84.456476547306,40.54954850913829],[-84.45647879957708,40.549686226718656]]]},"properties":{"p":"260832000000","o":"HORN RICHARD L POA","a":"0 BULLARD RD","d":"CELINA CITY SCHOOL DISTRICT","t":2734.17,"l":"500","c":0}},{"type":"Feature","geometry":{"type":"Polygon","coordinates":[[[-84.5319109248685,40.50743213196174],[-84.53191080542302,40.507633336146164],[-84.53176695939158,40.50763258136701],[-84.53162311336344,40.507631826406815],[-84.53162323247146,40.50743062134338],[-84.53176707927187,40.5074313771828],[-84.5319109248685,40.50743213196174]]]},"properties":{"p":"090203000000","o":"OLWINE CRYSTAL","a":"5443 1 KARAFIT RD CELINA OH 45822","d":"CELINA CITY SCHOOL DISTRICT","t":14778.62,"l":"510","c":0}},{"type":"Feature","geometry":{"type":"Polygon","coordinates":[[[-84.53162311336344,40.507631826406815],[-84.53147926733851,40.50763107126549],[-84.53147938688137,40.5074298662022],[-84.53162323247146,40.50743062134338],[-84.53162311336344,40.507631826406815]]]},"properties":{"p":"090201000000","o":"OLWINE CRYSTAL","a":"0 MACARTHUR DR","d":"CELINA CITY SCHOOL DISTRICT","t":531.62,"l":"500","c":0}},{"type":"Feature","geometry":{"type":"Polygon","coordinates":[[[-84.53205465266468,40.50763409162352],[-84.53191080542302,40.507633336146164],[-84.5319109248685,40.50743213196174],[-84.53205477046845,40.50743288655964],[-84.53205465266468,40.50763409162352]]]},"properties":{"p":"090204000000","o":"OLWINE CRYSTAL","a":"5443 5 KARAFIT RD","d":"CELINA CITY SCHOOL DISTRICT","t":2920.1,"l":"599","c":0}},{"type":"Feature","geometry":{"type":"Polygon","coordinates":[[[-84.49003839357336,40.50216968398498],[-84.4900364853199,40.50203429557821],[-84.49003532369456,40.501951944227095],[-84.4900572321936,40.501952012955144],[-84.49021511526414,40.501952508804514],[-84.4902162570346,40.502034859602844],[-84.49021816047116,40.5021720875045],[-84.49013798916478,40.50217423100056],[-84.49003839357336,40.50216968398498]]]},"properties":{"p":"091067000000","o":"TOOKER JANE J","a":"0 ST RT 219","d":"CELINA CITY SCHOOL DISTRICT","t":1589.43,"l":"500","c":0}},{"type":"Feature","geometry":{"type":"Polygon","coordinates":[[[-84.57003975877561,40.54830578020025],[-84.57063401314463,40.54830584602014],[-84.5706337562971,40.548457755425474],[-84.57003796893096,40.548457461511404],[-84.57003975877561,40.54830578020025]]]},"properties":{"p":"270975000000","o":"PIPER STEPHANIE S","a":"116 S MAIN ST","d":"CELINA CITY SCHOOL DISTRICT","t":14436.61,"l":"429","c":0}},{"type":"Feature","geometry":{"type":"Polygon","coordinates":[[[-84.52024507288205,40.54684446582614],[-84.52024782502097,40.547021358355025],[-84.52024870553943,40.547077877526895],[-84.52010639935745,40.54707925116371],[-84.52010714594779,40.54684821583917],[-84.52024507288205,40.54684446582614]]]},"properties":{"p":"261483000000","o":"HOUGH ANGELA","a":"4713 NICHOLSON DR CELINA OH 45822","d":"CELINA CITY SCHOOL DISTRICT","t":6028.19,"l":"510","c":0}},{"type":"Feature","geometry":{"type":"Polygon","coordinates":[[[-84.52340395428327,40.546041462121195],[-84.52340128403078,40.54591761407217],[-84.52385541283799,40.54591191387277],[-84.52385663222547,40.54608748243187],[-84.5238585058789,40.54617215730849],[-84.52340689545288,40.546177826422145],[-84.52340395428327,40.546041462121195]]]},"properties":{"p":"262093000000","o":"DENNEY DEBRA E","a":"119 COTTONWOOD DR CELINA OH 45822","d":"CELINA CITY SCHOOL DISTRICT","t":16653.11,"l":"510","c":0}},{"type":"Feature","geometry":{"type":"Polygon","coordinates":[[[-84.56510616857095,40.55044825096823],[-84.56481009173088,40.5504497644952],[-84.56482099334126,40.550086025304985],[-84.56497893701638,40.55008627198664],[-84.56511103493172,40.550086328674396],[-84.56510616857095,40.55044825096823]]]},"properties":{"p":"272661000000","o":"KUHN DANIEL T","a":"433 E LIVINGSTON ST","d":"CELINA CITY SCHOOL DISTRICT","t":1416.67,"l":"530","c":0}},{"type":"Feature","geometry":{"type":"Polygon","coordinates":[[[-84.5688525849358,40.54952763382345],[-84.56914627009361,40.549525626972724],[-84.56914607343626,40.549596405945415],[-84.56914533540565,40.54990632893683],[-84.56884932781878,40.54990624017384],[-84.5688525849358,40.54952763382345]]]},"properties":{"p":"270931000000","o":"PIPER STEPHANIE A","a":"206 /ASH LIVINGSTON ST CELINA OH 45822","d":"CELINA CITY SCHOOL DISTRICT","t":16442.28,"l":"447","c":0}},{"type":"Feature","geometry":{"type":"Polygon","coordinates":[[[-84.54925284825674,40.489238272815584],[-84.5493871746313,40.48923869646667],[-84.54938808739232,40.48969160305151],[-84.54925375984898,40.48969132443509],[-84.54925284825674,40.489238272815584]]]},"properties":{"p":"140055000000","o":"STAUGLER MICHAEL J","a":"7 E MAIN ST","d":"CELINA CITY SCHOOL DISTRICT","t":8032.54,"l":"430","c":0}},{"type":"Feature","geometry":{"type":"Polygon","coordinates":[[[-84.52299495328926,40.54604659426695],[-84.52340395428327,40.546041462121195],[-84.52340689545288,40.546177826422145],[-84.52299652435887,40.54618297560479],[-84.52299495328926,40.54604659426695]]]},"properties":{"p":"262103000000","o":"DENNEY DEBRA E","a":"0 COTTONWOOD DR","d":"CELINA CITY SCHOOL DISTRICT","t":1650.01,"l":"500","c":0}},{"type":"Feature","geometry":{"type":"Polygon","coordinates":[[[-84.57477027559015,40.54850412930386],[-84.5749726655917,40.548504201276224],[-84.57497168348198,40.548866717461145],[-84.57476938927043,40.548866609497836],[-84.57477027559015,40.54850412930386]]]},"properties":{"p":"271183000000","o":"JACOB ISAIAH","a":"324 W MARKET ST CELINA OH 45822","d":"CELINA CITY SCHOOL DISTRICT","t":6020.73,"l":"520","c":0}},{"type":"Feature","geometry":{"type":"Polygon","coordinates":[[[-84.63724070807395,40.479875611290105],[-84.63723821220688,40.48023973290595],[-84.63723814547113,40.48026246192434],[-84.63715794891056,40.48026232425784],[-84.6370054791847,40.480262062626245],[-84.63700554631208,40.48023930657745],[-84.63700804147453,40.47987523364815],[-84.63724070807395,40.479875611290105]]]},"properties":{"p":"050954000000","o":"WENNING DIANE S","a":"710 W MAIN ST COLDWATER OH 45828","d":"COLDWATER EX VILL SCHOOL DISTRICT","t":1887.2,"l":"510","c":0}},{"type":"Feature","geometry":{"type":"Polygon","coordinates":[[[-84.63404908294223,40.48081884614804],[-84.63419301052346,40.48081896871936],[-84.63417953225745,40.48118128277034],[-84.63403568412436,40.48118116048436],[-84.63404908294223,40.48081884614804]]]},"properties":{"p":"050726000000","o":"THOMAS KEVIN & PAMELA","a":"512 W NORTH ST COLDWATER OH 45828","d":"COLDWATER EX VILL SCHOOL DISTRICT","t":4452.65,"l":"510","c":0}},{"type":"Feature","geometry":{"type":"Polygon","coordinates":[[[-84.6476870888536,40.51938103657152],[-84.6476872900175,40.51896224338784],[-84.64779519311371,40.51896224918874],[-84.64925156170935,40.51896232450976],[-84.64925404881939,40.51896232456934],[-84.65005504635185,40.51896235798519],[-84.65005592573492,40.51941603273776],[-84.64779497585376,40.51941592446491],[-84.64768707202207,40.51941591866382],[-84.6476870888536,40.51938103657152]]]},"properties":{"p":"030081000200","o":"SEIBERT CORY M","a":"5851 BURKETTSVILLE ST HENRY RD COLDWATER OH 45828","d":"COLDWATER EX VILL SCHOOL DISTRICT","t":10633.22,"l":"510","c":0}},{"type":"Feature","geometry":{"type":"Polygon","coordinates":[[[-84.58331127199365,40.54662628461832],[-84.58331207605154,40.54646683121201],[-84.58432934055652,40.54645330769912],[-84.58432815969262,40.546613621995355],[-84.58331127199365,40.54662628461832]]]},"properties":{"p":"271600000000","o":"SPRINGER LISA M","a":"315 MORTON ST CELINA OH 45822","d":"CELINA CITY SCHOOL DISTRICT","t":15297.27,"l":"510","c":0}},{"type":"Feature","geometry":{"type":"Polygon","coordinates":[[[-84.57307952968434,40.544763023134095],[-84.57297634600454,40.544762987455286],[-84.57297639774346,40.54461201939807],[-84.57307992714604,40.54461205420728],[-84.57307952968434,40.544763023134095]]]},"properties":{"p":"270647000000","o":"CERVANTES ALBERTO &","a":"209 WASHINGTON ST CELINA OH 45822","d":"CELINA CITY SCHOOL DISTRICT","t":1681.25,"l":"510","c":0}},{"type":"Feature","geometry":{"type":"Polygon","coordinates":[[[-84.57722832723776,40.542484184355025],[-84.5772284382094,40.54247276369716],[-84.57722958056777,40.54235472448857],[-84.57768297050957,40.54235232031674],[-84.57768182777549,40.54247035955135],[-84.57768174331866,40.54247918630279],[-84.57722832723776,40.542484184355025]]]},"properties":{"p":"272088000000","o":"THOMPSON WILMA","a":"628 MURLIN AVE CELINA OH 45822","d":"CELINA CITY SCHOOL DISTRICT","t":4320.88,"l":"510","c":0}},{"type":"Feature","geometry":{"type":"Polygon","coordinates":[[[-84.58240661986139,40.54550619886522],[-84.5824076084551,40.545053223386425],[-84.58258752288602,40.54505103375666],[-84.58258653672569,40.545504010115835],[-84.58240661986139,40.54550619886522]]]},"properties":{"p":"271952000000","o":"HASSAN MARC A","a":"816 W LOGAN ST CELINA OH 45822","d":"CELINA CITY SCHOOL DISTRICT","t":12005.69,"l":"420","c":0}},{"type":"Feature","geometry":{"type":"Polygon","coordinates":[[[-84.58240661986139,40.54550619886522],[-84.58224109802411,40.545508213386874],[-84.58224208653641,40.545055237030745],[-84.5824076084551,40.545053223386425],[-84.58240661986139,40.54550619886522]]]},"properties":{"p":"271951000000","o":"HASSAN MARC A","a":"0 W LOGAN ST","d":"CELINA CITY SCHOOL DISTRICT","t":2143.72,"l":"400","c":0}},{"type":"Feature","geometry":{"type":"Polygon","coordinates":[[[-84.7520441819131,40.54508015979796],[-84.75204424801903,40.54504754672681],[-84.75239114383942,40.54504724442985],[-84.75239140775236,40.545080182515186],[-84.75238972177569,40.545409474731656],[-84.75238936127924,40.54550557850507],[-84.75237260222885,40.54550555561495],[-84.75235675962324,40.545505534482466],[-84.75204213447722,40.54550587195618],[-84.75204282954907,40.54540979943758],[-84.7520441819131,40.54508015979796]]]},"properties":{"p":"420101000000","o":"BURK JERRY L & VERONICA","a":"1348 ST RT 29 CELINA OH 45822","d":"CELINA CITY SCHOOL DISTRICT","t":1487.41,"l":"510","c":0}},{"type":"Feature","geometry":{"type":"Polygon","coordinates":[[[-84.4923044009969,40.60334624631174],[-84.4926099069666,40.60304736498231],[-84.49279571057431,40.603160364379264],[-84.4924913427583,40.60345813283305],[-84.4923044009969,40.60334624631174]]]},"properties":{"p":"060291000000","o":"JACOB ISAIAH L","a":"8050 US RT 33 CELINA OH 45822","d":"CELINA CITY SCHOOL DISTRICT","t":7670.67,"l":"510","c":0}},{"type":"Feature","geometry":{"type":"Polygon","coordinates":[[[-84.56584875058277,40.55982370377118],[-84.56584864765446,40.55952176124977],[-84.56614268322298,40.55952041777279],[-84.56614278748597,40.55982236029392],[-84.56584875058277,40.55982370377118]]]},"properties":{"p":"273910000000","o":"WILSON BETHANY C","a":"1012 N BUCKEYE ST CELINA OH 45822","d":"CELINA CITY SCHOOL DISTRICT","t":7955.85,"l":"510","c":0}},{"type":"Feature","geometry":{"type":"Polygon","coordinates":[[[-84.49810470340483,40.64061294862865],[-84.49810378978482,40.64006233018525],[-84.49904773240885,40.64005947766803],[-84.4990514112691,40.640607888765494],[-84.49905195447464,40.64068900320292],[-84.499051963148,40.64069023442647],[-84.49866702276951,40.640693168273714],[-84.49810484025717,40.64069529521248],[-84.49810483394447,40.64069135077994],[-84.49810470340483,40.64061294862865]]]},"properties":{"p":"060039000200","o":"JACOB ISAIAH L","a":"7884 DENNEY RD","d":"CELINA CITY SCHOOL DISTRICT","t":4510.4,"l":"599","c":0}},{"type":"Feature","geometry":{"type":"Polygon","coordinates":[[[-84.56191323921195,40.55741225448073],[-84.5619138142688,40.55711030904436],[-84.56198762125247,40.55710999039425],[-84.56211870861382,40.557109424041364],[-84.56212478765843,40.55741134045653],[-84.56191323921195,40.55741225448073]]]},"properties":{"p":"273868000000","o":"APPLEGATE HEATHER C","a":"804 HEMLOCK ST CELINA OH 45822","d":"CELINA CITY SCHOOL DISTRICT","t":4346.51,"l":"510","c":0}},{"type":"Feature","geometry":{"type":"Polygon","coordinates":[[[-84.56093243524974,40.559683895973215],[-84.56052992868209,40.55968554784869],[-84.56053004768636,40.559655842607654],[-84.56053064157003,40.55950712725386],[-84.56093297097043,40.55950611992227],[-84.56093289961919,40.55953003934702],[-84.56093243524974,40.559683895973215]]]},"properties":{"p":"274166000000","o":"LINK TONYA R","a":"1005 LILAC ST CELINA OH 45822","d":"CELINA CITY SCHOOL DISTRICT","t":8513.3,"l":"510","c":0}},{"type":"Feature","geometry":{"type":"Polygon","coordinates":[[[-84.48261374114203,40.59770780020273],[-84.48323719309337,40.59807934041471],[-84.48337159368425,40.598159131234894],[-84.48330510669582,40.59822403511898],[-84.48287597879107,40.59864293862703],[-84.48258963404714,40.598922456793595],[-84.48186274263831,40.59846616762339],[-84.48214163715328,40.59818453922752],[-84.48254864710712,40.597773534346196],[-84.48261374114203,40.59770780020273]]]},"properties":{"p":"060358000000","o":"SCOTT THELMA","a":"8289 US RT 33 CELINA OH 45822","d":"CELINA CITY SCHOOL DISTRICT","t":949.56,"l":"510","c":0}},{"type":"Feature","geometry":{"type":"Polygon","coordinates":[[[-84.46874341877606,40.58935650167072],[-84.46825452557164,40.589066127186015],[-84.46820374089363,40.589036116878525],[-84.46801559474822,40.58892182748786],[-84.46818557902203,40.588919793579805],[-84.47011574291662,40.58889668086927],[-84.47012155811211,40.589681735032194],[-84.46947494978353,40.589683096688525],[-84.46929050279299,40.589683484431085],[-84.46874341877606,40.58935650167072]]]},"properties":{"p":"060538000000","o":"COX THOMAS A SR","a":"8646 US RT 33 CELINA OH 45822","d":"CELINA CITY SCHOOL DISTRICT","t":11967.56,"l":"510","c":0}},{"type":"Feature","geometry":{"type":"Polygon","coordinates":[[[-84.57454939471188,40.55898379666163],[-84.5744954127857,40.55898340874405],[-84.57449653764206,40.55864082945267],[-84.57470166429817,40.55864237697334],[-84.57470054291689,40.55898488235663],[-84.57454939471188,40.55898379666163]]]},"properties":{"p":"273442000000","o":"CASTILLO ESTEBAN A","a":"313 OAK ST CELINA OH 45822","d":"CELINA CITY SCHOOL DISTRICT","t":2601.65,"l":"510","c":0}},{"type":"Feature","geometry":{"type":"Polygon","coordinates":[[[-84.57430997080003,40.557160300835854],[-84.57430800477191,40.557550312057145],[-84.57412301089815,40.55754953906605],[-84.57412494441733,40.55715981401314],[-84.57430997080003,40.557160300835854]]]},"properties":{"p":"273335000000","o":"BEALS WALTER","a":"312 LEONA ST CELINA OH 45822","d":"CELINA CITY SCHOOL DISTRICT","t":9330.27,"l":"510","c":0}},{"type":"Feature","geometry":{"type":"Polygon","coordinates":[[[-84.57198151385869,40.55715414891075],[-84.5721585627054,40.557154618045196],[-84.57215744316814,40.5575413085996],[-84.57198048754404,40.55754056661255],[-84.57198151385869,40.55715414891075]]]},"properties":{"p":"273331000000","o":"WHITE VELMA R","a":"118 LEONA ST CELINA OH 45822","d":"CELINA CITY SCHOOL DISTRICT","t":2976.97,"l":"510","c":0}},{"type":"Feature","geometry":{"type":"Polygon","coordinates":[[[-84.57307530382697,40.55546514735569],[-84.5730751880883,40.55558203813116],[-84.5724673763459,40.55558136841941],[-84.5724675391866,40.55546447681002],[-84.57307530382697,40.55546514735569]]]},"properties":{"p":"273264000000","o":"SENDELBACH CHARLES & JESSICA","a":"649 N WALNUT ST CELINA OH 45822","d":"CELINA CITY SCHOOL DISTRICT","t":1980.87,"l":"510","c":0}},{"type":"Feature","geometry":{"type":"Polygon","coordinates":[[[-84.57848858477671,40.5577753068317],[-84.57843224230515,40.557734654349794],[-84.57883041360576,40.55773292978707],[-84.57882973261982,40.55777526483514],[-84.57882598201338,40.558008527919874],[-84.57849447204333,40.557779376846895],[-84.57848858477671,40.5577753068317]]]},"properties":{"p":"273529000000","o":"D A D 'S ENTERPRISES","a":"920 N BRANDON AVE CELINA OH 45822","d":"CELINA CITY SCHOOL DISTRICT","t":12657.69,"l":"500","c":0}},{"type":"Feature","geometry":{"type":"Polygon","coordinates":[[[-84.58376186055546,40.56461283674705],[-84.58406506505688,40.56437869875217],[-84.58430860679323,40.56456173405847],[-84.58447617760544,40.564687671547915],[-84.58404051345363,40.56482173274601],[-84.58376186055546,40.56461283674705]]]},"properties":{"p":"274675000000","o":"THOMPSON MARY KATHERINE","a":"1437 JAMES DR CELINA OH 45822","d":"CELINA CITY SCHOOL DISTRICT","t":21222.74,"l":"510","c":0}},{"type":"Feature","geometry":{"type":"Polygon","coordinates":[[[-84.57928626985479,40.55350383640256],[-84.57928546367454,40.55329411317656],[-84.5792863684847,40.55308691262103],[-84.57946630044464,40.55308527026824],[-84.57946620300628,40.55350234718619],[-84.57928626985479,40.55350383640256]]]},"properties":{"p":"273678000000","o":"D A D 'S ENTERPRISES","a":"605 W WAYNE ST CELINA OH 45822","d":"CELINA CITY SCHOOL DISTRICT","t":3375.09,"l":"510","c":0}},{"type":"Feature","geometry":{"type":"Polygon","coordinates":[[[-84.59017373737397,40.609337753277565],[-84.59071309688218,40.60932834208508],[-84.5907107659676,40.60991594232685],[-84.59017427877136,40.60991945649703],[-84.5901738432574,40.60972935939904],[-84.59017373737397,40.609337753277565]]]},"properties":{"p":"240060000000","o":"WILLIAMS JEREMIAH S D SR & MARSHA A","a":"8941 WEITZ RD CELINA OH 45822","d":"CELINA CITY SCHOOL DISTRICT","t":10427.22,"l":"510","c":0}},{"type":"Feature","geometry":{"type":"Polygon","coordinates":[[[-84.64767235318237,40.56826292451522],[-84.64767446861295,40.56802401478992],[-84.64813155049877,40.568022374938],[-84.6481355354425,40.567576647418846],[-84.64813555110446,40.56757493825917],[-84.64860346808929,40.56757322622781],[-84.6486034498553,40.56757522099775],[-84.64859732714329,40.5682595885691],[-84.64767235318237,40.56826292451522]]]},"properties":{"p":"240387000100","o":"SUTTER ANDREW & SAMANTHA","a":"3993 CARMEL CHURCH RD CELINA OH 45822","d":"CELINA CITY SCHOOL DISTRICT","t":8081.29,"l":"510","c":0}},{"type":"Feature","geometry":{"type":"Polygon","coordinates":[[[-84.7275226851932,40.62659566909521],[-84.72752387392448,40.6267768309376],[-84.72745182160833,40.62677685865397],[-84.72633270489452,40.62677729308269],[-84.72633154779851,40.626596131576584],[-84.72745063307346,40.626595696810874],[-84.7275226851932,40.62659566909521]]]},"properties":{"p":"300028000000","o":"SEALSCOTT EVELYN LIFE ESTATE","a":"9630 BURRVILLE RD ROCKFORD OH 45882","d":"PARKWAY LOCAL SCHOOL DISTRICT","t":12208.5,"l":"510","c":0}},{"type":"Feature","geometry":{"type":"Polygon","coordinates":[[[-84.70871349525777,40.633221693295326],[-84.70869844271206,40.632767368187224],[-84.70869215086158,40.632489612312476],[-84.70867404377182,40.63200205113029],[-84.70866479316365,40.63175294497565],[-84.70865376179425,40.63142114823704],[-84.70872579592785,40.631419758121005],[-84.70945786266834,40.631405626307505],[-84.70951650621059,40.633162117951315],[-84.70951833929594,40.633217016637154],[-84.70919461022423,40.633216781443885],[-84.70871349525777,40.633221693295326]]]},"properties":{"p":"300031000100","o":"SUTTON BRYAN","a":"9709 ERASTUS DURBIN RD ROCKFORD OH 45882","d":"PARKWAY LOCAL SCHOOL DISTRICT","t":1778.51,"l":"510","c":0}},{"type":"Feature","geometry":{"type":"Polygon","coordinates":[[[-84.51739802243173,40.67161685833282],[-84.51789389161985,40.671599592787594],[-84.51789526444182,40.67178302609469],[-84.51739461076492,40.671801228048324],[-84.51739802243173,40.67161685833282]]]},"properties":{"p":"410195000000","o":"COFFMAN CLAUDE B JR & CHRISTINA B","a":"104 JEFFERSON ST MENDON OH 45862","d":"PARKWAY LOCAL SCHOOL DISTRICT","t":900.74,"l":"510","c":0}},{"type":"Feature","geometry":{"type":"Polygon","coordinates":[[[-84.46566956370107,40.676428061292505],[-84.4655613959273,40.67643353246053],[-84.46529604748153,40.67644695402394],[-84.46524876602831,40.6763297437285],[-84.46447637206009,40.676078308287195],[-84.46447516614921,40.67550704556692],[-84.46447510878818,40.67547959718137],[-84.46557289708738,40.67547008833617],[-84.46568107568068,40.675469151455815],[-84.46568068036636,40.675496598610586],[-84.46566980255548,40.67625159408428],[-84.46566956370107,40.676428061292505]]]},"properties":{"p":"400373000300","o":"ROBERTS MICHAEL &","a":"11212 GALLMAN RD MENDON OH 45862","d":"PARKWAY LOCAL SCHOOL DISTRICT","t":17763.78,"l":"510","c":0}},{"type":"Feature","geometry":{"type":"Polygon","coordinates":[[[-84.5199983101576,40.674973916437764],[-84.51999908357185,40.67504518139771],[-84.51999981355372,40.6752003719123],[-84.51940500181854,40.6752058238994],[-84.51940389315024,40.67497936509621],[-84.5199983101576,40.674973916437764]]]},"properties":{"p":"410020000000","o":"LEY COREY","a":"206 WAYNE ST MENDON OH 45862","d":"PARKWAY LOCAL SCHOOL DISTRICT","t":4963.53,"l":"510","c":0}},{"type":"Feature","geometry":{"type":"Polygon","coordinates":[[[-84.51788426759722,40.67049990372697],[-84.51739875588892,40.67051066428199],[-84.51739760193699,40.67029455729312],[-84.51788189149514,40.67028664943087],[-84.51788426759722,40.67049990372697]]]},"properties":{"p":"410207000000","o":"VALDEZ CHRISTOPHER J","a":"328 S GREEN ST MENDON OH 45862","d":"PARKWAY LOCAL SCHOOL DISTRICT","t":612.49,"l":"500","c":0}},{"type":"Feature","geometry":{"type":"Polygon","coordinates":[[[-84.51712375452118,40.67071224157433],[-84.51664798402433,40.67071448243176],[-84.51664933667851,40.67053283427341],[-84.5171251271848,40.67053059393577],[-84.51712375452118,40.67071224157433]]]},"properties":{"p":"410218000000","o":"VALDEZ CHRISTOPHER J","a":"323 S GREEN ST MENDON OH 45862","d":"PARKWAY LOCAL SCHOOL DISTRICT","t":552.22,"l":"500","c":0}},{"type":"Feature","geometry":{"type":"Polygon","coordinates":[[[-84.51665071038931,40.670348257276395],[-84.5171264986585,40.670348946316246],[-84.5171251271848,40.67053059393577],[-84.51664933667851,40.67053283427341],[-84.51665071038931,40.670348257276395]]]},"properties":{"p":"410217000000","o":"VALDEZ CHRISTOPHER J","a":"323 S GREEN ST MENDON OH 45862","d":"PARKWAY LOCAL SCHOOL DISTRICT","t":558.96,"l":"560","c":0}},{"type":"Feature","geometry":{"type":"Polygon","coordinates":[[[-84.49759854748147,40.66254436484115],[-84.49755044638127,40.6625380922451],[-84.49750210733598,40.66253299299878],[-84.49745357779692,40.66252907167879],[-84.49740490997173,40.66252633367974],[-84.49735615120328,40.66252477997716],[-84.49710397400628,40.66252172614491],[-84.49778122287009,40.66251968883452],[-84.49913447858663,40.662515607666386],[-84.49914107613458,40.662945976965766],[-84.49914199746468,40.66300600814127],[-84.4985752586298,40.66282097639512],[-84.49835250693698,40.66274966996123],[-84.4982675170908,40.66272246310206],[-84.49796227135239,40.66262576196927],[-84.4978189034629,40.66258905487523],[-84.49777557342422,40.66257811864095],[-84.49773183316766,40.66256817320454],[-84.49768772315988,40.66255922686743],[-84.49764328153012,40.66255128887256],[-84.49759854748147,40.66254436484115]]]},"properties":{"p":"400407000100","o":"SMITH MICKEY L","a":"10738 NEPTUNE MENDON RD","d":"PARKWAY LOCAL SCHOOL DISTRICT","t":1731.56,"l":"560","c":0}},{"type":"Feature","geometry":{"type":"Polygon","coordinates":[[[-84.52073015625815,40.671207052743725],[-84.52048894898402,40.67120954022871],[-84.52046756607064,40.67080965406496],[-84.52070719420934,40.670807183652826],[-84.52073015625815,40.671207052743725]]]},"properties":{"p":"410322000000","o":"SWARTZ CARL","a":"204 W WALNUT ST MENDON OH 45862","d":"PARKWAY LOCAL SCHOOL DISTRICT","t":4022.95,"l":"510","c":0}},{"type":"Feature","geometry":{"type":"Polygon","coordinates":[[[-84.52073703131477,40.675378390493975],[-84.52026116675486,40.675380205142666],[-84.52025983099887,40.67519863486386],[-84.5207356422,40.67519682023839],[-84.52073703131477,40.675378390493975]]]},"properties":{"p":"410094000000","o":"JUNOD JOSHUA","a":"211 WAYNE ST","d":"PARKWAY LOCAL SCHOOL DISTRICT","t":6219.92,"l":"510","c":0}},{"type":"Feature","geometry":{"type":"Polygon","coordinates":[[[-84.5202631682949,40.675652355214446],[-84.52073911524326,40.67565054003908],[-84.5207408511777,40.67587739949537],[-84.52026483635505,40.67587921494574],[-84.5202631682949,40.675652355214446]]]},"properties":{"p":"410088000000","o":"JOHNSON DOUG & TINA","a":"219 N WAYNE ST MENDON OH 45862","d":"PARKWAY LOCAL SCHOOL DISTRICT","t":3155.36,"l":"510","c":0}},{"type":"Feature","geometry":{"type":"Polygon","coordinates":[[[-84.50395693726132,40.68571696076195],[-84.50586853919079,40.685704411019614],[-84.50582339237107,40.68801329692501],[-84.50401755993802,40.68799510626755],[-84.50394543934583,40.68799437899657],[-84.5039446338105,40.687733104977035],[-84.50394534868929,40.68735121621481],[-84.50394392724813,40.68689856488341],[-84.50394156307925,40.68641425481278],[-84.5039381148552,40.68615924061874],[-84.50395693726132,40.68571696076195]]]},"properties":{"p":"400226000100","o":"YOCUM JOHN &","a":"11581 HAMILTON RD MENDON OH 45862","d":"PARKWAY LOCAL SCHOOL DISTRICT","t":4800.52,"l":"510","c":0}},{"type":"Feature","geometry":{"type":"Polygon","coordinates":[[[-84.51401895940762,40.673457376243924],[-84.51425689520906,40.673457231857014],[-84.51449483098217,40.67345708607552],[-84.51449788262605,40.6738194079471],[-84.5142604140355,40.673819552701886],[-84.51402282243858,40.67381969822665],[-84.51401895940762,40.673457376243924]]]},"properties":{"p":"410224000000","o":"GRUNDEN KYLE J","a":"315 E MARKET ST MENDON OH 45862","d":"PARKWAY LOCAL SCHOOL DISTRICT","t":4923.72,"l":"510","c":0}},{"type":"Feature","geometry":{"type":"Polygon","coordinates":[[[-84.51449788262605,40.6738194079471],[-84.51449483098217,40.67345708607552],[-84.5146452955119,40.67345699402149],[-84.51473276557181,40.67345693982062],[-84.51473554469524,40.67381526790186],[-84.51471602660715,40.67381927385893],[-84.51449788262605,40.6738194079471]]]},"properties":{"p":"410223000000","o":"GRUNDEN KYLE J","a":"315 E MARKET ST MENDON OH 45862","d":"PARKWAY LOCAL SCHOOL DISTRICT","t":1933.82,"l":"500","c":0}},{"type":"Feature","geometry":{"type":"Polygon","coordinates":[[[-84.53355622080694,40.69884137243052],[-84.53355650871086,40.69889626968323],[-84.53355665264925,40.69892371785937],[-84.5335524058586,40.69998720410382],[-84.53430510175338,40.699987714367985],[-84.53506861583499,40.699988226610834],[-84.5350785049053,40.69998823382107],[-84.53524894556134,40.69998783931972],[-84.53525883726924,40.69998781674137],[-84.53623121811711,40.69997769901781],[-84.5362333735425,40.70122314222756],[-84.53355623474481,40.70123466877264],[-84.53276107423149,40.701238080224236],[-84.5327250085617,40.70123823455339],[-84.5326528748833,40.70123854411993],[-84.5326520134465,40.70073147593236],[-84.53265128255504,40.70065154184864],[-84.53264274799379,40.69971866416868],[-84.53265489423919,40.6988592529223],[-84.53348225157293,40.69884152507792],[-84.53355622080694,40.69884137243052]]]},"properties":{"p":"400135000000","o":"SPRAGUE NANCY & SPRAGUE TONI","a":"12029 DUTTON RD ROCKFORD OH 45882","d":"PARKWAY LOCAL SCHOOL DISTRICT","t":2123,"l":"111","c":0}},{"type":"Feature","geometry":{"type":"Polygon","coordinates":[[[-84.46447304410742,40.674385906750246],[-84.46557558354014,40.67436397362834],[-84.46568372555451,40.67436182219402],[-84.46568679207476,40.6747691658065],[-84.46557864047728,40.674770096843865],[-84.46447363118588,40.674779599186714],[-84.46447304410742,40.674385906750246]]]},"properties":{"p":"400373000000","o":"ROBERTS MICHAEL & JENNIFER","a":"11160 GALLMAN RD MENDON OH 45862","d":"PARKWAY LOCAL SCHOOL DISTRICT","t":8713.19,"l":"510","c":0}},{"type":"Feature","geometry":{"type":"Polygon","coordinates":[[[-84.64430878775917,40.69030430537257],[-84.6438244901774,40.69031335080921],[-84.64383015047561,40.690132310757114],[-84.64431181365129,40.69012315784169],[-84.64430878775917,40.69030430537257]]]},"properties":{"p":"080245000000","o":"SCHALLENBERG RANDY & SCHALLENBERG DONALD","a":"206 E PEARL ST","d":"PARKWAY LOCAL SCHOOL DISTRICT","t":2923.93,"l":"510","c":0}},{"type":"Feature","geometry":{"type":"Polygon","coordinates":[[[-84.52034201443585,40.66925775463411],[-84.52034423613328,40.66930541858735],[-84.51986142776357,40.66930395436108],[-84.51985866038831,40.66925588026071],[-84.52034201443585,40.66925775463411]]]},"properties":{"p":"410357000000","o":"FETTERS GEORGE R & CANDES","a":"0 WAYNE ST","d":"PARKWAY LOCAL SCHOOL DISTRICT","t":103.11,"l":"500","c":0}},{"type":"Feature","geometry":{"type":"Polygon","coordinates":[[[-84.51565640799912,40.674352262711935],[-84.51589252454593,40.67435591860484],[-84.51589201259793,40.674599301861036],[-84.51581865421603,40.67459922925136],[-84.5156540692577,40.67459921910314],[-84.51565640799912,40.674352262711935]]]},"properties":{"p":"410225000000","o":"GRUNDEN KYLE J","a":"0 MARKET ST MENDON OH 45862","d":"PARKWAY LOCAL SCHOOL DISTRICT","t":1170.7,"l":"599","c":0}},{"type":"Feature","geometry":{"type":"Polygon","coordinates":[[[-84.55184355275613,40.69657643310171],[-84.55175339206903,40.696576489415804],[-84.55073249145069,40.69657712662507],[-84.55073365163402,40.696124209875336],[-84.55073427566067,40.6956712928012],[-84.55175447665196,40.695670679566454],[-84.55184463616443,40.695670625052124],[-84.55184441580693,40.69612352963368],[-84.55184431573176,40.696330000272575],[-84.55184355275613,40.69657643310171]]]},"properties":{"p":"400261000101","o":"SHANNON RICHARD L &","a":"11890 TOMLINSON RD MENDON OH 45862","d":"PARKWAY LOCAL SCHOOL DISTRICT","t":972.11,"l":"560","c":0}},{"type":"Feature","geometry":{"type":"Polygon","coordinates":[[[-84.46568679207476,40.6747691658065],[-84.46568829192292,40.67496827214414],[-84.46568107568068,40.675469151455815],[-84.46557289708738,40.67547008833617],[-84.46447510878818,40.67547959718137],[-84.46447363118588,40.674779599186714],[-84.46557864047728,40.674770096843865],[-84.46568679207476,40.6747691658065]]]},"properties":{"p":"400373000100","o":"ROBERTS MICHAEL & JENNIFER","a":"11186 GALLMAN RD MENDON OH 45862","d":"PARKWAY LOCAL SCHOOL DISTRICT","t":4601.52,"l":"560","c":0}},{"type":"Feature","geometry":{"type":"Polygon","coordinates":[[[-84.6496332987077,40.69263572459322],[-84.64987130506971,40.69263540927063],[-84.64987025662141,40.69299961016065],[-84.64963227476062,40.69299896832494],[-84.6496332987077,40.69263572459322]]]},"properties":{"p":"080198000000","o":"FOX KURT O","a":"305 W COLUMBIA ST ROCKFORD OH 45882","d":"PARKWAY LOCAL SCHOOL DISTRICT","t":407.24,"l":"510","c":0}},{"type":"Feature","geometry":{"type":"Polygon","coordinates":[[[-84.64767811257053,40.68597039934282],[-84.64773914320126,40.685969101907524],[-84.64773683114267,40.686150255285035],[-84.64768130751342,40.686151435050846],[-84.64767332876677,40.686151604464094],[-84.64743552154333,40.686156657447235],[-84.64743785455849,40.68597550459922],[-84.64766793310154,40.685970615422896],[-84.64767811257053,40.68597039934282]]]},"properties":{"p":"080454000000","o":"HOERSTEN JOHN JOSEPH & NADA LOU","a":"610 S FRANKLIN ST ROCKFORD OH 45882","d":"PARKWAY LOCAL SCHOOL DISTRICT","t":5.53,"l":"560","c":0}},{"type":"Feature","geometry":{"type":"Polygon","coordinates":[[[-84.64409462239657,40.68773782491529],[-84.64385670351702,40.68774227250216],[-84.64385555567488,40.68737995004604],[-84.64409347325606,40.68737550246146],[-84.64409462239657,40.68773782491529]]]},"properties":{"p":"080173000000","o":"DULL RYAN M","a":"206 E SECOND ST ROCKFORD OH 45882","d":"PARKWAY LOCAL SCHOOL DISTRICT","t":7498.67,"l":"510","c":0}},{"type":"Feature","geometry":{"type":"Polygon","coordinates":[[[-84.61320121835472,40.65514237237004],[-84.61320282643985,40.65506002273949],[-84.61386963350056,40.655058706304274],[-84.61386963259064,40.65505893783022],[-84.6138668122149,40.655791655961494],[-84.61318871924449,40.655782665346166],[-84.61320121835472,40.65514237237004]]]},"properties":{"p":"070552000000","o":"SCHOENLEBEN SCOTT & LORI ANN","a":"4885 ST RT 707 ROCKFORD OH 45882","d":"PARKWAY LOCAL SCHOOL DISTRICT","t":12325.73,"l":"560","c":0}},{"type":"Feature","geometry":{"type":"Polygon","coordinates":[[[-84.64732037910521,40.687992458961],[-84.64772262464665,40.68798717629054],[-84.64772181681167,40.68816833657344],[-84.64731937026815,40.68817362208747],[-84.64732037910521,40.687992458961]]]},"properties":{"p":"080127000000","o":"SENDELBACH JESSICA","a":"408 S FRANKLIN ST","d":"PARKWAY LOCAL SCHOOL DISTRICT","t":3552.06,"l":"560","c":0}},{"type":"Feature","geometry":{"type":"Polygon","coordinates":[[[-84.70271935869846,40.6913466108188],[-84.70271973545177,40.69142896238767],[-84.70272156142934,40.69182696108755],[-84.70187213324145,40.691824105017695],[-84.70187030143913,40.69142367245927],[-84.7018699245868,40.69134132181059],[-84.70271935869846,40.6913466108188]]]},"properties":{"p":"010162000000","o":"DEITSCH RHONDA L","a":"2661 ROCKFORD WEST RD ROCKFORD OH 45882","d":"PARKWAY LOCAL SCHOOL DISTRICT","t":6052.28,"l":"560","c":0}},{"type":"Feature","geometry":{"type":"Polygon","coordinates":[[[-84.51565640799912,40.674352262711935],[-84.51565866115247,40.67411437336252],[-84.51589653847073,40.67411440409587],[-84.51589273264833,40.67425733440498],[-84.51589252454593,40.67435591860484],[-84.51565640799912,40.674352262711935]]]},"properties":{"p":"410232000000","o":"BENSMAN RALPH","a":"116 DUTTON ST MENDON OH 45862","d":"PARKWAY LOCAL SCHOOL DISTRICT","t":467.65,"l":"560","c":0}}]}