{"type":"FeatureCollection","features":[{"type":"Feature","geometry":{"type":"Polygon","coordinates":[[[-84.137986,41.393256],[-84.138027,41.392621],[-84.138106,41.392632],[-84.138431,41.39274],[-84.138338,41.39388],[-84.137933,41.393795],[-84.138,41.393519],[-84.137986,41.393256]]]},"properties":{"p":"411401000000","o":"BRINK, CLAYTON DANIEL","a":"1229 WOODLAWN AVENUE NAPOLEON","d":"NAPOLEON AREA CITY SCHOOL DISTRICT","t":1371.91,"l":"510: Res-Single Family","c":0}},{"type":"Feature","geometry":{"type":"Polygon","coordinates":[[[-84.131631,41.390774],[-84.131627,41.390581],[-84.13198,41.390631],[-84.131983,41.39076],[-84.131631,41.390774]]]},"properties":{"p":"411302120000","o":"BUSCH, STEVEN L., ETUX","a":"900 HALEY AVE NAPOLEON","d":"NAPOLEON AREA CITY SCHOOL DISTRICT","t":497.01,"l":"510: Res-Single Family","c":0}},{"type":"Feature","geometry":{"type":"Polygon","coordinates":[[[-84.124923,41.393665],[-84.125175,41.393572],[-84.125135,41.39375],[-84.125012,41.393797],[-84.124923,41.393665]]]},"properties":{"p":"411300900000","o":"WITTE JR., DANIEL T.","a":"839 MONROE ST NAPOLEON","d":"NAPOLEON AREA CITY SCHOOL DISTRICT","t":1111.69,"l":"510: Res-Single Family","c":0}},{"type":"Feature","geometry":{"type":"Polygon","coordinates":[[[-84.124768,41.393435],[-84.124645,41.393252],[-84.125018,41.393108],[-84.125154,41.39331],[-84.125076,41.393341],[-84.125064,41.393322],[-84.124768,41.393435]]]},"properties":{"p":"411300840000","o":"BEST OHIO INVESTMENTS, INC","a":"825 MONROE STREET NAPOLEON","d":"NAPOLEON AREA CITY SCHOOL DISTRICT","t":1817.11,"l":"530: Res-Three Family","c":0}},{"type":"Feature","geometry":{"type":"Polygon","coordinates":[[[-84.125154,41.39331],[-84.125018,41.393108],[-84.12518,41.393046],[-84.125289,41.393208],[-84.125698,41.39305],[-84.125488,41.393623],[-84.125177,41.393563],[-84.12514,41.393437],[-84.125076,41.393341],[-84.125154,41.39331]]]},"properties":{"p":"411300780000","o":"URBAN HEIGHTS OHIO, LLC","a":"828 OAKWOOD AVE NAPOLEON","d":"NAPOLEON AREA CITY SCHOOL DISTRICT","t":538.51,"l":"429: Com-Other","c":0}},{"type":"Feature","geometry":{"type":"Polygon","coordinates":[[[-84.126171,41.392885],[-84.126654,41.3927],[-84.126699,41.392767],[-84.126217,41.392952],[-84.126171,41.392885]]]},"properties":{"p":"410097230440","o":"PHAM, THERESA THI THU","a":"829 N PERRY ST NAPOLEON","d":"NAPOLEON AREA CITY SCHOOL DISTRICT","t":1011.62,"l":"499: Com-Other","c":0}},{"type":"Feature","geometry":{"type":"Polygon","coordinates":[[[-84.126217,41.392952],[-84.126699,41.392767],[-84.12674,41.392827],[-84.126258,41.393013],[-84.126217,41.392952]]]},"properties":{"p":"410097230420","o":"PHAM, THERESA THI THU","a":"829 N PERRY ST NAPOLEON","d":"NAPOLEON AREA CITY SCHOOL DISTRICT","t":830.49,"l":"429: Com-Other","c":0}},{"type":"Feature","geometry":{"type":"Polygon","coordinates":[[[-84.126258,41.393013],[-84.12674,41.392827],[-84.126781,41.392888],[-84.126298,41.393073],[-84.126258,41.393013]]]},"properties":{"p":"410097230400","o":"PHAM, THERESA THI THU","a":"831 N PERRY ST NAPOLEON","d":"NAPOLEON AREA CITY SCHOOL DISTRICT","t":1305.84,"l":"499: Com-Other","c":0}},{"type":"Feature","geometry":{"type":"Polygon","coordinates":[[[-84.137784,41.396978],[-84.137777,41.396635],[-84.138082,41.396631],[-84.13809,41.396974],[-84.137784,41.396978]]]},"properties":{"p":"410095590060","o":"BROWN II, DON E ETUX","a":"1308 LAGRANGE STREET NAPOLEON","d":"NAPOLEON AREA CITY SCHOOL DISTRICT","t":3303.76,"l":"510: Res-Single Family","c":0}},{"type":"Feature","geometry":{"type":"Polygon","coordinates":[[[-84.121143,41.395972],[-84.121598,41.395797],[-84.122057,41.396478],[-84.121615,41.396672],[-84.121143,41.395972]]]},"properties":{"p":"410095550080","o":"DAMMAN, MATTHEW","a":"FILMORE STREET NAPOLEON","d":"NAPOLEON AREA CITY SCHOOL DISTRICT","t":996.58,"l":"400: Com-Vacant Land","c":0}},{"type":"Feature","geometry":{"type":"Polygon","coordinates":[[[-84.137751,41.392005],[-84.137532,41.392008],[-84.137527,41.391687],[-84.137746,41.391683],[-84.137751,41.392005]]]},"properties":{"p":"410095500300","o":"CRAMER, AMY M., TRUSTEE","a":"820 CLAIRMONT AVENUE NAPOLEON","d":"NAPOLEON AREA CITY SCHOOL DISTRICT","t":905.33,"l":"510: Res-Single Family","c":0}},{"type":"Feature","geometry":{"type":"Polygon","coordinates":[[[-84.13305,41.385517],[-84.133042,41.385177],[-84.133284,41.385174],[-84.133292,41.385513],[-84.13305,41.385517]]]},"properties":{"p":"410095472120","o":"GONZALEZ, EUGENIA","a":"631 STRONG STREET NAPOLEON","d":"NAPOLEON AREA CITY SCHOOL DISTRICT","t":2287.99,"l":"510: Res-Single Family","c":0}},{"type":"Feature","geometry":{"type":"Polygon","coordinates":[[[-84.132708,41.390804],[-84.132949,41.3908],[-84.132957,41.391253],[-84.132716,41.391257],[-84.132708,41.390804]]]},"properties":{"p":"410095460020","o":"NEUHAUSER, ALVINA M. TRUST","a":"616 LEONARD STREET NAPOLEON","d":"NAPOLEON AREA CITY SCHOOL DISTRICT","t":1781.43,"l":"510: Res-Single Family","c":0}},{"type":"Feature","geometry":{"type":"Polygon","coordinates":[[[-84.11649,41.387498],[-84.116769,41.387287],[-84.116971,41.387437],[-84.116727,41.387622],[-84.11649,41.387498]]]},"properties":{"p":"410095250060","o":"HEFFNER, LANE","a":"325 SHORT STREET NAPOLEON","d":"NAPOLEON AREA CITY SCHOOL DISTRICT","t":2215.52,"l":"520: Res-Two Family","c":0}},{"type":"Feature","geometry":{"type":"Polygon","coordinates":[[[-84.116769,41.387287],[-84.11704,41.387081],[-84.117242,41.387232],[-84.116971,41.387437],[-84.116769,41.387287]]]},"properties":{"p":"410095250040","o":"HEFFNER, LANE","a":"318 SHORT STREET NAPOLEON","d":"NAPOLEON AREA CITY SCHOOL DISTRICT","t":2189.63,"l":"520: Res-Two Family","c":0}},{"type":"Feature","geometry":{"type":"Polygon","coordinates":[[[-84.116727,41.387622],[-84.117242,41.387232],[-84.117442,41.387381],[-84.117171,41.387586],[-84.117037,41.387486],[-84.116804,41.387663],[-84.116727,41.387622]]]},"properties":{"p":"410095250020","o":"HEFFNER, LANE","a":"225 CLIFF STREET NAPOLEON","d":"NAPOLEON AREA CITY SCHOOL DISTRICT","t":2228.23,"l":"520: Res-Two Family","c":0}},{"type":"Feature","geometry":{"type":"Polygon","coordinates":[[[-84.127916,41.392624],[-84.128541,41.392352],[-84.128691,41.392495],[-84.128066,41.392767],[-84.127916,41.392624]]]},"properties":{"p":"410094510080","o":"HAMM, STANLEY P., ETUX","a":"845 NORTH SCOTT NAPOLEON","d":"NAPOLEON AREA CITY SCHOOL DISTRICT","t":408.62,"l":"510: Res-Single Family","c":0}},{"type":"Feature","geometry":{"type":"Polygon","coordinates":[[[-84.126067,41.392055],[-84.126151,41.392023],[-84.126445,41.392459],[-84.126361,41.392491],[-84.126067,41.392055]]]},"properties":{"p":"410094213680","o":"JT BLDG MAINTENENCE & CONSTR.,","a":"114 WEST CLINTON STREET NAPOLEON","d":"NAPOLEON AREA CITY SCHOOL DISTRICT","t":798.41,"l":"420: Com-Retail-Small","c":0}},{"type":"Feature","geometry":{"type":"Polygon","coordinates":[[[-84.120569,41.390847],[-84.120841,41.390743],[-84.120932,41.390876],[-84.120744,41.390949],[-84.120857,41.391122],[-84.120776,41.391153],[-84.120569,41.390847]]]},"properties":{"p":"410094211181","o":"WESTHOVEN, JASON L.","a":"522 HOBSON STREET NAPOLEON","d":"NAPOLEON AREA CITY SCHOOL DISTRICT","t":975.24,"l":"440: Com-Dry Cleaning","c":0}},{"type":"Feature","geometry":{"type":"Polygon","coordinates":[[[-84.121119,41.389953],[-84.121215,41.390097],[-84.121413,41.390022],[-84.121427,41.390043],[-84.121724,41.389929],[-84.121889,41.390171],[-84.121023,41.390502],[-84.120907,41.390331],[-84.121048,41.390277],[-84.121031,41.390252],[-84.121161,41.390203],[-84.121018,41.389991],[-84.121119,41.389953]]]},"properties":{"p":"410094210640","o":"FOUR WALTERS, LTD","a":"222 E FRONT ST NAPOLEON","d":"NAPOLEON AREA CITY SCHOOL DISTRICT","t":5097.6,"l":"455: Com-Garage","c":0}},{"type":"Feature","geometry":{"type":"Polygon","coordinates":[[[-84.118728,41.386285],[-84.118914,41.386201],[-84.119419,41.386816],[-84.119164,41.386933],[-84.118668,41.386313],[-84.118728,41.386285]]]},"properties":{"p":"410093340860","o":"MATTISON, TIM","a":"161 EAST MAUMEE AVENUE NAPOLEON","d":"NAPOLEON AREA CITY SCHOOL DISTRICT","t":1542.56,"l":"510: Res-Single Family","c":0}},{"type":"Feature","geometry":{"type":"Polygon","coordinates":[[[-84.127123,41.395539],[-84.127551,41.395375],[-84.127661,41.395536],[-84.127232,41.395701],[-84.127123,41.395539]]]},"properties":{"p":"410093020260","o":"ZAPATA JR., DAVID B., ETAL","a":"1032 NORTH PERRY STREET NAPOLEON","d":"NAPOLEON AREA CITY SCHOOL DISTRICT","t":1388.86,"l":"510: Res-Single Family","c":0}},{"type":"Feature","geometry":{"type":"Polygon","coordinates":[[[-84.124611,41.396657],[-84.124692,41.396442],[-84.12516,41.396438],[-84.125167,41.396653],[-84.124611,41.396657]]]},"properties":{"p":"410092710060","o":"ROMES, TODD A.","a":"1129 OAKWOOD AVENUE NAPOLEON","d":"NAPOLEON AREA CITY SCHOOL DISTRICT","t":1443.73,"l":"510: Res-Single Family","c":0}},{"type":"Feature","geometry":{"type":"Polygon","coordinates":[[[-84.124099,41.383086],[-84.124099,41.382892],[-84.124682,41.382893],[-84.124678,41.383087],[-84.124099,41.383086]]]},"properties":{"p":"410092210380","o":"BLAIR, JEFF L., TRUSTEE","a":"711 FIRST STREET NAPOLEON","d":"NAPOLEON AREA CITY SCHOOL DISTRICT","t":586.18,"l":"510: Res-Single Family","c":0}},{"type":"Feature","geometry":{"type":"Polygon","coordinates":[[[-84.135117,41.393436],[-84.135134,41.393371],[-84.135316,41.39341],[-84.135247,41.393755],[-84.135099,41.393724],[-84.135117,41.393436]]]},"properties":{"p":"410092170080","o":"MEYER, CHARLES B.J.","a":"1120 WOODLAWN AVE NAPOLEON","d":"NAPOLEON AREA CITY SCHOOL DISTRICT","t":2285.45,"l":"510: Res-Single Family","c":0}},{"type":"Feature","geometry":{"type":"Polygon","coordinates":[[[-84.128055,41.378914],[-84.128056,41.37885],[-84.128666,41.37885],[-84.128669,41.377809],[-84.129587,41.377806],[-84.129577,41.378399],[-84.129778,41.378399],[-84.129777,41.379137],[-84.128036,41.380497],[-84.128055,41.378914]]]},"properties":{"p":"410092120300","o":"BIRCHWOOD TERRACE MHP, INC.","a":"538 HUDDLE RD NAPOLEON","d":"NAPOLEON AREA CITY SCHOOL DISTRICT","t":14614.93,"l":"415: Com-Mobile Home Park","c":0}},{"type":"Feature","geometry":{"type":"Polygon","coordinates":[[[-84.139665,41.392959],[-84.139655,41.39247],[-84.139947,41.392466],[-84.139957,41.392957],[-84.139665,41.392959]]]},"properties":{"p":"410091840160","o":"BRUBAKER, ROBERT L., ETAL","a":"920 LYNN AVENUE NAPOLEON","d":"NAPOLEON AREA CITY SCHOOL DISTRICT","t":1625.17,"l":"510: Res-Single Family","c":0}},{"type":"Feature","geometry":{"type":"Polygon","coordinates":[[[-84.120621,41.402784],[-84.120625,41.402422],[-84.121106,41.402427],[-84.121102,41.402789],[-84.120621,41.402784]]]},"properties":{"p":"410091510122","o":"WOODLAND CUSTOM HOME BUILDERS, LLC","a":"HUDSON STREET (REAR) NAPOLEON","d":"NAPOLEON AREA CITY SCHOOL DISTRICT","t":478.59,"l":"500: Res-Vacant Land","c":0}},{"type":"Feature","geometry":{"type":"Polygon","coordinates":[[[-84.121829,41.402269],[-84.121834,41.401907],[-84.122074,41.40191],[-84.12207,41.402272],[-84.121829,41.402269]]]},"properties":{"p":"410091510040","o":"PHAM, THERESA T.T.","a":"151 HUDSON ST NAPOLEON","d":"NAPOLEON AREA CITY SCHOOL DISTRICT","t":1230.49,"l":"510: Res-Single Family","c":0}},{"type":"Feature","geometry":{"type":"Polygon","coordinates":[[[-84.133217,41.393734],[-84.133697,41.393727],[-84.133706,41.394274],[-84.133223,41.394278],[-84.133217,41.393734]]]},"properties":{"p":"410090951320","o":"CLAUSEN, LORI K.","a":"1041 REYNOLDS ST NAPOLEON","d":"NAPOLEON AREA CITY SCHOOL DISTRICT","t":2357.36,"l":"510: Res-Single Family","c":0}},{"type":"Feature","geometry":{"type":"Polygon","coordinates":[[[-84.13105,41.395629],[-84.131421,41.395404],[-84.131856,41.395825],[-84.131489,41.396048],[-84.13105,41.395629]]]},"properties":{"p":"410090951080","o":"JT'S BUILDING MAINTENANCE & CONSTRUCTION CO., LTD","a":"1081 NORTH SCOTT STREET NAPOLEON","d":"NAPOLEON AREA CITY SCHOOL DISTRICT","t":698.35,"l":"500: Res-Vacant Land","c":0}},{"type":"Feature","geometry":{"type":"Polygon","coordinates":[[[-84.130992,41.394004],[-84.131372,41.393784],[-84.131521,41.39393],[-84.131141,41.394151],[-84.130992,41.394004]]]},"properties":{"p":"410090950340","o":"SLOAN, RALPH E., JR","a":"1019 STEVENSON STREET NAPOLEON","d":"NAPOLEON AREA CITY SCHOOL DISTRICT","t":526.42,"l":"510: Res-Single Family","c":0}},{"type":"Feature","geometry":{"type":"Polygon","coordinates":[[[-84.124736,41.381614],[-84.124739,41.381433],[-84.125336,41.38144],[-84.125333,41.381621],[-84.124736,41.381614]]]},"properties":{"p":"410090910460","o":"HERNANDEZ-TORRES, GUILLERMO","a":"824 DAGGETT DRIVE NAPOLEON","d":"NAPOLEON AREA CITY SCHOOL DISTRICT","t":1858.19,"l":"510: Res-Single Family","c":0}},{"type":"Feature","geometry":{"type":"Polygon","coordinates":[[[-84.121784,41.385929],[-84.121967,41.385845],[-84.122336,41.386295],[-84.122153,41.386381],[-84.121784,41.385929]]]},"properties":{"p":"410090650140","o":"GARZA, DIANNA","a":"112 WEST MAUMEE AVENUE NAPOLEON","d":"NAPOLEON AREA CITY SCHOOL DISTRICT","t":949.01,"l":"510: Res-Single Family","c":0}},{"type":"Feature","geometry":{"type":"Polygon","coordinates":[[[-84.121625,41.395786],[-84.121998,41.395643],[-84.122337,41.396146],[-84.122287,41.396168],[-84.122395,41.396329],[-84.122057,41.396478],[-84.121598,41.395797],[-84.121625,41.395786]]]},"properties":{"p":"410090640100","o":"DAMMAN, MATTHEW","a":"410 FILMORE ST NAPOLEON","d":"NAPOLEON AREA CITY SCHOOL DISTRICT","t":3060.94,"l":"499: Com-Other","c":0}},{"type":"Feature","geometry":{"type":"Polygon","coordinates":[[[-84.122258,41.384358],[-84.122255,41.38391],[-84.12258,41.383908],[-84.12258,41.384358],[-84.122258,41.384358]]]},"properties":{"p":"410090311020","o":"OEHLER, JEFFREY A., ETUX","a":"205 WEST BARNES STREET NAPOLEON","d":"NAPOLEON AREA CITY SCHOOL DISTRICT","t":667.02,"l":"510: Res-Single Family","c":0}},{"type":"Feature","geometry":{"type":"Polygon","coordinates":[[[-84.151289,41.372434],[-84.151436,41.372095],[-84.152236,41.372208],[-84.15209,41.372553],[-84.151289,41.372434]]]},"properties":{"p":"410090010040","o":"KNEPLEY, JON M.,","a":"1720 W RIVERVIEW NAPOLEON","d":"NAPOLEON AREA CITY SCHOOL DISTRICT","t":1138.96,"l":"510: Res-Single Family","c":0}},{"type":"Feature","geometry":{"type":"Polygon","coordinates":[[[-83.897103,41.210024],[-83.897194,41.209905],[-83.897508,41.210044],[-83.897419,41.210161],[-83.897103,41.210024]]]},"properties":{"p":"400095432220","o":"STRAWSER SR., DANIEL MARTIN","a":"401 NORTH EAST AVENUE DESHLER","d":"PATRICK HENRY LOCAL SCHOOL DISTRICT","t":650.48,"l":"510: Res-Single Family","c":0}},{"type":"Feature","geometry":{"type":"Polygon","coordinates":[[[-83.894288,41.208952],[-83.89447,41.208711],[-83.894769,41.208841],[-83.894404,41.209321],[-83.894106,41.209192],[-83.894288,41.208952]]]},"properties":{"p":"400095431960","o":"EVENBECK, DEANNA","a":"323 EAST PLUM DESHLER","d":"PATRICK HENRY LOCAL SCHOOL DISTRICT","t":844.72,"l":"510: Res-Single Family","c":0}},{"type":"Feature","geometry":{"type":"Polygon","coordinates":[[[-83.89806,41.205161],[-83.898246,41.204915],[-83.898563,41.205051],[-83.898333,41.205359],[-83.898137,41.205274],[-83.89818,41.205212],[-83.89806,41.205161]]]},"properties":{"p":"400095430220","o":"MORRIS, CHARLES A.","a":"115 SOUTH LIND DESHLER","d":"PATRICK HENRY LOCAL SCHOOL DISTRICT","t":757.96,"l":"510: Res-Single Family","c":0}},{"type":"Feature","geometry":{"type":"Polygon","coordinates":[[[-83.891244,41.204025],[-83.891239,41.203695],[-83.892004,41.203689],[-83.892008,41.204018],[-83.891244,41.204025]]]},"properties":{"p":"400095420320","o":"BUSTOS, JUAN","a":"634 EAST WATER STREET DESHLER","d":"PATRICK HENRY LOCAL SCHOOL DISTRICT","t":454.44,"l":"599: Res-Other","c":0}},{"type":"Feature","geometry":{"type":"Polygon","coordinates":[[[-83.897299,41.201445],[-83.897298,41.201307],[-83.898025,41.201303],[-83.898026,41.20144],[-83.897299,41.201445]]]},"properties":{"p":"400095410960","o":"KISER, LISA","a":"330 E BARTLOW DESHLER","d":"PATRICK HENRY LOCAL SCHOOL DISTRICT","t":502.33,"l":"599: Res-Other","c":0}},{"type":"Feature","geometry":{"type":"Polygon","coordinates":[[[-83.910531,41.209847],[-83.910712,41.209608],[-83.911344,41.209881],[-83.910982,41.210359],[-83.910351,41.210084],[-83.910531,41.209847]]]},"properties":{"p":"400094220701","o":"SHINN, BRANDON","a":"638 WEST MULBERRY DESHLER","d":"PATRICK HENRY LOCAL SCHOOL DISTRICT","t":796.61,"l":"420: Com-Retail-Small","c":0}},{"type":"Feature","geometry":{"type":"Polygon","coordinates":[[[-83.907219,41.211806],[-83.907582,41.211327],[-83.907852,41.211444],[-83.907488,41.211923],[-83.907219,41.211806]]]},"properties":{"p":"400094216680","o":"FENSTERMAKER JR, RICHARD D.","a":"530 WEST MAPLE STREET DESHLER","d":"PATRICK HENRY LOCAL SCHOOL DISTRICT","t":6461.22,"l":"510: Res-Single Family","c":0}},{"type":"Feature","geometry":{"type":"Polygon","coordinates":[[[-83.90708,41.206902],[-83.907321,41.206586],[-83.90748,41.206654],[-83.90727,41.206929],[-83.90708,41.206902]]]},"properties":{"p":"400094214660","o":"BOYER, DENNIS J.","a":"330 WEST WALNUT DESHLER","d":"PATRICK HENRY LOCAL SCHOOL DISTRICT","t":751.51,"l":"510: Res-Single Family","c":0}},{"type":"Feature","geometry":{"type":"Polygon","coordinates":[[[-83.904885,41.205357],[-83.905053,41.205136],[-83.905521,41.205341],[-83.905359,41.205552],[-83.904885,41.205357]]]},"properties":{"p":"400094214540","o":"PAYNE, MARK","a":"207 W WALNUT ST DESHLER","d":"PATRICK HENRY LOCAL SCHOOL DISTRICT","t":1027.32,"l":"510: Res-Single Family","c":0}},{"type":"Feature","geometry":{"type":"Polygon","coordinates":[[[-83.89839,41.20713],[-83.898752,41.206654],[-83.898913,41.206724],[-83.898551,41.2072],[-83.89839,41.20713]]]},"properties":{"p":"400094212220","o":"ARMSTRONG, KAY E.","a":"212 EAST MAPLE DESHLER","d":"PATRICK HENRY LOCAL SCHOOL DISTRICT","t":414.08,"l":"530: Res-Three Family","c":0}},{"type":"Feature","geometry":{"type":"Polygon","coordinates":[[[-83.88913,41.211336],[-83.889122,41.21102],[-83.889762,41.211017],[-83.889766,41.211333],[-83.88913,41.211336]]]},"properties":{"p":"392495410120","o":"FLOWERS, RONALD J., ETUX","a":"1-403 COUNTY ROAD D DESHLER","d":"PATRICK HENRY LOCAL SCHOOL DISTRICT","t":727.11,"l":"510: Res-Single Family","c":0}},{"type":"Feature","geometry":{"type":"Polygon","coordinates":[[[-83.993936,41.225124],[-83.993931,41.224643],[-83.994367,41.22464],[-83.994372,41.22512],[-83.993936,41.225124]]]},"properties":{"p":"391800140000","o":"ROSEBROCK, LOREN D.","a":"6-823 STATE ROUTE 18","d":"PATRICK HENRY LOCAL SCHOOL DISTRICT","t":907.49,"l":"560: Res-Mobile Home","c":0}},{"type":"Feature","geometry":{"type":"Polygon","coordinates":[[[-83.938647,41.213295],[-83.938623,41.212657],[-83.939377,41.212802],[-83.93939,41.213615],[-83.938736,41.213622],[-83.93873,41.213294],[-83.938647,41.213295]]]},"properties":{"p":"391500200000","o":"PETERSEN, CONNIE D.","a":"3-978 STATE ROUTE 18 DESHLER","d":"PATRICK HENRY LOCAL SCHOOL DISTRICT","t":468.39,"l":"510: Res-Single Family","c":0}},{"type":"Feature","geometry":{"type":"Polygon","coordinates":[[[-83.884183,41.255074],[-83.884169,41.253993],[-83.884998,41.253987],[-83.885013,41.255068],[-83.884183,41.255074]]]},"properties":{"p":"390100020100","o":"MCCANCE, WILLIAM E., ETAL","a":"1-129 COUNTY ROAD G","d":"PATRICK HENRY LOCAL SCHOOL DISTRICT","t":451.09,"l":"510: Res-Single Family","c":0}},{"type":"Feature","geometry":{"type":"Polygon","coordinates":[[[-83.939337,41.260378],[-83.939325,41.259575],[-83.940405,41.259564],[-83.940415,41.260366],[-83.939337,41.260378]]]},"properties":{"p":"373400100100","o":"SMITH, GEORGE W., JR","a":"G-376 STATE ROUTE 65","d":"PATRICK HENRY LOCAL SCHOOL DISTRICT","t":701.59,"l":"510: Res-Single Family","c":0}},{"type":"Feature","geometry":{"type":"Polygon","coordinates":[[[-83.995125,41.34184],[-83.994836,41.341843],[-83.994829,41.341224],[-83.995117,41.341221],[-83.995125,41.34184]]]},"properties":{"p":"370690310120","o":"JOY, HERBERT D., ETUX","a":"COUNTY ROAD M","d":"PATRICK HENRY LOCAL SCHOOL DISTRICT","t":430.88,"l":"599: Res-Other","c":0}},{"type":"Feature","geometry":{"type":"Polygon","coordinates":[[[-83.93981,41.367049],[-83.939807,41.366716],[-83.940779,41.366711],[-83.940783,41.367044],[-83.93981,41.367049]]]},"properties":{"p":"362700920000","o":"KRABILL, PATTI L.","a":"EAST ST MCCLURE","d":"NAPOLEON AREA CITY SCHOOL DISTRICT","t":497.05,"l":"599: Res-Other","c":0}},{"type":"Feature","geometry":{"type":"Polygon","coordinates":[[[-83.940783,41.367044],[-83.940779,41.366711],[-83.94137,41.366708],[-83.941373,41.367041],[-83.940783,41.367044]]]},"properties":{"p":"362700900000","o":"KRABILL, PATTI L.","a":"615 EAST ST MCCLURE","d":"NAPOLEON AREA CITY SCHOOL DISTRICT","t":2215.22,"l":"510: Res-Single Family","c":0}},{"type":"Feature","geometry":{"type":"Polygon","coordinates":[[[-83.938003,41.367166],[-83.938075,41.367126],[-83.938193,41.367127],[-83.938307,41.367057],[-83.938316,41.366882],[-83.938233,41.366629],[-83.938302,41.366559],[-83.938706,41.366549],[-83.938716,41.366594],[-83.939806,41.366588],[-83.939822,41.368422],[-83.940035,41.36842],[-83.940038,41.368709],[-83.937946,41.368728],[-83.938163,41.368408],[-83.938338,41.368202],[-83.938441,41.368119],[-83.938457,41.367965],[-83.938448,41.367894],[-83.93839,41.367821],[-83.938062,41.367634],[-83.937959,41.367265],[-83.938003,41.367166]]]},"properties":{"p":"362700540000","o":"SCHLENK, WAYNE A ETAL","a":"415 HALEY STREET MCCLURE","d":"NAPOLEON AREA CITY SCHOOL DISTRICT","t":2335.64,"l":"510: Res-Single Family","c":0}},{"type":"Feature","geometry":{"type":"Polygon","coordinates":[[[-83.93937,41.36551],[-83.939374,41.365246],[-83.939921,41.365245],[-83.939917,41.36551],[-83.93937,41.36551]]]},"properties":{"p":"362700380000","o":"MYSTIC TREE RENTALS, LLC","a":"735 S HALEY STREET MCCLURE","d":"NAPOLEON AREA CITY SCHOOL DISTRICT","t":1883.7,"l":"510: Res-Single Family","c":0}},{"type":"Feature","geometry":{"type":"Polygon","coordinates":[[[-83.941417,41.372681],[-83.941417,41.372407],[-83.941959,41.372404],[-83.941959,41.372678],[-83.941417,41.372681]]]},"properties":{"p":"362100160000","o":"CASIANO, TEOFILO L.","a":"234 NORTH EAST STREET MCCLURE","d":"NAPOLEON AREA CITY SCHOOL DISTRICT","t":1065.69,"l":"510: Res-Single Family","c":0}},{"type":"Feature","geometry":{"type":"Polygon","coordinates":[[[-83.938132,41.374909],[-83.938131,41.374499],[-83.938313,41.374497],[-83.938315,41.374907],[-83.938132,41.374909]]]},"properties":{"p":"360093661260","o":"POWERS, P CHRISTIAN ETUX","a":"320 CARL ST MCCLURE","d":"NAPOLEON AREA CITY SCHOOL DISTRICT","t":1327.81,"l":"510: Res-Single Family","c":0}},{"type":"Feature","geometry":{"type":"Polygon","coordinates":[[[-83.94094,41.375339],[-83.940939,41.37493],[-83.941121,41.374929],[-83.941122,41.375337],[-83.94094,41.375339]]]},"properties":{"p":"360093660980","o":"SCOTT, DUANE B.","a":"MASON ST MCCLURE","d":"NAPOLEON AREA CITY SCHOOL DISTRICT","t":403.03,"l":"599: Res-Other","c":0}},{"type":"Feature","geometry":{"type":"Polygon","coordinates":[[[-83.941122,41.375337],[-83.941121,41.374929],[-83.941304,41.374927],[-83.941304,41.375336],[-83.941122,41.375337]]]},"properties":{"p":"360093660960","o":"SCOTT, DUANE B.","a":"455 N EAST ST MCCLURE","d":"NAPOLEON AREA CITY SCHOOL DISTRICT","t":1366.49,"l":"510: Res-Single Family","c":0}},{"type":"Feature","geometry":{"type":"MultiPolygon","coordinates":[[[[-83.946038,41.368575],[-83.946262,41.368459],[-83.946262,41.368625],[-83.945238,41.369159],[-83.945238,41.368992],[-83.946038,41.368575]]],[[[-83.945238,41.368937],[-83.945239,41.368667],[-83.945768,41.368661],[-83.945238,41.368937]]]]},"properties":{"p":"360093650260","o":"MCNETT, MERCEDES","a":"415 W HENRY ST MCCLURE","d":"NAPOLEON AREA CITY SCHOOL DISTRICT","t":517.62,"l":"510: Res-Single Family","c":0}},{"type":"Feature","geometry":{"type":"Polygon","coordinates":[[[-83.943301,41.369462],[-83.9433,41.36928],[-83.943544,41.369278],[-83.943544,41.36946],[-83.943301,41.369462]]]},"properties":{"p":"360093640540","o":"GRAY, PAUL E.","a":"245 WEST SUMMIT STREET MCCLURE","d":"NAPOLEON AREA CITY SCHOOL DISTRICT","t":559.23,"l":"510: Res-Single Family","c":0}},{"type":"Feature","geometry":{"type":"Polygon","coordinates":[[[-83.943299,41.368144],[-83.943299,41.367779],[-83.943789,41.367776],[-83.943789,41.368139],[-83.943299,41.368144]]]},"properties":{"p":"360093640400","o":"DONLEY, BARBARA","a":"435 BEAVER STREET MCCLURE","d":"NAPOLEON AREA CITY SCHOOL DISTRICT","t":1740.75,"l":"510: Res-Single Family","c":0}},{"type":"Feature","geometry":{"type":"Polygon","coordinates":[[[-83.947898,41.370893],[-83.947897,41.370525],[-83.948393,41.370522],[-83.948394,41.37089],[-83.947898,41.370893]]]},"properties":{"p":"360093610160","o":"HOOVER, DENNIS","a":"570 CROSS ST MCCLURE","d":"NAPOLEON AREA CITY SCHOOL DISTRICT","t":3028.34,"l":"510: Res-Single Family","c":0}},{"type":"Feature","geometry":{"type":"Polygon","coordinates":[[[-83.947402,41.371308],[-83.947402,41.370941],[-83.94765,41.370939],[-83.94765,41.371307],[-83.947402,41.371308]]]},"properties":{"p":"360093610100","o":"COLE, JOHN, ETAL","a":"555 WEST NORTH STREET MCCLURE","d":"NAPOLEON AREA CITY SCHOOL DISTRICT","t":651.35,"l":"510: Res-Single Family","c":0}},{"type":"Feature","geometry":{"type":"Polygon","coordinates":[[[-83.970637,41.394315],[-83.970634,41.39355],[-83.971826,41.393546],[-83.971824,41.39319],[-83.972182,41.393189],[-83.972207,41.3934],[-83.972595,41.393713],[-83.972348,41.393759],[-83.972455,41.394794],[-83.972394,41.395947],[-83.971231,41.39595],[-83.971075,41.395589],[-83.970642,41.395351],[-83.970637,41.394315]]]},"properties":{"p":"331700120100","o":"WELLS, JACK, ETUX","a":"P-563 COUNTY ROAD 5A NAPOLEON","d":"NAPOLEON AREA CITY SCHOOL DISTRICT","t":2294.55,"l":"510: Res-Single Family","c":0}},{"type":"Feature","geometry":{"type":"Polygon","coordinates":[[[-83.944489,41.415078],[-83.944488,41.414543],[-83.945399,41.414535],[-83.9454,41.415093],[-83.944489,41.415078]]]},"properties":{"p":"330900140200","o":"KERWIN, JOEL D.","a":"4-177 STATE ROUTE 110 NAPOLEON","d":"NAPOLEON AREA CITY SCHOOL DISTRICT","t":898.61,"l":"510: Res-Single Family","c":0}},{"type":"Feature","geometry":{"type":"Polygon","coordinates":[[[-83.912014,41.437879],[-83.91201,41.436692],[-83.91274,41.436693],[-83.912744,41.437878],[-83.912014,41.437879]]]},"properties":{"p":"323500080100","o":"SWEET, MICHAEL G.","a":"2-516 COUNTY ROAD S3 LIBERTY CENTER","d":"OTSEGO LOCAL SCHOOL DISTRICT","t":873.88,"l":"510: Res-Single Family","c":0}},{"type":"Feature","geometry":{"type":"Polygon","coordinates":[[[-83.988232,41.453173],[-83.988223,41.452465],[-83.989504,41.452456],[-83.989511,41.453164],[-83.988232,41.453173]]]},"properties":{"p":"303000340000","o":"PLASSMAN, CHASIDY","a":"T-644 COUNTY ROAD 6C","d":"LIBERTY CENTER LOCAL SCHOOL DISTRICT","t":695.4,"l":"510: Res-Single Family","c":0}},{"type":"Feature","geometry":{"type":"Polygon","coordinates":[[[-83.897407,41.457846],[-83.897545,41.457642],[-83.897625,41.45768],[-83.897626,41.457713],[-83.898141,41.457954],[-83.897633,41.458241],[-83.897633,41.458296],[-83.896954,41.458309],[-83.897177,41.458113],[-83.897407,41.457846]]]},"properties":{"p":"302500180000","o":"STOEPFEL JR., CHRISTOPHER J.","a":"1-753 COUNTY ROAD U LIBERTY CENTER","d":"LIBERTY CENTER LOCAL SCHOOL DISTRICT","t":1353.55,"l":"510: Res-Single Family","c":0}},{"type":"Feature","geometry":{"type":"Polygon","coordinates":[[[-83.894296,41.454805],[-83.894722,41.4548],[-83.894726,41.455349],[-83.892718,41.455382],[-83.892713,41.454826],[-83.894296,41.454805]]]},"properties":{"p":"302500160100","o":"SHELT, DENNIS, ETUX","a":"T-771 COUNTY ROAD 1D","d":"LIBERTY CENTER LOCAL SCHOOL DISTRICT","t":1108.56,"l":"560: Res-Mobile Home","c":0}},{"type":"Feature","geometry":{"type":"Polygon","coordinates":[[[-83.900566,41.462415],[-83.902565,41.462387],[-83.902566,41.463073],[-83.900568,41.463101],[-83.900566,41.462415]]]},"properties":{"p":"302400100400","o":"CRAWFORD, BOBBY L., ETUX","a":"U-330 COUNTY ROAD 2","d":"LIBERTY CENTER LOCAL SCHOOL DISTRICT","t":1217.23,"l":"599: Res-Other","c":0}},{"type":"Feature","geometry":{"type":"Polygon","coordinates":[[[-83.921047,41.459549],[-83.921046,41.459289],[-83.921871,41.459291],[-83.921872,41.459551],[-83.921047,41.459549]]]},"properties":{"p":"302300320000","o":"NOLL, BRANDY S.","a":"U-078 COUNTY ROAD 3","d":"LIBERTY CENTER LOCAL SCHOOL DISTRICT","t":594.32,"l":"599: Res-Other","c":0}},{"type":"Feature","geometry":{"type":"Polygon","coordinates":[[[-83.94127,41.459135],[-83.941262,41.458176],[-83.942414,41.458167],[-83.942421,41.459127],[-83.94127,41.459135]]]},"properties":{"p":"302195110020","o":"WHITNEY, DANA A.","a":"COUNTY ROAD 4","d":"LIBERTY CENTER LOCAL SCHOOL DISTRICT","t":715.64,"l":"500: Res-Vacant Land","c":0}},{"type":"Feature","geometry":{"type":"Polygon","coordinates":[[[-83.975792,41.457868],[-83.975803,41.462873],[-83.975063,41.462879],[-83.975063,41.457874],[-83.975792,41.457868]]]},"properties":{"p":"302000200010","o":"BURDUE, AUSTIN","a":"COUNTY ROAD 6 LIBERTY CENTER 43532","d":"LIBERTY CENTER LOCAL SCHOOL DISTRICT","t":1150.45,"l":"500: Res-Vacant Land","c":0}},{"type":"Feature","geometry":{"type":"Polygon","coordinates":[[[-83.942361,41.473519],[-83.942357,41.4727],[-83.943435,41.472693],[-83.943438,41.473511],[-83.942361,41.473519]]]},"properties":{"p":"301696010020","o":"BIERIE, WILLIAM K.","a":"4-078 COUNTY ROAD V LIBERTY CENTER","d":"LIBERTY CENTER LOCAL SCHOOL DISTRICT","t":2558.53,"l":"560: Res-Mobile Home","c":0}},{"type":"Feature","geometry":{"type":"Polygon","coordinates":[[[-83.949076,41.424373],[-83.949076,41.424011],[-83.949316,41.424013],[-83.949317,41.424375],[-83.949076,41.424373]]]},"properties":{"p":"300495710500","o":"HELMS, PHYLISS J.","a":"690 BROAD STREET LIBERTY CENTER","d":"LIBERTY CENTER LOCAL SCHOOL DISTRICT","t":979.58,"l":"510: Res-Single Family","c":0}},{"type":"Feature","geometry":{"type":"Polygon","coordinates":[[[-83.95122,41.424028],[-83.951219,41.423731],[-83.95146,41.423765],[-83.95146,41.42403],[-83.95122,41.424028]]]},"properties":{"p":"300495710260","o":"THORNTON, JAMES NATHAN","a":"4-546 COUNTY ROAD 424","d":"LIBERTY CENTER LOCAL SCHOOL DISTRICT","t":511.56,"l":"510: Res-Single Family","c":0}},{"type":"Feature","geometry":{"type":"Polygon","coordinates":[[[-83.931442,41.421678],[-83.932597,41.421585],[-83.932604,41.422799],[-83.931446,41.422879],[-83.931442,41.421678]]]},"properties":{"p":"300300020000","o":"PIONKE, RALF, ETUX","a":"COUNTY ROAD 424","d":"LIBERTY CENTER LOCAL SCHOOL DISTRICT","t":551.14,"l":"599: Res-Other","c":0}},{"type":"Feature","geometry":{"type":"Polygon","coordinates":[[[-84.005492,41.444555],[-84.005492,41.444231],[-84.005949,41.444229],[-84.005949,41.444555],[-84.005492,41.444555]]]},"properties":{"p":"292502020000","o":"MCGILVERY, WILLIAM G. JR.,ETAL","a":"108 HIGH ST LIBERTY CENTER","d":"LIBERTY CENTER LOCAL SCHOOL DISTRICT","t":578.62,"l":"510: Res-Single Family","c":0}},{"type":"Feature","geometry":{"type":"Polygon","coordinates":[[[-84.008009,41.447832],[-84.00801,41.447556],[-84.008792,41.44756],[-84.008791,41.447837],[-84.008009,41.447832]]]},"properties":{"p":"292501040000","o":"RECKNER, JUSTIN, ETUX","a":"602 EAST STREET LIBERTY CENTER","d":"LIBERTY CENTER LOCAL SCHOOL DISTRICT","t":2768.81,"l":"510: Res-Single Family","c":0}},{"type":"Feature","geometry":{"type":"Polygon","coordinates":[[[-84.007491,41.44316],[-84.007734,41.443154],[-84.007783,41.443229],[-84.007564,41.443308],[-84.007491,41.44316]]]},"properties":{"p":"290094211420","o":"KOLODZIEJCZYK, AARON","a":"109 E MAPLE ST LIBERTY CENTER","d":"LIBERTY CENTER LOCAL SCHOOL DISTRICT","t":595.84,"l":"520: Res-Two Family","c":0}},{"type":"Feature","geometry":{"type":"Polygon","coordinates":[[[-84.009628,41.444843],[-84.009845,41.444764],[-84.010059,41.445095],[-84.009842,41.445173],[-84.009628,41.444843]]]},"properties":{"p":"290094211281","o":"SCHWAN, PEGGY","a":"109 MARY ANNE ST LIBERTY CENTER","d":"LIBERTY CENTER LOCAL SCHOOL DISTRICT","t":1520.05,"l":"510: Res-Single Family","c":0}},{"type":"Feature","geometry":{"type":"Polygon","coordinates":[[[-84.094608,41.429991],[-84.094609,41.429068],[-84.095769,41.429059],[-84.095764,41.429948],[-84.094935,41.429873],[-84.094607,41.430177],[-84.094608,41.429991]]]},"properties":{"p":"263200180100","o":"MENDOZA, LENO, ETAL","a":"S-092 COUNTY ROAD 12","d":"LIBERTY CENTER LOCAL SCHOOL DISTRICT","t":1909.55,"l":"510: Res-Single Family","c":0}},{"type":"Feature","geometry":{"type":"Polygon","coordinates":[[[-84.077988,41.457116],[-84.077983,41.456466],[-84.080486,41.456455],[-84.080259,41.456634],[-84.080108,41.456726],[-84.079173,41.456628],[-84.078903,41.456748],[-84.078727,41.457116],[-84.077988,41.457116]]]},"properties":{"p":"262900040100","o":"MAASSEL, KARI ANN","a":"11-081 COUNTY ROAD U NAPOLEON","d":"LIBERTY CENTER LOCAL SCHOOL DISTRICT","t":1215.29,"l":"510: Res-Single Family","c":0}},{"type":"Feature","geometry":{"type":"Polygon","coordinates":[[[-84.107706,41.457594],[-84.107707,41.457101],[-84.108766,41.457102],[-84.108764,41.457596],[-84.107706,41.457594]]]},"properties":{"p":"261900200100","o":"TEJKL, BRIAN, ETAL","a":"12-662 COUNTY ROAD U","d":"LIBERTY CENTER LOCAL SCHOOL DISTRICT","t":836.33,"l":"510: Res-Single Family","c":0}},{"type":"Feature","geometry":{"type":"Polygon","coordinates":[[[-84.047417,41.478519],[-84.048277,41.478497],[-84.048266,41.479515],[-84.047408,41.479536],[-84.047417,41.478519]]]},"properties":{"p":"261500300200","o":"BEAVERSON, JAMES","a":"V-477 COUNTY ROAD 9C LIBERTY CENTER","d":"LIBERTY CENTER LOCAL SCHOOL DISTRICT","t":1673.49,"l":"510: Res-Single Family","c":0}},{"type":"Feature","geometry":{"type":"Polygon","coordinates":[[[-84.051929,41.414404],[-84.052526,41.414301],[-84.052632,41.414833],[-84.052018,41.414865],[-84.051929,41.414404]]]},"properties":{"p":"260300140100","o":"DAMMAN, MATTHEW F.","a":"9-724 COUNTY ROAD 424 NAPOLEON","d":"LIBERTY CENTER LOCAL SCHOOL DISTRICT","t":1754.53,"l":"510: Res-Single Family","c":0}},{"type":"Feature","geometry":{"type":"Polygon","coordinates":[[[-84.110843,41.386229],[-84.11085,41.385782],[-84.11107,41.385782],[-84.111063,41.38623],[-84.110843,41.386229]]]},"properties":{"p":"240095111480","o":"DAVIS, THOMAS R.","a":"657 EUCLID AVENUE NAPOLEON","d":"NAPOLEON AREA CITY SCHOOL DISTRICT","t":639.34,"l":"510: Res-Single Family","c":0}},{"type":"Feature","geometry":{"type":"Polygon","coordinates":[[[-84.062472,41.34236],[-84.062465,41.341628],[-84.064151,41.341621],[-84.064145,41.342352],[-84.062472,41.34236]]]},"properties":{"p":"233300200000","o":"MAHLMAN, EVAN L.","a":"10-260 COUNTY ROAD M NAPOLEON","d":"PATRICK HENRY LOCAL SCHOOL DISTRICT","t":1640.33,"l":"510: Res-Single Family","c":0}},{"type":"Feature","geometry":{"type":"Polygon","coordinates":[[[-84.076814,41.346609],[-84.076955,41.346567],[-84.076944,41.348781],[-84.075843,41.348788],[-84.075825,41.347537],[-84.075943,41.347507],[-84.076023,41.347412],[-84.076169,41.347087],[-84.076334,41.346892],[-84.076552,41.346729],[-84.076814,41.346609]]]},"properties":{"p":"223300100000","o":"HUNER, MATTHEW A., ETUX","a":"M-430 COUNTY ROAD 11","d":"NAPOLEON AREA CITY SCHOOL DISTRICT","t":1757.33,"l":"510: Res-Single Family","c":0}},{"type":"Feature","geometry":{"type":"Polygon","coordinates":[[[-84.042199,41.370775],[-84.042189,41.370227],[-84.042593,41.370227],[-84.042603,41.370774],[-84.042199,41.370775]]]},"properties":{"p":"222700040000","o":"MILLER, CHARLES L.","a":"9-209 STATE ROUTE 6","d":"NAPOLEON AREA CITY SCHOOL DISTRICT","t":549.76,"l":"510: Res-Single Family","c":0}},{"type":"Feature","geometry":{"type":"Polygon","coordinates":[[[-84.036524,41.321989],[-84.037005,41.321983],[-84.037009,41.322164],[-84.036529,41.32217],[-84.036524,41.321989]]]},"properties":{"p":"210094210320","o":"BERGER, NICOLE E","a":"113 HENRY ST MALINTA","d":"PATRICK HENRY LOCAL SCHOOL DISTRICT","t":951.37,"l":"510: Res-Single Family","c":0}},{"type":"Feature","geometry":{"type":"Polygon","coordinates":[[[-84.037081,41.322685],[-84.037561,41.322678],[-84.037566,41.322859],[-84.037085,41.322866],[-84.037081,41.322685]]]},"properties":{"p":"210094210180","o":"BROWN II, DON E","a":"127 TURKEYFOOT ST MALINTA","d":"PATRICK HENRY LOCAL SCHOOL DISTRICT","t":1068.32,"l":"499: Com-Other","c":0}},{"type":"Feature","geometry":{"type":"Polygon","coordinates":[[[-84.037077,41.322504],[-84.037557,41.322497],[-84.037561,41.322678],[-84.037081,41.322685],[-84.037077,41.322504]]]},"properties":{"p":"210094210160","o":"BROWN II, DON E","a":"126 N TURKEYFOOT ST MALINTA","d":"PATRICK HENRY LOCAL SCHOOL DISTRICT","t":801.23,"l":"420: Com-Retail-Small","c":0}},{"type":"Feature","geometry":{"type":"Polygon","coordinates":[[[-83.99811,41.260086],[-83.998098,41.259422],[-83.999353,41.25941],[-83.999376,41.260071],[-83.99811,41.260086]]]},"properties":{"p":"183600160100","o":"ROSEBROCK, LOREN D.","a":"G-365 COUNTY ROAD 7","d":"PATRICK HENRY LOCAL SCHOOL DISTRICT","t":1023.35,"l":"510: Res-Single Family","c":0}},{"type":"Feature","geometry":{"type":"Polygon","coordinates":[[[-84.017306,41.257815],[-84.017261,41.254162],[-84.026901,41.254091],[-84.026958,41.257721],[-84.017306,41.257815]]]},"properties":{"p":"183500220000","o":"SCHORTGEN, SUSAN, ETAL","a":"8-302 COUNTY ROAD G","d":"PATRICK HENRY LOCAL SCHOOL DISTRICT","t":1997,"l":"199: Agr-CAUV-Other","c":0}},{"type":"Feature","geometry":{"type":"Polygon","coordinates":[[[-84.036815,41.272223],[-84.036753,41.268623],[-84.038193,41.268611],[-84.038193,41.268566],[-84.041539,41.26854],[-84.041667,41.272168],[-84.036815,41.272223]]]},"properties":{"p":"182700280000","o":"BIEDERSTEDT, FREDERICK W., ETAL TRUSTEE","a":"H-129 STATE ROUTE 109","d":"PATRICK HENRY LOCAL SCHOOL DISTRICT","t":2191.2,"l":"111: Agr-CAUV-Cash-Grain Farm","c":0}},{"type":"Feature","geometry":{"type":"Polygon","coordinates":[[[-84.046459,41.272114],[-84.046401,41.268501],[-84.051226,41.268466],[-84.051302,41.275744],[-84.046518,41.275778],[-84.046459,41.272114]]]},"properties":{"p":"182700240000","o":"BIEDERSTEDT, FREDERICK W., ETAL TRUSTEE","a":"COUNTY ROAD H","d":"PATRICK HENRY LOCAL SCHOOL DISTRICT","t":2072.29,"l":"199: Agr-CAUV-Other","c":0}},{"type":"Feature","geometry":{"type":"Polygon","coordinates":[[[-84.038749,41.283109],[-84.038746,41.282571],[-84.037542,41.282593],[-84.037553,41.283117],[-84.037,41.283121],[-84.036878,41.275844],[-84.039264,41.275827],[-84.039402,41.283105],[-84.038749,41.283109]]]},"properties":{"p":"182700020000","o":"BIEDERSTEDT, FREDERICK W., ETAL TRUSTEE","a":"STATE ROUTE 281","d":"PATRICK HENRY LOCAL SCHOOL DISTRICT","t":911.7,"l":"110: Agr-CAUV-Vacant Land","c":0}},{"type":"Feature","geometry":{"type":"Polygon","coordinates":[[[-84.032324,41.282735],[-84.036992,41.282658],[-84.037,41.283121],[-84.032332,41.283178],[-84.032324,41.282735]]]},"properties":{"p":"182600060100","o":"BIEDERSTEDT, FREDERICK W., ETAL TRUSTEE","a":"8-837 STATE ROUTE 281 MALINTA","d":"PATRICK HENRY LOCAL SCHOOL DISTRICT","t":763.06,"l":"510: Res-Single Family","c":0}},{"type":"Feature","geometry":{"type":"Polygon","coordinates":[[[-84.032316,41.282266],[-84.032207,41.275881],[-84.036878,41.275844],[-84.036985,41.282204],[-84.032316,41.282266]]]},"properties":{"p":"182600060000","o":"BIEDERSTEDT, FREDERICK W., ETAL TRUSTEE","a":"STATE ROUTE 109","d":"PATRICK HENRY LOCAL SCHOOL DISTRICT","t":1670.57,"l":"110: Agr-CAUV-Vacant Land","c":0}},{"type":"Feature","geometry":{"type":"Polygon","coordinates":[[[-84.071043,41.296892],[-84.071035,41.296541],[-84.072435,41.296534],[-84.07247,41.297505],[-84.071055,41.297509],[-84.071043,41.296892]]]},"properties":{"p":"182100100100","o":"HARTMAN, TAMI RENEE","a":"10-775 COUNTY ROAD J MALINTA","d":"PATRICK HENRY LOCAL SCHOOL DISTRICT","t":1902.63,"l":"510: Res-Single Family","c":0}},{"type":"Feature","geometry":{"type":"Polygon","coordinates":[[[-83.999818,41.340797],[-83.999814,41.34044],[-84.000505,41.34044],[-83.999818,41.340797]]]},"properties":{"p":"180190610240","o":"WORKMAN, STEPHANIE, ETAL","a":"L-917 COUNTY ROAD 7","d":"PATRICK HENRY LOCAL SCHOOL DISTRICT","t":1387.5,"l":"510: Res-Single Family","c":0}},{"type":"Feature","geometry":{"type":"Polygon","coordinates":[[[-84.032866,41.225073],[-84.032859,41.224567],[-84.033196,41.224564],[-84.033203,41.22507],[-84.032866,41.225073]]]},"properties":{"p":"171492110080","o":"ESTLE PROPERTIES, LLC","a":"310 EAST HUBBARD STREET HAMLER","d":"PATRICK HENRY LOCAL SCHOOL DISTRICT","t":827.75,"l":"510: Res-Single Family","c":0}},{"type":"Feature","geometry":{"type":"Polygon","coordinates":[[[-84.036193,41.225978],[-84.037301,41.225963],[-84.037303,41.226123],[-84.036195,41.226129],[-84.036193,41.225978]]]},"properties":{"p":"171000840000","o":"ALVARADO, ELIA","a":"550 FIRST STREET HAMLER","d":"PATRICK HENRY LOCAL SCHOOL DISTRICT","t":1364.88,"l":"510: Res-Single Family","c":0}},{"type":"Feature","geometry":{"type":"Polygon","coordinates":[[[-84.036792,41.231547],[-84.036792,41.231509],[-84.036923,41.231508],[-84.036927,41.231302],[-84.037245,41.231364],[-84.037251,41.231767],[-84.036788,41.231769],[-84.036792,41.231547]]]},"properties":{"p":"170095410100","o":"MUNCY, NINA","a":"135 BALTIMORE STREET HAMLER","d":"PATRICK HENRY LOCAL SCHOOL DISTRICT","t":698.84,"l":"510: Res-Single Family","c":0}},{"type":"Feature","geometry":{"type":"Polygon","coordinates":[[[-84.031177,41.232103],[-84.031233,41.231935],[-84.031687,41.232017],[-84.03163,41.232184],[-84.031177,41.232103]]]},"properties":{"p":"170094211820","o":"NEILING, KELLY S., ETVIR","a":"235 NORTH MAIN STREET HAMLER","d":"PATRICK HENRY LOCAL SCHOOL DISTRICT","t":951.59,"l":"510: Res-Single Family","c":0}},{"type":"Feature","geometry":{"type":"Polygon","coordinates":[[[-84.034647,41.229354],[-84.034762,41.229001],[-84.034996,41.229045],[-84.03488,41.229398],[-84.034647,41.229354]]]},"properties":{"p":"170094210720","o":"HERNANDEZ, CORINA","a":"220 BELTON ST HAMLER","d":"PATRICK HENRY LOCAL SCHOOL DISTRICT","t":1139.46,"l":"510: Res-Single Family","c":0}},{"type":"Feature","geometry":{"type":"Polygon","coordinates":[[[-84.033332,41.229959],[-84.033365,41.229857],[-84.033453,41.229874],[-84.033335,41.230231],[-84.033248,41.230215],[-84.033332,41.229959]]]},"properties":{"p":"170092130100","o":"ARRK PROPERTIES, LLC","a":"331 RANDOLPH ST HAMLER","d":"PATRICK HENRY LOCAL SCHOOL DISTRICT","t":1024.78,"l":"430: Com-Retaurant","c":0}},{"type":"Feature","geometry":{"type":"Polygon","coordinates":[[[-84.033808,41.228231],[-84.033808,41.227961],[-84.034256,41.227957],[-84.03414,41.228293],[-84.033808,41.228231]]]},"properties":{"p":"170092121760","o":"ENGLAND, DEBRA","a":"240 COWEN STREET HAMLER","d":"PATRICK HENRY LOCAL SCHOOL DISTRICT","t":888.12,"l":"599: Res-Other","c":0}},{"type":"Feature","geometry":{"type":"Polygon","coordinates":[[[-84.035526,41.226633],[-84.035523,41.226453],[-84.035999,41.226452],[-84.036001,41.226631],[-84.035526,41.226633]]]},"properties":{"p":"170092121000","o":"VANCE, NICHOLAS J., ETAL","a":"525 FIRST ST HAMLER","d":"PATRICK HENRY LOCAL SCHOOL DISTRICT","t":648.79,"l":"510: Res-Single Family","c":0}},{"type":"Feature","geometry":{"type":"Polygon","coordinates":[[[-84.076216,41.181145],[-84.07621,41.180585],[-84.07738,41.180579],[-84.077386,41.181139],[-84.076216,41.181145]]]},"properties":{"p":"153200020100","o":"HERNANDEZ RENTALS, LLC","a":"11-143 COUNTY ROAD B LEIPSIC","d":"PATRICK HENRY LOCAL SCHOOL DISTRICT","t":1660.22,"l":"510: Res-Single Family","c":0}},{"type":"Feature","geometry":{"type":"Polygon","coordinates":[[[-84.025797,41.235073],[-84.025793,41.234798],[-84.026557,41.234793],[-84.026561,41.235067],[-84.025797,41.235073]]]},"properties":{"p":"151100160000","o":"ESTLE PROPERTIES, LLC","a":"E-670 COUNTY ROAD 8B","d":"PATRICK HENRY LOCAL SCHOOL DISTRICT","t":795.62,"l":"560: Res-Mobile Home","c":0}},{"type":"Feature","geometry":{"type":"Polygon","coordinates":[[[-84.055019,41.245384],[-84.055015,41.245038],[-84.055532,41.245035],[-84.055535,41.245381],[-84.055019,41.245384]]]},"properties":{"p":"150300180000","o":"GUERRIERI, CLIFF J","a":"F-396 COUNTY ROAD 10","d":"PATRICK HENRY LOCAL SCHOOL DISTRICT","t":800.42,"l":"510: Res-Single Family","c":0}},{"type":"Feature","geometry":{"type":"Polygon","coordinates":[[[-84.022472,41.254124],[-84.022457,41.25341],[-84.023381,41.253399],[-84.023395,41.254117],[-84.022472,41.254124]]]},"properties":{"p":"150200020100","o":"SCHORTGEN, SUSAN","a":"8-281 COUNTY ROAD G","d":"PATRICK HENRY LOCAL SCHOOL DISTRICT","t":1121.7,"l":"510: Res-Single Family","c":0}},{"type":"Feature","geometry":{"type":"Polygon","coordinates":[[[-84.133296,41.24893],[-84.133355,41.248755],[-84.133936,41.248866],[-84.133878,41.249042],[-84.133296,41.24893]]]},"properties":{"p":"140200140000","o":"HERNANDEZ RENTALS, LLC","a":"204 SOUTH WILHELM STREET HOLGATE","d":"HOLGATE LOCAL SCHOOL DISTRICT","t":876.9,"l":"510: Res-Single Family","c":0}},{"type":"Feature","geometry":{"type":"Polygon","coordinates":[[[-84.134182,41.246595],[-84.134237,41.246342],[-84.135235,41.246331],[-84.135249,41.246344],[-84.134814,41.246687],[-84.134639,41.24659],[-84.134182,41.246595]]]},"properties":{"p":"140094226060","o":"MUNTZ, THOMAS D.","a":"415 SOUTH WILHELM STREET HOLGATE","d":"HOLGATE LOCAL SCHOOL DISTRICT","t":999.26,"l":"510: Res-Single Family","c":0}},{"type":"Feature","geometry":{"type":"Polygon","coordinates":[[[-84.129321,41.253221],[-84.129379,41.253046],[-84.129841,41.253136],[-84.129783,41.253312],[-84.129321,41.253221]]]},"properties":{"p":"140094225200","o":"AA HERNANDEZ RENTALS, LLC","a":"422 NORTH SQUIRE STREET HOLGATE","d":"HOLGATE LOCAL SCHOOL DISTRICT","t":689.03,"l":"510: Res-Single Family","c":0}},{"type":"Feature","geometry":{"type":"Polygon","coordinates":[[[-84.128016,41.253336],[-84.128101,41.253075],[-84.128559,41.253165],[-84.128475,41.253426],[-84.128016,41.253336]]]},"properties":{"p":"140094225000","o":"MAYNARD, THOMAS A.","a":"434 N KEYSER STREET HOLGATE","d":"HOLGATE LOCAL SCHOOL DISTRICT","t":677.13,"l":"510: Res-Single Family","c":0}},{"type":"Feature","geometry":{"type":"Polygon","coordinates":[[[-84.130011,41.247118],[-84.130068,41.246941],[-84.130543,41.247028],[-84.130486,41.247206],[-84.130011,41.247118]]]},"properties":{"p":"140094224000","o":"COWLE, MANDREA M., ETAL","a":"304 S KEYSER ST HOLGATE","d":"HOLGATE LOCAL SCHOOL DISTRICT","t":1052.99,"l":"510: Res-Single Family","c":0}},{"type":"Feature","geometry":{"type":"Polygon","coordinates":[[[-84.132086,41.247124],[-84.132091,41.247108],[-84.132322,41.247151],[-84.132202,41.247521],[-84.131971,41.247479],[-84.132086,41.247124]]]},"properties":{"p":"140094223860","o":"WILHELM, SUSAN J.","a":"203 FRAZIER STREET HOLGATE","d":"HOLGATE LOCAL SCHOOL DISTRICT","t":1631.6,"l":"510: Res-Single Family","c":0}},{"type":"Feature","geometry":{"type":"Polygon","coordinates":[[[-84.130064,41.249958],[-84.130179,41.249607],[-84.130256,41.249622],[-84.130141,41.249972],[-84.130064,41.249958]]]},"properties":{"p":"140094222000","o":"WESTRICK, CHRISTOPHER L.","a":"304 RAILWAY AVE HOLGATE","d":"HOLGATE LOCAL SCHOOL DISTRICT","t":484.59,"l":"429: Com-Other","c":0}},{"type":"Feature","geometry":{"type":"Polygon","coordinates":[[[-84.135778,41.252406],[-84.135777,41.252224],[-84.136261,41.252221],[-84.136263,41.252403],[-84.135778,41.252406]]]},"properties":{"p":"140093010840","o":"VERHOFF, DANIEL J.","a":"316 NORTH BRAYER STREET HOLGATE","d":"HOLGATE LOCAL SCHOOL DISTRICT","t":698.25,"l":"510: Res-Single Family","c":0}},{"type":"Feature","geometry":{"type":"Polygon","coordinates":[[[-84.135062,41.252003],[-84.135062,41.251822],[-84.135532,41.251818],[-84.135534,41.252],[-84.135062,41.252003]]]},"properties":{"p":"140093010600","o":"WESTHOVEN, JASON","a":"222 WILLIAMS ST HOLGATE","d":"HOLGATE LOCAL SCHOOL DISTRICT","t":707.09,"l":"510: Res-Single Family","c":0}},{"type":"Feature","geometry":{"type":"Polygon","coordinates":[[[-84.135062,41.251221],[-84.135063,41.251035],[-84.135523,41.25103],[-84.135525,41.251216],[-84.135062,41.251221]]]},"properties":{"p":"140093010540","o":"RAMOS, ISRAEL","a":"211 BRAYER ST HOLGATE","d":"HOLGATE LOCAL SCHOOL DISTRICT","t":621.48,"l":"510: Res-Single Family","c":0}},{"type":"Feature","geometry":{"type":"Polygon","coordinates":[[[-84.133805,41.25219],[-84.133805,41.251831],[-84.134294,41.251827],[-84.134288,41.252188],[-84.133805,41.25219]]]},"properties":{"p":"140093010120","o":"GORDON, ZACHARY","a":"128 WILLIAMS STREET HOLGATE","d":"HOLGATE LOCAL SCHOOL DISTRICT","t":400,"l":"510: Res-Single Family","c":0}},{"type":"Feature","geometry":{"type":"Polygon","coordinates":[[[-84.169526,41.204643],[-84.1697,41.2043],[-84.169923,41.204368],[-84.169748,41.204711],[-84.169526,41.204643]]]},"properties":{"p":"132200420000","o":"SHEETS, EMILY M., ETAL","a":"962 WALNUT ST NEW BAVARIA","d":"HOLGATE LOCAL SCHOOL DISTRICT","t":1358.12,"l":"510: Res-Single Family","c":0}},{"type":"Feature","geometry":{"type":"Polygon","coordinates":[[[-84.168009,41.203613],[-84.168186,41.203276],[-84.168404,41.203342],[-84.168232,41.20368],[-84.168009,41.203613]]]},"properties":{"p":"132200109999","o":"BENTON RIDGE TELEPHONE COMPANY","a":"911 WALNUT ST NEW BAVARIA","d":"HOLGATE LOCAL SCHOOL DISTRICT","t":982.21,"l":"447: Com-Office","c":0}},{"type":"Feature","geometry":{"type":"Polygon","coordinates":[[[-84.148942,41.195389],[-84.149214,41.194837],[-84.149712,41.195005],[-84.149517,41.195387],[-84.148942,41.195389]]]},"properties":{"p":"122600040000","o":"AELKER, JEFFREY A., ETUX","a":"14-898 COUNTY ROAD Y","d":"HOLGATE LOCAL SCHOOL DISTRICT","t":1788.42,"l":"510: Res-Single Family","c":0}},{"type":"Feature","geometry":{"type":"Polygon","coordinates":[[[-84.170945,41.231409],[-84.170936,41.230887],[-84.171845,41.230883],[-84.171854,41.231405],[-84.170945,41.231409]]]},"properties":{"p":"120900180100","o":"HEALY, PHILIP C.","a":"E-477 COUNTY ROAD 16","d":"HOLGATE LOCAL SCHOOL DISTRICT","t":894.25,"l":"510: Res-Single Family","c":0}},{"type":"Feature","geometry":{"type":"MultiPolygon","coordinates":[[[[-84.13259,41.242229],[-84.135483,41.23908],[-84.142193,41.239009],[-84.142214,41.242052],[-84.141809,41.242057],[-84.141808,41.241892],[-84.140917,41.241902],[-84.140931,41.242657],[-84.132599,41.242735],[-84.13259,41.242229]]],[[[-84.142172,41.242467],[-84.142217,41.242447],[-84.142218,41.242638],[-84.141706,41.242649],[-84.142172,41.242467]]]]},"properties":{"p":"120200500000","o":"COOPER, JOHN A., ETAL","a":"COUNTY ROAD F & COUNTY ROAD 16C","d":"HOLGATE LOCAL SCHOOL DISTRICT","t":1697.57,"l":"199: Agr-CAUV-Other","c":0}},{"type":"Feature","geometry":{"type":"Polygon","coordinates":[[[-84.200019,41.322308],[-84.200472,41.32199],[-84.200564,41.322072],[-84.200604,41.322249],[-84.2002,41.322484],[-84.200019,41.322308]]]},"properties":{"p":"110890630020","o":"T3 PROPERTIES, LLC","a":"104 HIGH ST FLORIDA","d":"NAPOLEON AREA CITY SCHOOL DISTRICT","t":882.49,"l":"520: Res-Two Family","c":0}},{"type":"Feature","geometry":{"type":"Polygon","coordinates":[[[-84.191496,41.260416],[-84.191382,41.260394],[-84.194309,41.260398],[-84.194321,41.260952],[-84.191496,41.260416]]]},"properties":{"p":"083200400000","o":"SANTOS, SAMUEL D","a":"17-172 COUNTY ROAD G1","d":"NAPOLEON AREA CITY SCHOOL DISTRICT","t":2671.8,"l":"510: Res-Single Family","c":0}},{"type":"Feature","geometry":{"type":"Polygon","coordinates":[[[-84.209119,41.289327],[-84.209084,41.287591],[-84.21035,41.287587],[-84.210366,41.289323],[-84.209119,41.289327]]]},"properties":{"p":"082000100100","o":"MEYER, JAMES CHARLES","a":"I-408 COUNTY ROAD 18 HOLGATE","d":"NAPOLEON AREA CITY SCHOOL DISTRICT","t":1567.5,"l":"510: Res-Single Family","c":0}},{"type":"Feature","geometry":{"type":"MultiPolygon","coordinates":[[[[-84.15297,41.307912],[-84.152914,41.304282],[-84.157668,41.304262],[-84.157692,41.305172],[-84.159771,41.305161],[-84.159789,41.306284],[-84.159262,41.306283],[-84.159261,41.306735],[-84.157794,41.306747],[-84.157745,41.306311],[-84.154338,41.306302],[-84.154363,41.307876],[-84.152977,41.308342],[-84.15297,41.307912]]],[[[-84.153026,41.31152],[-84.15302,41.311111],[-84.155003,41.311096],[-84.155009,41.311504],[-84.153026,41.31152]]],[[[-84.157826,41.311483],[-84.157807,41.309276],[-84.158565,41.30927],[-84.158581,41.310393],[-84.158041,41.310397],[-84.158056,41.311481],[-84.157826,41.311483]]]]},"properties":{"p":"081500040000","o":"PITTMAN, DEBRA","a":"15-263 COUNTY ROAD K NAPOLEON","d":"NAPOLEON AREA CITY SCHOOL DISTRICT","t":3128.08,"l":"111: Agr-CAUV-Cash-Grain Farm","c":0}},{"type":"Feature","geometry":{"type":"Polygon","coordinates":[[[-84.151279,41.300679],[-84.151262,41.300103],[-84.152776,41.300098],[-84.152795,41.300675],[-84.151279,41.300679]]]},"properties":{"p":"081400140200","o":"RETTIG, MICHAEL ALLEN","a":"J-230 COUNTY ROAD 15","d":"NAPOLEON AREA CITY SCHOOL DISTRICT","t":741.03,"l":"560: Res-Mobile Home","c":0}},{"type":"Feature","geometry":{"type":"Polygon","coordinates":[[[-84.214679,41.35084],[-84.214351,41.350078],[-84.215798,41.349703],[-84.216151,41.350463],[-84.214679,41.35084]]]},"properties":{"p":"073100500000","o":"STEFFEY, MATTHEW JAMES","a":"M-658 COUNTY ROAD 17D","d":"NAPOLEON AREA CITY SCHOOL DISTRICT","t":2904.34,"l":"510: Res-Single Family","c":0}},{"type":"Feature","geometry":{"type":"Polygon","coordinates":[[[-84.135679,41.414313],[-84.135695,41.413711],[-84.136761,41.413719],[-84.136755,41.414323],[-84.135679,41.414313]]]},"properties":{"p":"070200260100","o":"MOYER, SAIGE","a":"14-162 COUNTY ROAD R","d":"NAPOLEON AREA CITY SCHOOL DISTRICT","t":802.2,"l":"599: Res-Other","c":0}},{"type":"Feature","geometry":{"type":"Polygon","coordinates":[[[-84.145107,41.457681],[-84.145113,41.457073],[-84.145526,41.457075],[-84.145521,41.457681],[-84.145107,41.457681]]]},"properties":{"p":"032300280000","o":"HUNTER, RODNEY LEE","a":"14-580 COUNTY ROAD U","d":"NAPOLEON AREA CITY SCHOOL DISTRICT","t":791.95,"l":"510: Res-Single Family","c":0}},{"type":"Feature","geometry":{"type":"Polygon","coordinates":[[[-84.233047,41.43879],[-84.233024,41.435095],[-84.234381,41.435091],[-84.234658,41.434196],[-84.238146,41.434751],[-84.238172,41.442367],[-84.23307,41.442375],[-84.233047,41.43879]]]},"properties":{"p":"013600400000","o":"SHIBLER, LINDA, ETAL, TRUSTEES","a":"19-464 STATE ROUTE 6","d":"ARCHBOLD-AREA LOCAL SCHOOL DISTRICT","t":3294.78,"l":"111: Agr-CAUV-Cash-Grain Farm","c":0}},{"type":"Feature","geometry":{"type":"Polygon","coordinates":[[[-84.291192,41.434935],[-84.291185,41.433117],[-84.295993,41.433105],[-84.296002,41.434921],[-84.291192,41.434935]]]},"properties":{"p":"013300220000","o":"MEYER, H. JAY, ETAL TRUSTEES","a":"COUNTY ROAD 22","d":"ARCHBOLD-AREA LOCAL SCHOOL DISTRICT","t":404.17,"l":"110: Agr-CAUV-Vacant Land","c":0}},{"type":"Feature","geometry":{"type":"Polygon","coordinates":[[[-84.291203,41.436744],[-84.291192,41.434935],[-84.296002,41.434921],[-84.296011,41.436732],[-84.291203,41.436744]]]},"properties":{"p":"013300080100","o":"MEYER, H. JAY","a":"STATE ROUTE 6(REAR)","d":"ARCHBOLD-AREA LOCAL SCHOOL DISTRICT","t":477.74,"l":"110: Agr-CAUV-Vacant Land","c":0}},{"type":"Feature","geometry":{"type":"Polygon","coordinates":[[[-84.296033,41.441033],[-84.29602,41.438583],[-84.298787,41.43857],[-84.298782,41.437499],[-84.296015,41.437513],[-84.296002,41.434921],[-84.300836,41.434893],[-84.300862,41.442171],[-84.296038,41.442175],[-84.296033,41.441033]]]},"properties":{"p":"013300080000","o":"MEYER, H. JAY","a":"COUNTY ROAD 22A","d":"ARCHBOLD-AREA LOCAL SCHOOL DISTRICT","t":753.42,"l":"110: Agr-CAUV-Vacant Land","c":0}},{"type":"Feature","geometry":{"type":"Polygon","coordinates":[[[-84.324361,41.442142],[-84.324359,41.441421],[-84.324961,41.441421],[-84.324948,41.442141],[-84.324361,41.442142]]]},"properties":{"p":"013200080000","o":"MILLIMAN, MATTHEW L.","a":"23-989 STATE ROUTE 6","d":"ARCHBOLD-AREA LOCAL SCHOOL DISTRICT","t":1501.57,"l":"510: Res-Single Family","c":0}},{"type":"Feature","geometry":{"type":"Polygon","coordinates":[[[-84.119935,41.377939],[-84.119934,41.377758],[-84.1205,41.377755],[-84.120501,41.377936],[-84.119935,41.377939]]]},"properties":{"p":"412400100000","o":"SPURGEON, TIMOTHY J., ETUX","a":"1068 SOUTH PERRY NAPOLEON","d":"NAPOLEON AREA CITY SCHOOL DISTRICT","t":795.14,"l":"510: Res-Single Family","c":0}},{"type":"Feature","geometry":{"type":"Polygon","coordinates":[[[-84.135244,41.397043],[-84.135237,41.396665],[-84.13553,41.396664],[-84.135538,41.397042],[-84.135244,41.397043]]]},"properties":{"p":"411493310020","o":"ARMEY, JASON","a":"1130 LAGRANGE STREET NAPOLEON","d":"NAPOLEON AREA CITY SCHOOL DISTRICT","t":1298.29,"l":"510: Res-Single Family","c":0}},{"type":"Feature","geometry":{"type":"Polygon","coordinates":[[[-83.999652,41.33796],[-83.99965,41.337873],[-84.000401,41.337868],[-84.000404,41.338167],[-83.999656,41.338172],[-83.999652,41.33796]]]},"properties":{"p":"180100280000","o":"KESTNER, TOMI JO","a":"L-741 COUNTY ROAD 7","d":"PATRICK HENRY LOCAL SCHOOL DISTRICT","t":170.3,"l":"510: Res-Single Family","c":0}},{"type":"Feature","geometry":{"type":"MultiPolygon","coordinates":[[[[-83.944543,41.369041],[-83.944543,41.368858],[-83.94502,41.368853],[-83.94502,41.369037],[-83.944543,41.369041]]],[[[-83.944542,41.369299],[-83.944543,41.369086],[-83.944959,41.369082],[-83.944542,41.369299]]]]},"properties":{"p":"360093650180","o":"SNYDER JR., JAMES E.","a":"VINE ST MCCLURE","d":"NAPOLEON AREA CITY SCHOOL DISTRICT","t":115.2,"l":"500: Res-Vacant Land","c":0}},{"type":"Feature","geometry":{"type":"Polygon","coordinates":[[[-83.938899,41.375781],[-83.938899,41.375575],[-83.939263,41.375572],[-83.939264,41.375778],[-83.938899,41.375781]]]},"properties":{"p":"360093660820","o":"HEBAN, MICHAEL N., ETUC","a":"240 MASON STREET MCCLURE","d":"NAPOLEON AREA CITY SCHOOL DISTRICT","t":75.86,"l":"510: Res-Single Family","c":0}},{"type":"Feature","geometry":{"type":"Polygon","coordinates":[[[-84.126784,41.379375],[-84.126788,41.379135],[-84.127149,41.379139],[-84.127145,41.379378],[-84.126784,41.379375]]]},"properties":{"p":"410095151140","o":"RITTER, SHELLEY K.","a":"903 EAST GRACEWAY DRIVE NAPOLEON","d":"NAPOLEON AREA CITY SCHOOL DISTRICT","t":88.74,"l":"510: Res-Single Family","c":0}},{"type":"Feature","geometry":{"type":"Polygon","coordinates":[[[-84.127424,41.402469],[-84.127427,41.402426],[-84.127881,41.402446],[-84.127866,41.402697],[-84.127398,41.402581],[-84.127424,41.402469]]]},"properties":{"p":"410094550040","o":"WALLACE, CHRISTINA J.","a":"115 NORTHCREST CIRCLE NAPOLEON","d":"NAPOLEON AREA CITY SCHOOL DISTRICT","t":397.05,"l":"510: Res-Single Family","c":0}},{"type":"Feature","geometry":{"type":"Polygon","coordinates":[[[-84.123373,41.395476],[-84.123552,41.395407],[-84.123606,41.395488],[-84.123433,41.395564],[-84.123373,41.395476]]]},"properties":{"p":"410094215560","o":"TONJES, JERRY L.","a":"HOBSON ST (REAR) NAPOLEON","d":"NAPOLEON AREA CITY SCHOOL DISTRICT","t":57.39,"l":"599: Res-Other","c":0}},{"type":"Feature","geometry":{"type":"Polygon","coordinates":[[[-84.122007,41.391196],[-84.122139,41.391146],[-84.122276,41.39135],[-84.122004,41.391454],[-84.121891,41.391287],[-84.122032,41.391233],[-84.122007,41.391196]]]},"properties":{"p":"410094211880","o":"MARPEB, LLC","a":"205 E RIVERVEIW AVE NAPOLEON","d":"NAPOLEON AREA CITY SCHOOL DISTRICT","t":87.93,"l":"429: Com-Other","c":0}},{"type":"Feature","geometry":{"type":"Polygon","coordinates":[[[-84.137208,41.388802],[-84.137732,41.38879],[-84.137736,41.388926],[-84.137211,41.388938],[-84.137208,41.388802]]]},"properties":{"p":"410092130140","o":"HOWARD, MILES","a":"718 ERIE STREET NAPOLEON","d":"NAPOLEON AREA CITY SCHOOL DISTRICT","t":308.97,"l":"500: Res-Vacant Land","c":0}},{"type":"Feature","geometry":{"type":"Polygon","coordinates":[[[-84.121102,41.402789],[-84.121106,41.402427],[-84.121347,41.402429],[-84.121343,41.402792],[-84.121102,41.402789]]]},"properties":{"p":"410091510123","o":"WOODLAND CUSTOM HOME BUILDERS, LLC","a":"HUDSON STREET NAPOLEON","d":"NAPOLEON AREA CITY SCHOOL DISTRICT","t":362.74,"l":"500: Res-Vacant Land","c":0}},{"type":"Feature","geometry":{"type":"Polygon","coordinates":[[[-84.125029,41.384231],[-84.124977,41.383916],[-84.125289,41.38392],[-84.125285,41.384112],[-84.125029,41.384231]]]},"properties":{"p":"410090990020","o":"GERKEN, STEVEN T., ETAL","a":"317 WEST MAUMEE AVENUE NAPOLEON","d":"NAPOLEON AREA CITY SCHOOL DISTRICT","t":33.71,"l":"520: Res-Two Family","c":0}},{"type":"Feature","geometry":{"type":"Polygon","coordinates":[[[-84.121998,41.395643],[-84.12216,41.39558],[-84.122284,41.395764],[-84.122121,41.395826],[-84.121998,41.395643]]]},"properties":{"p":"410090640180","o":"DAMMAN, MATTHEW","a":"FILLMORE ST NAPOLEON","d":"NAPOLEON AREA CITY SCHOOL DISTRICT","t":99.65,"l":"400: Com-Vacant Land","c":0}},{"type":"Feature","geometry":{"type":"Polygon","coordinates":[[[-84.120856,41.394402],[-84.120987,41.394352],[-84.121068,41.394472],[-84.120806,41.394571],[-84.120725,41.394451],[-84.120856,41.394402]]]},"properties":{"p":"410090630060","o":"KESSLER, CLINTON E., TRUSTEE","a":"MAPLE ST - REAR NAPOLEON","d":"NAPOLEON AREA CITY SCHOOL DISTRICT","t":172.58,"l":"500: Res-Vacant Land","c":0}},{"type":"Feature","geometry":{"type":"Polygon","coordinates":[[[-84.115431,41.386001],[-84.115881,41.385657],[-84.116048,41.38578],[-84.115594,41.386133],[-84.115431,41.386001]]]},"properties":{"p":"410090080080","o":"GIBSON, JEFFREY M., ETUX","a":"APPIAN AVENUE NAPOLEON","d":"NAPOLEON AREA CITY SCHOOL DISTRICT","t":160.62,"l":"500: Res-Vacant Land","c":0}},{"type":"Feature","geometry":{"type":"Polygon","coordinates":[[[-83.889757,41.210699],[-83.889752,41.210331],[-83.891114,41.210324],[-83.891122,41.210873],[-83.88976,41.21088],[-83.889757,41.210699]]]},"properties":{"p":"402491810062","o":"JOHNSON, STEFANIE M., TRUSTEE","a":"620 GLENDALE AVE","d":"PATRICK HENRY LOCAL SCHOOL DISTRICT","t":296.59,"l":"510: Res-Single Family","c":0}},{"type":"Feature","geometry":{"type":"Polygon","coordinates":[[[-83.894192,41.207688],[-83.894555,41.207212],[-83.894807,41.207322],[-83.894447,41.207798],[-83.894192,41.207688]]]},"properties":{"p":"400095440700","o":"RUTTER, JASON LEE, ETUX","a":"401 E ELM STREET DESHLER","d":"PATRICK HENRY LOCAL SCHOOL DISTRICT","t":31.87,"l":"510: Res-Single Family","c":0}},{"type":"Feature","geometry":{"type":"Polygon","coordinates":[[[-83.892449,41.206083],[-83.892721,41.205726],[-83.893036,41.205863],[-83.892763,41.20622],[-83.892449,41.206083]]]},"properties":{"p":"400095440360","o":"VILLEGAS, ANGELINA","a":"524 EAST ELM STREET DESHLER","d":"PATRICK HENRY LOCAL SCHOOL DISTRICT","t":217.75,"l":"599: Res-Other","c":0}},{"type":"Feature","geometry":{"type":"Polygon","coordinates":[[[-83.89253,41.20572],[-83.89259,41.205668],[-83.892721,41.205726],[-83.892449,41.206083],[-83.892317,41.206025],[-83.892384,41.205849],[-83.89253,41.20572]]]},"properties":{"p":"400095440321","o":"VILLEGAS, ANGELINA","a":"EAST ELM STREET DESHLER","d":"PATRICK HENRY LOCAL SCHOOL DISTRICT","t":41.21,"l":"500: Res-Vacant Land","c":0}},{"type":"Feature","geometry":{"type":"Polygon","coordinates":[[[-83.896343,41.202182],[-83.896335,41.201633],[-83.896517,41.201631],[-83.896525,41.20218],[-83.896343,41.202182]]]},"properties":{"p":"400095411180","o":"MCGOWEN, QUINN T TRUSTEES","a":"323 BARTLOW STREET DESHLER","d":"PATRICK HENRY LOCAL SCHOOL DISTRICT","t":68.68,"l":"599: Res-Other","c":0}},{"type":"Feature","geometry":{"type":"Polygon","coordinates":[[[-83.897294,41.201033],[-83.897292,41.200896],[-83.898019,41.200891],[-83.898021,41.201029],[-83.897294,41.201033]]]},"properties":{"p":"400095411000","o":"KISER, LISA","a":"BEECH ST DESHLER","d":"PATRICK HENRY LOCAL SCHOOL DISTRICT","t":68.86,"l":"500: Res-Vacant Land","c":0}},{"type":"Feature","geometry":{"type":"Polygon","coordinates":[[[-83.897298,41.201307],[-83.897294,41.201033],[-83.898021,41.201029],[-83.898025,41.201303],[-83.897298,41.201307]]]},"properties":{"p":"400095410980","o":"KISER, LISA","a":"BEECH ST DESHLER","d":"PATRICK HENRY LOCAL SCHOOL DISTRICT","t":144.4,"l":"599: Res-Other","c":0}},{"type":"Feature","geometry":{"type":"MultiPolygon","coordinates":[[[[-83.912699,41.205754],[-83.913504,41.204671],[-83.916519,41.205962],[-83.914936,41.208029],[-83.911392,41.207512],[-83.912699,41.205754]]],[[[-83.909709,41.204363],[-83.91047,41.203375],[-83.913295,41.204582],[-83.91249,41.205664],[-83.909649,41.204442],[-83.909709,41.204363]]]]},"properties":{"p":"400094221280","o":"WENSINK, ZACHARY J., ETUX","a":"WALNUT STREET DESHLER","d":"PATRICK HENRY LOCAL SCHOOL DISTRICT","t":80.04,"l":"199: Agr-CAUV-Other","c":0}},{"type":"Feature","geometry":{"type":"Polygon","coordinates":[[[-83.910424,41.210818],[-83.910681,41.210482],[-83.910837,41.21055],[-83.910583,41.210885],[-83.910424,41.210818]]]},"properties":{"p":"400094220900","o":"BALLOW, PHILIP A., ETAL","a":"637 W MAIN ST DESHLER","d":"PATRICK HENRY LOCAL SCHOOL DISTRICT","t":25.43,"l":"510: Res-Single Family","c":0}},{"type":"Feature","geometry":{"type":"Polygon","coordinates":[[[-83.912352,41.211218],[-83.911536,41.211213],[-83.912115,41.210437],[-83.912745,41.210704],[-83.912352,41.211218]]]},"properties":{"p":"400094220681","o":"PATRIOT BOWL, LLC","a":"739 WEST MAIN STREET DESHLER","d":"PATRICK HENRY LOCAL SCHOOL DISTRICT","t":108.95,"l":"464: Com-Bowling Alley","c":0}},{"type":"Feature","geometry":{"type":"Polygon","coordinates":[[[-83.909256,41.210859],[-83.909454,41.210599],[-83.909796,41.210754],[-83.909419,41.211249],[-83.909073,41.211099],[-83.909256,41.210859]]]},"properties":{"p":"400094220560","o":"BAKER, MARIANNE R.","a":"616 W MAIN ST DESHLER","d":"PATRICK HENRY LOCAL SCHOOL DISTRICT","t":227.89,"l":"510: Res-Single Family","c":0}},{"type":"Feature","geometry":{"type":"Polygon","coordinates":[[[-83.90423,41.211855],[-83.904483,41.211527],[-83.9048,41.211664],[-83.904548,41.211993],[-83.90423,41.211855]]]},"properties":{"p":"400094217280","o":"GONZALEZ, GUADALUPE RENDON, ETAL","a":"408 WEST ELMS STREET DESHLER","d":"PATRICK HENRY LOCAL SCHOOL DISTRICT","t":29.29,"l":"510: Res-Single Family","c":0}},{"type":"Feature","geometry":{"type":"Polygon","coordinates":[[[-83.90646,41.208624],[-83.906551,41.208506],[-83.906867,41.208643],[-83.906776,41.208762],[-83.90646,41.208624]]]},"properties":{"p":"400094215640","o":"DREWES, HEIDE","a":"120 SOUTH VINE STREET DESHLER","d":"PATRICK HENRY LOCAL SCHOOL DISTRICT","t":88.83,"l":"510: Res-Single Family","c":0}},{"type":"Feature","geometry":{"type":"Polygon","coordinates":[[[-83.905051,41.20582],[-83.90516,41.205677],[-83.905397,41.205774],[-83.905034,41.206246],[-83.904802,41.206145],[-83.905051,41.20582]]]},"properties":{"p":"400094210360","o":"RUTTER, LEE, ETAL","a":"220 WEST WALNUT DESHLER","d":"PATRICK HENRY LOCAL SCHOOL DISTRICT","t":38.53,"l":"510: Res-Single Family","c":0}},{"type":"Feature","geometry":{"type":"Polygon","coordinates":[[[-83.958423,41.199537],[-83.958398,41.198571],[-83.959302,41.198564],[-83.959327,41.19953],[-83.958423,41.199537]]]},"properties":{"p":"392000160000","o":"COURTNEY, CRAIG A.","a":"C-183 COUNTY ROAD 5","d":"PATRICK HENRY LOCAL SCHOOL DISTRICT","t":330.7,"l":"510: Res-Single Family","c":0}},{"type":"Feature","geometry":{"type":"Polygon","coordinates":[[[-83.967124,41.225962],[-83.967132,41.225276],[-83.968041,41.225272],[-83.968033,41.225958],[-83.967124,41.225962]]]},"properties":{"p":"390800100000","o":"GIBSON, MICHAEL J., ETUX","a":"5-464 STATE ROUTE 18 DESHLER","d":"PATRICK HENRY LOCAL SCHOOL DISTRICT","t":74.88,"l":"510: Res-Single Family","c":0}},{"type":"Feature","geometry":{"type":"Polygon","coordinates":[[[-83.97831,41.265245],[-83.978292,41.264181],[-83.979253,41.264175],[-83.97927,41.26524],[-83.97831,41.265245]]]},"properties":{"p":"373200060000","o":"DREWES, LARRY E. II","a":"G-702 COUNTY ROAD 6","d":"PATRICK HENRY LOCAL SCHOOL DISTRICT","t":40.89,"l":"510: Res-Single Family","c":0}},{"type":"Feature","geometry":{"type":"Polygon","coordinates":[[[-83.995125,41.34184],[-83.995117,41.341243],[-83.995376,41.34124],[-83.995383,41.341837],[-83.995125,41.34184]]]},"properties":{"p":"370690310100","o":"JOY, HERBERT D., ETUX","a":"COUNTY ROAD M","d":"PATRICK HENRY LOCAL SCHOOL DISTRICT","t":27.35,"l":"500: Res-Vacant Land","c":0}},{"type":"Feature","geometry":{"type":"Polygon","coordinates":[[[-83.945919,41.371397],[-83.945916,41.370732],[-83.946255,41.37073],[-83.946261,41.371396],[-83.945919,41.371397]]]},"properties":{"p":"362800340000","o":"KORAK, CHRISTINA M","a":"455 NORTH STREET MCCLURE","d":"NAPOLEON AREA CITY SCHOOL DISTRICT","t":43.34,"l":"510: Res-Single Family","c":0}},{"type":"Feature","geometry":{"type":"Polygon","coordinates":[[[-83.939376,41.365114],[-83.939379,41.364961],[-83.939926,41.364959],[-83.939924,41.365113],[-83.939376,41.365114]]]},"properties":{"p":"362700420000","o":"PARSONS, RONNIE C. ETUX","a":"755 SOUTH HALEY STREET MCCLURE","d":"NAPOLEON AREA CITY SCHOOL DISTRICT","t":26.92,"l":"599: Res-Other","c":0}},{"type":"Feature","geometry":{"type":"Polygon","coordinates":[[[-83.9408,41.369014],[-83.940799,41.368864],[-83.94128,41.368861],[-83.941281,41.369011],[-83.9408,41.369014]]]},"properties":{"p":"360094510260","o":"MORRISON, ELIZABETH","a":"345 SOUTH EAST STREET MCCLURE","d":"NAPOLEON AREA CITY SCHOOL DISTRICT","t":58.31,"l":"510: Res-Single Family","c":0}},{"type":"Feature","geometry":{"type":"Polygon","coordinates":[[[-83.938896,41.374274],[-83.938896,41.373864],[-83.93926,41.373861],[-83.939261,41.374271],[-83.938896,41.374274]]]},"properties":{"p":"360093661620","o":"RHOADS, KALEI J.","a":"275 CARL STREET MCCLURE","d":"NAPOLEON AREA CITY SCHOOL DISTRICT","t":32.07,"l":"560: Res-Mobile Home","c":0}},{"type":"Feature","geometry":{"type":"Polygon","coordinates":[[[-83.93795,41.37491],[-83.937949,41.3745],[-83.938131,41.374499],[-83.938132,41.374909],[-83.93795,41.37491]]]},"properties":{"p":"360093661240","o":"POWERS, CHRISTIAN P, ETUX","a":"320 CARL ST. MCCLURE","d":"NAPOLEON AREA CITY SCHOOL DISTRICT","t":160.55,"l":"599: Res-Other","c":0}},{"type":"Feature","geometry":{"type":"Polygon","coordinates":[[[-83.93981,41.375348],[-83.939809,41.374939],[-83.939991,41.374938],[-83.939992,41.375347],[-83.93981,41.375348]]]},"properties":{"p":"360093661040","o":"BOWEN, JUNE A","a":"205 MASON STREET MCCLURE","d":"NAPOLEON AREA CITY SCHOOL DISTRICT","t":206.2,"l":"599: Res-Other","c":0}},{"type":"Feature","geometry":{"type":"Polygon","coordinates":[[[-83.940577,41.377051],[-83.940576,41.376642],[-83.94094,41.376639],[-83.940941,41.377047],[-83.940577,41.377051]]]},"properties":{"p":"360093660460","o":"SNYDER JR., JAMES E.","a":"130 & 140 FIFTH STREET MCCLURE","d":"NAPOLEON AREA CITY SCHOOL DISTRICT","t":153.68,"l":"599: Res-Other","c":0}},{"type":"Feature","geometry":{"type":"Polygon","coordinates":[[[-83.944005,41.369634],[-83.944512,41.36937],[-83.944512,41.369537],[-83.944005,41.369801],[-83.944005,41.369634]]]},"properties":{"p":"360093650320","o":"VANLERBERG, PAUL A.","a":"310 BEAVER STREET MCCLURE","d":"NAPOLEON AREA CITY SCHOOL DISTRICT","t":169.91,"l":"599: Res-Other","c":0}},{"type":"Feature","geometry":{"type":"Polygon","coordinates":[[[-83.944543,41.368858],[-83.944543,41.368675],[-83.94502,41.368669],[-83.94502,41.368853],[-83.944543,41.368858]]]},"properties":{"p":"360093650160","o":"SNYDER JR., JAMES E.","a":"340 HENRY ST MCCLURE","d":"NAPOLEON AREA CITY SCHOOL DISTRICT","t":87.71,"l":"500: Res-Vacant Land","c":0}},{"type":"Feature","geometry":{"type":"Polygon","coordinates":[[[-83.9433,41.36928],[-83.943301,41.369098],[-83.943544,41.369096],[-83.943544,41.369278],[-83.9433,41.36928]]]},"properties":{"p":"360093640500","o":"GRAY, PAUL E","a":"SUMMIT ST MCCLURE","d":"NAPOLEON AREA CITY SCHOOL DISTRICT","t":135.23,"l":"500: Res-Vacant Land","c":0}},{"type":"Feature","geometry":{"type":"Polygon","coordinates":[[[-83.897881,41.41345],[-83.897881,41.4128],[-83.899012,41.412981],[-83.899012,41.413647],[-83.897881,41.41345]]]},"properties":{"p":"351200320200","o":"GREENE, THOMAS C., ETAL","a":"STATE ROUTE 65","d":"OTSEGO LOCAL SCHOOL DISTRICT","t":41.85,"l":"500: Res-Vacant Land","c":0}},{"type":"Feature","geometry":{"type":"Polygon","coordinates":[[[-83.92293,41.415297],[-83.923038,41.415295],[-83.923038,41.415642],[-83.92293,41.415653],[-83.92293,41.415297]]]},"properties":{"p":"350093310180","o":"GEARHART, DEBORAH, ETAL","a":"STATE ROUTE 65 (REAR)","d":"OTSEGO LOCAL SCHOOL DISTRICT","t":63.94,"l":"500: Res-Vacant Land","c":0}},{"type":"Feature","geometry":{"type":"Polygon","coordinates":[[[-83.922822,41.415299],[-83.92293,41.415297],[-83.92293,41.415653],[-83.922823,41.415661],[-83.922822,41.415299]]]},"properties":{"p":"350093310160","o":"GEARHART, DEBORAH, ETAL","a":"STATE ROUTE 65 (REAR)","d":"OTSEGO LOCAL SCHOOL DISTRICT","t":63.94,"l":"500: Res-Vacant Land","c":0}},{"type":"Feature","geometry":{"type":"Polygon","coordinates":[[[-83.931764,41.360079],[-83.931764,41.359993],[-83.933581,41.359985],[-83.933704,41.360327],[-83.933973,41.360549],[-83.932388,41.360556],[-83.932386,41.360076],[-83.931764,41.360079]]]},"properties":{"p":"332700200101","o":"DAWSON, ISHMAEL RAY, ETAL TRUSTEE","a":"N-179 1/2 COUNTY ROAD 3A","d":"NAPOLEON AREA CITY SCHOOL DISTRICT","t":385.21,"l":"599: Res-Other","c":0}},{"type":"Feature","geometry":{"type":"Polygon","coordinates":[[[-83.882931,41.457356],[-83.887831,41.457277],[-83.887832,41.457868],[-83.882928,41.457957],[-83.882931,41.457356]]]},"properties":{"p":"322500580200","o":"KOZLOWSKI, MICHAEL","a":"T-937 COUNTY ROAD 1","d":"OTSEGO LOCAL SCHOOL DISTRICT","t":67.46,"l":"510: Res-Single Family","c":0}},{"type":"Feature","geometry":{"type":"Polygon","coordinates":[[[-83.954657,41.432556],[-83.954749,41.431936],[-83.955725,41.43193],[-83.955841,41.432542],[-83.954657,41.432556]]]},"properties":{"p":"303300120300","o":"SHANKS, CALEB","a":"COUNTY ROAD 4A","d":"LIBERTY CENTER LOCAL SCHOOL DISTRICT","t":38.62,"l":"110: Agr-CAUV-Vacant Land","c":0}},{"type":"Feature","geometry":{"type":"Polygon","coordinates":[[[-83.952736,41.463547],[-83.952993,41.463455],[-83.95325,41.463859],[-83.952993,41.463952],[-83.952736,41.463547]]]},"properties":{"p":"302190610740","o":"BROWN, LINDSAY L., ETVIR","a":"4-653 SOUTH STREET","d":"LIBERTY CENTER LOCAL SCHOOL DISTRICT","t":53.22,"l":"500: Res-Vacant Land","c":0}},{"type":"Feature","geometry":{"type":"Polygon","coordinates":[[[-83.952341,41.463689],[-83.952736,41.463547],[-83.952993,41.463952],[-83.952598,41.464094],[-83.952341,41.463689]]]},"properties":{"p":"302190610720","o":"BROWN, LINDSAY L., ETVIR","a":"4-639 COUNTY ROAD U4","d":"LIBERTY CENTER LOCAL SCHOOL DISTRICT","t":160.75,"l":"599: Res-Other","c":0}},{"type":"Feature","geometry":{"type":"Polygon","coordinates":[[[-83.944502,41.467128],[-83.944503,41.465398],[-83.945236,41.465396],[-83.945235,41.466864],[-83.944502,41.467128]]]},"properties":{"p":"302100480200","o":"BILLIAN SR, JOSEPH C., ETUX","a":"4-188 COUNTY ROAD U4","d":"LIBERTY CENTER LOCAL SCHOOL DISTRICT","t":101.76,"l":"560: Res-Mobile Home","c":0}},{"type":"Feature","geometry":{"type":"Polygon","coordinates":[[[-83.941277,41.47385],[-83.941276,41.47352],[-83.945592,41.473495],[-83.945589,41.472794],[-83.949901,41.472762],[-83.949904,41.473462],[-83.950973,41.473454],[-83.950976,41.474467],[-83.941433,41.474535],[-83.941277,41.47385]]]},"properties":{"p":"301696010040","o":"OSSENDRYVER, CHARLES J.","a":"COUNTY ROAD 4A & COUNTY ROAD V","d":"LIBERTY CENTER LOCAL SCHOOL DISTRICT","t":48.73,"l":"110: Agr-CAUV-Vacant Land","c":0}},{"type":"Feature","geometry":{"type":"Polygon","coordinates":[[[-84.009223,41.443706],[-84.009223,41.44352],[-84.009362,41.44352],[-84.009361,41.443706],[-84.009223,41.443706]]]},"properties":{"p":"290096620100","o":"GARBER, RONALD L.","a":"DAMASCUS ST LIBERTY CENTER","d":"LIBERTY CENTER LOCAL SCHOOL DISTRICT","t":90.26,"l":"500: Res-Vacant Land","c":0}},{"type":"Feature","geometry":{"type":"Polygon","coordinates":[[[-84.005022,41.447171],[-84.005011,41.446787],[-84.005289,41.446788],[-84.005299,41.447172],[-84.005022,41.447171]]]},"properties":{"p":"290090610080","o":"HAWKINS, RICHARD A., ETUX","a":"205 EAST CHERRY STREET LIBERTY CENTER","d":"LIBERTY CENTER LOCAL SCHOOL DISTRICT","t":105.65,"l":"510: Res-Single Family","c":0}},{"type":"Feature","geometry":{"type":"Polygon","coordinates":[[[-84.011385,41.451795],[-84.012003,41.452691],[-84.010279,41.452695],[-84.01028,41.451797],[-84.011385,41.451795]]]},"properties":{"p":"262500280000","o":"WILKINS, CHRISTOPHER, ETUX","a":"T-637 STATE ROUTE 109","d":"LIBERTY CENTER LOCAL SCHOOL DISTRICT","t":159.04,"l":"599: Res-Other","c":0}},{"type":"Feature","geometry":{"type":"Polygon","coordinates":[[[-84.00874,41.470921],[-84.008741,41.470753],[-84.009541,41.470753],[-84.00954,41.471028],[-84.00874,41.471027],[-84.00874,41.470921]]]},"properties":{"p":"262401100000","o":"SMITH, JOEY R., JR., ETUX","a":"U-911 STATE ROUTE 109","d":"LIBERTY CENTER LOCAL SCHOOL DISTRICT","t":388.11,"l":"510: Res-Single Family","c":0}},{"type":"Feature","geometry":{"type":"Polygon","coordinates":[[[-84.005731,41.469478],[-84.005732,41.469019],[-84.008746,41.469009],[-84.008744,41.469468],[-84.005731,41.469478]]]},"properties":{"p":"262400820100","o":"FROST, ROSA","a":"U-790 STATE ROUTE 109","d":"LIBERTY CENTER LOCAL SCHOOL DISTRICT","t":125.79,"l":"599: Res-Other","c":0}},{"type":"Feature","geometry":{"type":"Polygon","coordinates":[[[-84.011415,41.472183],[-84.011417,41.471586],[-84.011782,41.471587],[-84.01178,41.472184],[-84.011415,41.472183]]]},"properties":{"p":"262400280000","o":"ALLEN, DANIEL L.","a":"7-645 COUNTY ROAD V","d":"LIBERTY CENTER LOCAL SCHOOL DISTRICT","t":296.48,"l":"560: Res-Mobile Home","c":0}},{"type":"Feature","geometry":{"type":"Polygon","coordinates":[[[-84.002239,41.471728],[-84.00098,41.471733],[-84.000978,41.47221],[-83.998992,41.472218],[-83.999019,41.468611],[-84.005734,41.468573],[-84.005724,41.472189],[-84.002237,41.472204],[-84.002239,41.471728]]]},"properties":{"p":"262400020000","o":"MILLER, SUSAN COUSINO","a":"COUNTY ROAD V & COUNTY ROAD 7","d":"LIBERTY CENTER LOCAL SCHOOL DISTRICT","t":34.94,"l":"110: Agr-CAUV-Vacant Land","c":0}},{"type":"Feature","geometry":{"type":"Polygon","coordinates":[[[-84.085021,41.471575],[-84.085025,41.470885],[-84.085337,41.470884],[-84.085336,41.471036],[-84.086051,41.471037],[-84.086049,41.471572],[-84.085021,41.471575]]]},"properties":{"p":"262000020000","o":"HONAKER, VIRGINIA L.","a":"11-467 COUNTY ROAD V LIBERTY CENTER","d":"LIBERTY CENTER LOCAL SCHOOL DISTRICT","t":46.84,"l":"510: Res-Single Family","c":0}},{"type":"Feature","geometry":{"type":"Polygon","coordinates":[[[-83.998989,41.474659],[-83.998992,41.472218],[-84.005067,41.472192],[-84.005065,41.47405],[-84.00386,41.474062],[-84.003855,41.479523],[-83.998982,41.479558],[-83.998989,41.474659]]]},"properties":{"p":"261300260000","o":"MILLER, SUSAN COUSINO","a":"COUNTY ROAD & COUNTY ROAD 7","d":"LIBERTY CENTER LOCAL SCHOOL DISTRICT","t":47.55,"l":"110: Agr-CAUV-Vacant Land","c":0}},{"type":"Feature","geometry":{"type":"Polygon","coordinates":[[[-83.99942,41.402141],[-83.999412,41.401635],[-84.000042,41.401957],[-83.999799,41.40231],[-83.99942,41.402141]]]},"properties":{"p":"251200020200","o":"BABCOCK, BRET R., TRUSTEE","a":"Q-105 COUNTY ROAD 7 NAPOLEON","d":"LIBERTY CENTER LOCAL SCHOOL DISTRICT","t":93.97,"l":"111: Agr-CAUV-Cash-Grain Farm","c":0}},{"type":"Feature","geometry":{"type":"Polygon","coordinates":[[[-84.007504,41.385392],[-84.007499,41.384297],[-84.008007,41.384304],[-84.008014,41.385388],[-84.007504,41.385392]]]},"properties":{"p":"222400060100","o":"MASTERS, JENNA","a":"7-425 COUNTY ROAD P NAPOLEON","d":"NAPOLEON AREA CITY SCHOOL DISTRICT","t":60.59,"l":"510: Res-Single Family","c":0}},{"type":"Feature","geometry":{"type":"Polygon","coordinates":[[[-84.035938,41.326755],[-84.035934,41.326579],[-84.036414,41.326575],[-84.036419,41.326751],[-84.035938,41.326755]]]},"properties":{"p":"210091510260","o":"WYLIE, LISA M.","a":"413 HENRY ST MALINTA","d":"PATRICK HENRY LOCAL SCHOOL DISTRICT","t":37.35,"l":"510: Res-Single Family","c":0}},{"type":"Feature","geometry":{"type":"Polygon","coordinates":[[[-84.032316,41.282266],[-84.036985,41.282204],[-84.036992,41.282658],[-84.032324,41.282735],[-84.032316,41.282266]]]},"properties":{"p":"182600060200","o":"BIEDERSTEDT, FREDERICK W., ETAL TRUSTEE","a":"STATE ROUTE 281","d":"PATRICK HENRY LOCAL SCHOOL DISTRICT","t":122.79,"l":"110: Agr-CAUV-Vacant Land","c":0}},{"type":"Feature","geometry":{"type":"Polygon","coordinates":[[[-84.062522,41.290257],[-84.062363,41.284233],[-84.065964,41.284222],[-84.06609,41.290246],[-84.062522,41.290257]]]},"properties":{"p":"182100280000","o":"DAS SONNENBERG BAUERNHOF, LLC","a":"COUNTY ROAD J (REAR)","d":"PATRICK HENRY LOCAL SCHOOL DISTRICT","t":57.9,"l":"110: Agr-CAUV-Vacant Land","c":0}},{"type":"Feature","geometry":{"type":"Polygon","coordinates":[[[-84.037836,41.330416],[-84.037826,41.329842],[-84.038926,41.329835],[-84.038943,41.330409],[-84.037836,41.330416]]]},"properties":{"p":"180300300200","o":"ALMANZA, ADELENA","a":"STATE ROUTE 109","d":"PATRICK HENRY LOCAL SCHOOL DISTRICT","t":143.4,"l":"500: Res-Vacant Land","c":0}},{"type":"Feature","geometry":{"type":"Polygon","coordinates":[[[-84.028853,41.231687],[-84.029117,41.230865],[-84.029527,41.230945],[-84.029428,41.231505],[-84.029413,41.231787],[-84.028853,41.231687]]]},"properties":{"p":"171100320100","o":"RESERVED STORAGE, LLC","a":"EDGERTON STREET HAMLER","d":"PATRICK HENRY LOCAL SCHOOL DISTRICT","t":160.58,"l":"453: Com-Car Wash","c":0}},{"type":"Feature","geometry":{"type":"Polygon","coordinates":[[[-84.03619,41.225794],[-84.037299,41.225785],[-84.037301,41.225963],[-84.036193,41.225978],[-84.03619,41.225794]]]},"properties":{"p":"171000100000","o":"SHIVELY, DUSTIN, ETUX","a":"610 ST RT 109 HAMLER","d":"PATRICK HENRY LOCAL SCHOOL DISTRICT","t":213.35,"l":"510: Res-Single Family","c":0}},{"type":"Feature","geometry":{"type":"Polygon","coordinates":[[[-84.03241,41.232104],[-84.032574,41.231982],[-84.032774,41.232144],[-84.032627,41.232263],[-84.032604,41.232298],[-84.03238,41.232126],[-84.03241,41.232104]]]},"properties":{"p":"170094212201","o":"SELLARS, DONNIE E.","a":"220 MARION STREET HAMLER","d":"PATRICK HENRY LOCAL SCHOOL DISTRICT","t":56.65,"l":"599: Res-Other","c":0}},{"type":"Feature","geometry":{"type":"Polygon","coordinates":[[[-84.031174,41.228291],[-84.03129,41.227945],[-84.03175,41.228032],[-84.031636,41.228378],[-84.031174,41.228291]]]},"properties":{"p":"170094210340","o":"SCHORTGEN, JEFFREY F.","a":"245 HILL STREET HAMLER","d":"PATRICK HENRY LOCAL SCHOOL DISTRICT","t":190.72,"l":"599: Res-Other","c":0}},{"type":"Feature","geometry":{"type":"Polygon","coordinates":[[[-84.03188,41.225898],[-84.031878,41.22555],[-84.032353,41.225548],[-84.032356,41.225898],[-84.03188,41.225898]]]},"properties":{"p":"170092120280","o":"ESTLE PROPERTIES, LLC","a":"608 & 609 FOURTH ST HAMLER","d":"PATRICK HENRY LOCAL SCHOOL DISTRICT","t":118.51,"l":"599: Res-Other","c":0}},{"type":"Feature","geometry":{"type":"Polygon","coordinates":[[[-84.130124,41.246763],[-84.130129,41.246747],[-84.130605,41.246835],[-84.130543,41.247028],[-84.130068,41.246941],[-84.130124,41.246763]]]},"properties":{"p":"140094224020","o":"COWLE, MANDREA M., ETAL","a":"KEYSER ST HOLGATE","d":"HOLGATE LOCAL SCHOOL DISTRICT","t":167.08,"l":"500: Res-Vacant Land","c":0}},{"type":"Feature","geometry":{"type":"Polygon","coordinates":[[[-84.13172,41.247433],[-84.131839,41.247062],[-84.132091,41.247108],[-84.131971,41.247479],[-84.13172,41.247433]]]},"properties":{"p":"140094223880","o":"WILHELM, SUSAN J.","a":"FRAZIER ST HOLGATE","d":"HOLGATE LOCAL SCHOOL DISTRICT","t":174.03,"l":"500: Res-Vacant Land","c":0}},{"type":"Feature","geometry":{"type":"Polygon","coordinates":[[[-84.136322,41.252403],[-84.136319,41.252221],[-84.136804,41.252218],[-84.136807,41.252401],[-84.136322,41.252403]]]},"properties":{"p":"140093010980","o":"VERHOFF, DANIEL J.","a":"NORTH THERESE STREET HOLGATE","d":"HOLGATE LOCAL SCHOOL DISTRICT","t":261.95,"l":"599: Res-Other","c":0}},{"type":"Feature","geometry":{"type":"Polygon","coordinates":[[[-84.134745,41.249533],[-84.134744,41.249422],[-84.135505,41.249419],[-84.135508,41.249678],[-84.134745,41.249533]]]},"properties":{"p":"140092120160","o":"MEDINA, MICHAEL R.","a":"109 S BRAYER ST HOLGATE","d":"HOLGATE LOCAL SCHOOL DISTRICT","t":31.11,"l":"510: Res-Single Family","c":0}},{"type":"Feature","geometry":{"type":"Polygon","coordinates":[[[-84.136263,41.249869],[-84.136263,41.249833],[-84.136776,41.249832],[-84.136778,41.249967],[-84.136263,41.249869]]]},"properties":{"p":"140090311060","o":"HERNANDEZ, STEVEN, ETAL","a":"109 SOUTH TERESE STREET HOLGATE","d":"HOLGATE LOCAL SCHOOL DISTRICT","t":230,"l":"510: Res-Single Family","c":0}},{"type":"Feature","geometry":{"type":"Polygon","coordinates":[[[-84.136265,41.247527],[-84.136264,41.247371],[-84.136747,41.247369],[-84.136749,41.247525],[-84.136265,41.247527]]]},"properties":{"p":"140090310580","o":"RETTIG, ASHTON L.","a":"321 SOUTH THERESA STREET HOLGATE","d":"HOLGATE LOCAL SCHOOL DISTRICT","t":303.41,"l":"510: Res-Single Family","c":0}},{"type":"Feature","geometry":{"type":"Polygon","coordinates":[[[-84.131991,41.183816],[-84.131988,41.183402],[-84.132853,41.183397],[-84.132861,41.183899],[-84.131992,41.183904],[-84.131991,41.183816]]]},"properties":{"p":"122600520100","o":"STALNAKER, JOE","a":"B-181 STATE ROUTE 108","d":"HOLGATE LOCAL SCHOOL DISTRICT","t":211.72,"l":"510: Res-Single Family","c":0}},{"type":"Feature","geometry":{"type":"Polygon","coordinates":[[[-84.142214,41.242052],[-84.142193,41.239009],[-84.144826,41.238977],[-84.144835,41.240133],[-84.142805,41.242046],[-84.142214,41.242052]]]},"properties":{"p":"120200520000","o":"COOPER, JOHN A., ETAL","a":"COUNTY ROAD 16C","d":"HOLGATE LOCAL SCHOOL DISTRICT","t":335.84,"l":"110: Agr-CAUV-Vacant Land","c":0}},{"type":"Feature","geometry":{"type":"Polygon","coordinates":[[[-84.201003,41.321717],[-84.201026,41.321704],[-84.201119,41.322115],[-84.200884,41.322145],[-84.200812,41.321831],[-84.201003,41.321717]]]},"properties":{"p":"110894510240","o":"BEJARANO, CORINA G.","a":"102 WEST HIGH FLORIDA","d":"NAPOLEON AREA CITY SCHOOL DISTRICT","t":33.34,"l":"510: Res-Single Family","c":0}},{"type":"Feature","geometry":{"type":"Polygon","coordinates":[[[-84.199824,41.322445],[-84.199926,41.322374],[-84.200099,41.322543],[-84.199989,41.322607],[-84.199824,41.322445]]]},"properties":{"p":"110890630060","o":"JA GARCIAS, LLC","a":"106A HIGH STREET FLORIDA","d":"NAPOLEON AREA CITY SCHOOL DISTRICT","t":63.09,"l":"420: Com-Retail-Small","c":0}},{"type":"Feature","geometry":{"type":"Polygon","coordinates":[[[-84.153002,41.309966],[-84.152977,41.308342],[-84.154363,41.307876],[-84.154372,41.308464],[-84.154092,41.308467],[-84.154115,41.309957],[-84.153002,41.309966]]]},"properties":{"p":"081500020100","o":"SALAZ ARMBRUSTER, DEBORAH A.","a":"J-805 COUNTY ROAD 15","d":"NAPOLEON AREA CITY SCHOOL DISTRICT","t":260,"l":"599: Res-Other","c":0}},{"type":"Feature","geometry":{"type":"Polygon","coordinates":[[[-84.134951,41.414303],[-84.134966,41.413705],[-84.135695,41.413711],[-84.135679,41.414313],[-84.134951,41.414303]]]},"properties":{"p":"070200260200","o":"MOYER, SAIGE","a":"COUNTY ROAD R","d":"NAPOLEON AREA CITY SCHOOL DISTRICT","t":67.69,"l":"500: Res-Vacant Land","c":0}},{"type":"Feature","geometry":{"type":"Polygon","coordinates":[[[-84.203124,41.442766],[-84.203149,41.442333],[-84.204279,41.442369],[-84.204254,41.442802],[-84.203124,41.442766]]]},"properties":{"p":"032900140000","o":"TORRES, JOSE E., ETUX","a":"17-610 COUNTY ROAD T NAPOLEON","d":"NAPOLEON AREA CITY SCHOOL DISTRICT","t":50.08,"l":"510: Res-Single Family","c":0}},{"type":"Feature","geometry":{"type":"Polygon","coordinates":[[[-84.14672,41.486136],[-84.146717,41.485319],[-84.147576,41.485321],[-84.147579,41.486137],[-84.14672,41.486136]]]},"properties":{"p":"031400040100","o":"ALTSTAETTER, JEREMY J., ETUX","a":"14-665 COUNTY ROAD W WAUSEON","d":"NAPOLEON AREA CITY SCHOOL DISTRICT","t":30,"l":"510: Res-Single Family","c":0}},{"type":"Feature","geometry":{"type":"Polygon","coordinates":[[[-84.136421,41.393475],[-84.136396,41.392668],[-84.136637,41.392689],[-84.136663,41.393526],[-84.136421,41.393475]]]},"properties":{"p":"411401080000","o":"PAXTON, LOGAN","a":"1159 WOODLAWN AVE NAPOLEON","d":"NAPOLEON AREA CITY SCHOOL DISTRICT","t":42.11,"l":"510: Res-Single Family","c":0}},{"type":"Feature","geometry":{"type":"Polygon","coordinates":[[[-84.138897,41.394871],[-84.138886,41.394167],[-84.139197,41.394233],[-84.139207,41.394867],[-84.138897,41.394871]]]},"properties":{"p":"411400880000","o":"MARPEB, LLC","a":"1318 WOODLAWN AVE NAPOLEON","d":"NAPOLEON AREA CITY SCHOOL DISTRICT","t":373.41,"l":"401: Com-Apartment- 4 to 19","c":0}},{"type":"Feature","geometry":{"type":"Polygon","coordinates":[[[-84.139207,41.394867],[-84.139197,41.394233],[-84.139472,41.394291],[-84.139481,41.394864],[-84.139207,41.394867]]]},"properties":{"p":"411400420000","o":"PEBMAR, LLC","a":"1320 WOODLAWN AVE NAPOLEON","d":"NAPOLEON AREA CITY SCHOOL DISTRICT","t":241.27,"l":"430: Com-Retaurant","c":0}},{"type":"Feature","geometry":{"type":"Polygon","coordinates":[[[-84.131396,41.390782],[-84.13139,41.390548],[-84.131627,41.390581],[-84.131631,41.390774],[-84.131396,41.390782]]]},"properties":{"p":"411302060100","o":"BUSCH, STEVEN L., ETUX","a":"900 HALEY ST (REAR) NAPOLEON","d":"NAPOLEON AREA CITY SCHOOL DISTRICT","t":55.64,"l":"500: Res-Vacant Land","c":0}},{"type":"Feature","geometry":{"type":"Polygon","coordinates":[[[-84.126773,41.393775],[-84.127201,41.393611],[-84.12728,41.393727],[-84.126863,41.393908],[-84.126773,41.393775]]]},"properties":{"p":"410097230200","o":"GERKEN, STEVEN, ETAL","a":"923 N PERRY ST NAPOLEON","d":"NAPOLEON AREA CITY SCHOOL DISTRICT","t":33.19,"l":"510: Res-Single Family","c":0}},{"type":"Feature","geometry":{"type":"Polygon","coordinates":[[[-84.140306,41.38885],[-84.140385,41.388816],[-84.140604,41.389102],[-84.140525,41.389136],[-84.140306,41.38885]]]},"properties":{"p":"410095501900","o":"MACGREGOR-OSTERTAG, LINDA GRACE","a":"KENILWORTH AVE NAPOLEON","d":"NAPOLEON AREA CITY SCHOOL DISTRICT","t":126.13,"l":"500: Res-Vacant Land","c":0}}]}