{"type":"FeatureCollection","features":[{"type":"Feature","geometry":{"type":"Polygon","coordinates":[[[-84.703138,40.941209],[-84.70367,40.940601],[-84.704093,40.940787],[-84.703506,40.941457],[-84.703083,40.941272],[-84.703138,40.941209]]]},"properties":{"p":"01-001124.0000","o":"ADAM GREG L & MARTINEZ REGINA A JTS","a":"6106    LINCOLN HIGHWAY","d":"CRESTVIEW LOCAL SCHOOL DISTRICT","t":198.12,"l":"510: Res-Single Family","c":0}},{"type":"Feature","geometry":{"type":"Polygon","coordinates":[[[-84.706739,40.920681],[-84.706739,40.92042],[-84.707216,40.920421],[-84.707216,40.920682],[-84.706739,40.920681]]]},"properties":{"p":"02-003252.0000","o":"STEPHENS JASON W","a":"422 N  MAIN                   ST","d":"CRESTVIEW LOCAL SCHOOL DISTRICT","t":1175.4,"l":"510: Res-Single Family","c":0}},{"type":"Feature","geometry":{"type":"Polygon","coordinates":[[[-84.759027,40.844768],[-84.759027,40.844219],[-84.759814,40.844224],[-84.759815,40.844773],[-84.759027,40.844768]]]},"properties":{"p":"03-005608.0200","o":"SPADE RONALD G","a":"ST RT 224","d":"CRESTVIEW LOCAL SCHOOL DISTRICT","t":149.92,"l":"500: Res-Vacant Land","c":0}},{"type":"Feature","geometry":{"type":"Polygon","coordinates":[[[-84.688481,40.830107],[-84.688482,40.829608],[-84.691152,40.829617],[-84.691155,40.830016],[-84.691115,40.830053],[-84.68983,40.830058],[-84.689747,40.830071],[-84.689664,40.830107],[-84.688481,40.830107]]]},"properties":{"p":"03-005892.0000","o":"MCCLURE RICHARD H","a":"11978    BERGNER                RD","d":"CRESTVIEW LOCAL SCHOOL DISTRICT","t":3627.01,"l":"510: Res-Single Family","c":0}},{"type":"Feature","geometry":{"type":"Polygon","coordinates":[[[-84.727362,40.757114],[-84.727362,40.757023],[-84.739401,40.757113],[-84.739401,40.757204],[-84.727362,40.757114]]]},"properties":{"p":"06-008438.0000","o":"RAILROAD PROPERTIES LP C/O ROBERT R FOWLER","a":"","d":"PARKWAY LOCAL SCHOOL DISTRICT","t":822.56,"l":"400: Com-Vacant Land","c":0}},{"type":"Feature","geometry":{"type":"Polygon","coordinates":[[[-84.708708,40.757],[-84.709386,40.756936],[-84.710069,40.756906],[-84.725197,40.75693],[-84.725196,40.757021],[-84.708708,40.757]]]},"properties":{"p":"06-008638.0000","o":"LONG PRAIRIE WIND I LLC","a":"","d":"PARKWAY LOCAL SCHOOL DISTRICT","t":275.62,"l":"400: Com-Vacant Land","c":0}},{"type":"Feature","geometry":{"type":"Polygon","coordinates":[[[-84.78998,40.7462],[-84.790504,40.746116],[-84.790558,40.746316],[-84.790033,40.746399],[-84.78998,40.7462]]]},"properties":{"p":"07-009864.0000","o":"CHEEK RODNEY L & FAYE A JTS","a":"501    STATE                  ST","d":"PARKWAY LOCAL SCHOOL DISTRICT","t":912.78,"l":"510: Res-Single Family","c":0}},{"type":"Feature","geometry":{"type":"Polygon","coordinates":[[[-84.794295,40.750859],[-84.794609,40.750544],[-84.79479,40.750649],[-84.794476,40.750964],[-84.794295,40.750859]]]},"properties":{"p":"07-010196.0000","o":"HUNT STANLEY E & RHONDA E","a":"110    HOGAN                  ST","d":"PARKWAY LOCAL SCHOOL DISTRICT","t":2068.86,"l":"510: Res-Single Family","c":0}},{"type":"Feature","geometry":{"type":"Polygon","coordinates":[[[-84.583505,40.988194],[-84.583504,40.98786],[-84.583939,40.987856],[-84.58394,40.98819],[-84.583505,40.988194]]]},"properties":{"p":"09-012764.0000","o":"YOUTSEY TRAVIS","a":"1118    DRURY                  ST","d":"WAYNE TRACE LOCAL SCHOOL DISTRICT","t":1853.73,"l":"510: Res-Single Family","c":0}},{"type":"Feature","geometry":{"type":"Polygon","coordinates":[[[-84.583504,40.987827],[-84.583503,40.987493],[-84.583937,40.987489],[-84.583939,40.987823],[-84.583504,40.987827]]]},"properties":{"p":"09-012780.0000","o":"YOUTSEY TRAVIS","a":"SUMNER                 ST","d":"WAYNE TRACE LOCAL SCHOOL DISTRICT","t":338.85,"l":"500: Res-Vacant Land","c":0}},{"type":"Feature","geometry":{"type":"Polygon","coordinates":[[[-84.600589,40.845115],[-84.600583,40.844288],[-84.603433,40.844279],[-84.603444,40.845106],[-84.600589,40.845115]]]},"properties":{"p":"11-015280.0000","o":"GONZALEZ VICTOR L","a":"10983    ST RT 118","d":"VAN WERT CITY SCHOOL DISTRICT","t":854.41,"l":"599: Res-Other","c":0}},{"type":"Feature","geometry":{"type":"Polygon","coordinates":[[[-84.663487,40.829977],[-84.66349,40.829522],[-84.663915,40.829524],[-84.663912,40.82998],[-84.663487,40.829977]]]},"properties":{"p":"11-015880.0000","o":"PANGLE JASON & MANDY","a":"8187    VAN WERT WILLSHIRE     RD","d":"VAN WERT CITY SCHOOL DISTRICT","t":37.98,"l":"510: Res-Single Family","c":0}},{"type":"Feature","geometry":{"type":"Polygon","coordinates":[[[-84.573673,40.870186],[-84.573668,40.869801],[-84.573837,40.8698],[-84.573842,40.870185],[-84.573673,40.870186]]]},"properties":{"p":"12-018848.0000","o":"CARROLL ROXIE M NKA DARST ROXIE M","a":"711 E  MAIN                   STW1","d":"VAN WERT CITY SCHOOL DISTRICT","t":1060.65,"l":"510: Res-Single Family","c":0}},{"type":"Feature","geometry":{"type":"Polygon","coordinates":[[[-84.592906,40.869769],[-84.592907,40.869407],[-84.593175,40.869404],[-84.593174,40.869766],[-84.592906,40.869769]]]},"properties":{"p":"12-021372.0000","o":"DUNDAS KEITH E","a":"730    WOODLAND               AVW2","d":"VAN WERT CITY SCHOOL DISTRICT","t":632.18,"l":"510: Res-Single Family","c":0}},{"type":"Feature","geometry":{"type":"Polygon","coordinates":[[[-84.576903,40.86375],[-84.577192,40.863748],[-84.577195,40.863929],[-84.576905,40.863931],[-84.576903,40.86375]]]},"properties":{"p":"12-022084.0000","o":"METZ GRACE E","a":"603 S  HARRISON               STW4","d":"VAN WERT CITY SCHOOL DISTRICT","t":1198.27,"l":"510: Res-Single Family","c":0}},{"type":"Feature","geometry":{"type":"Polygon","coordinates":[[[-84.576254,40.8643],[-84.576252,40.864116],[-84.576669,40.864114],[-84.576672,40.864296],[-84.576254,40.8643]]]},"properties":{"p":"12-022140.0000","o":"MARKLEY KRIS T","a":"534 S  HARRISON               STW4","d":"VAN WERT CITY SCHOOL DISTRICT","t":172.36,"l":"510: Res-Single Family","c":0}},{"type":"Feature","geometry":{"type":"Polygon","coordinates":[[[-84.5878,40.86651],[-84.587798,40.866318],[-84.587819,40.866318],[-84.587814,40.865971],[-84.588031,40.865969],[-84.588039,40.866508],[-84.5878,40.86651]]]},"properties":{"p":"12-022968.0000","o":"DOLAN MEGAN R","a":"360 W  MAPLE                  AVW3","d":"VAN WERT CITY SCHOOL DISTRICT","t":602.88,"l":"510: Res-Single Family","c":0}},{"type":"Feature","geometry":{"type":"Polygon","coordinates":[[[-84.577126,40.862616],[-84.577121,40.862254],[-84.577389,40.862252],[-84.577394,40.862614],[-84.577126,40.862616]]]},"properties":{"p":"12-023268.0000","o":"GOINGS DENESA","a":"414    SPENCER                STW4","d":"VAN WERT CITY SCHOOL DISTRICT","t":2436.92,"l":"510: Res-Single Family","c":0}},{"type":"Feature","geometry":{"type":"Polygon","coordinates":[[[-84.593799,40.875578],[-84.593799,40.875468],[-84.594288,40.875464],[-84.594288,40.875574],[-84.593799,40.875578]]]},"properties":{"p":"12-025632.0000","o":"VAN WERT COUNTY LAND REUTILIZATION CORPORATION","a":"243    BURT                   STW2","d":"VAN WERT CITY SCHOOL DISTRICT","t":4518.73,"l":"510: Res-Single Family","c":0}},{"type":"Feature","geometry":{"type":"Polygon","coordinates":[[[-84.588265,40.86212],[-84.588265,40.862477],[-84.588084,40.862479],[-84.588084,40.862122],[-84.588265,40.86212]]]},"properties":{"p":"12-025772.0000","o":"KIMBERLIN CANDY ANN","a":"420    BOYD                   AVW3","d":"VAN WERT CITY SCHOOL DISTRICT","t":2323.61,"l":"510: Res-Single Family","c":0}},{"type":"Feature","geometry":{"type":"Polygon","coordinates":[[[-84.592708,40.876958],[-84.592712,40.876595],[-84.592893,40.876594],[-84.592888,40.876958],[-84.592708,40.876958]]]},"properties":{"p":"12-026076.0000","o":"TRIBOLET WARD TRAVIS L","a":"CABLE                  STW2","d":"VAN WERT CITY SCHOOL DISTRICT","t":186.83,"l":"500: Res-Vacant Land","c":0}},{"type":"Feature","geometry":{"type":"Polygon","coordinates":[[[-84.598148,40.859698],[-84.598146,40.859531],[-84.598583,40.859528],[-84.598585,40.859695],[-84.598148,40.859698]]]},"properties":{"p":"12-027872.0000","o":"DUTTON PAUL D","a":"SOUTHWAY               STW3","d":"VAN WERT CITY SCHOOL DISTRICT","t":49.74,"l":"599: Res-Other","c":0}},{"type":"Feature","geometry":{"type":"Polygon","coordinates":[[[-84.597539,40.85987],[-84.597535,40.859702],[-84.597967,40.859699],[-84.597969,40.859866],[-84.597539,40.85987]]]},"properties":{"p":"12-027888.0000","o":"DUTTON PAUL D","a":"AIRPORT                AVW3","d":"VAN WERT CITY SCHOOL DISTRICT","t":49.74,"l":"500: Res-Vacant Land","c":0}},{"type":"Feature","geometry":{"type":"Polygon","coordinates":[[[-84.600554,40.865701],[-84.60036,40.865702],[-84.600359,40.865651],[-84.600399,40.865612],[-84.600413,40.865565],[-84.600744,40.865563],[-84.600747,40.8657],[-84.600554,40.865701]]]},"properties":{"p":"12-028628.0000","o":"FRANCIS JESSICA","a":"611    LEWIS                  STW3","d":"VAN WERT CITY SCHOOL DISTRICT","t":821.16,"l":"510: Res-Single Family","c":0}},{"type":"Feature","geometry":{"type":"Polygon","coordinates":[[[-84.571774,40.855823],[-84.571778,40.855686],[-84.571778,40.855823],[-84.571774,40.855823]]]},"properties":{"p":"12-029084.0000","o":"DO NOT MAIL","a":"LINDEN                 DRW4","d":"VAN WERT CITY SCHOOL DISTRICT","t":52.93,"l":"500: Res-Vacant Land","c":0}},{"type":"Feature","geometry":{"type":"Polygon","coordinates":[[[-84.591682,40.877704],[-84.591681,40.877575],[-84.59209,40.877573],[-84.59208,40.877629],[-84.592101,40.877684],[-84.591682,40.877854],[-84.591682,40.877704]]]},"properties":{"p":"12-029236.0000","o":"BRAGG DONALD E JR ETAL","a":"414    NATIONAL               CTW2","d":"VAN WERT CITY SCHOOL DISTRICT","t":1536.31,"l":"510: Res-Single Family","c":0}},{"type":"Feature","geometry":{"type":"Polygon","coordinates":[[[-84.595488,40.880692],[-84.595487,40.880282],[-84.595907,40.88028],[-84.595906,40.880691],[-84.595488,40.880692]]]},"properties":{"p":"12-031976.0000","o":"BROWN JENNY L","a":"612    SHAFFER                STW2","d":"VAN WERT CITY SCHOOL DISTRICT","t":103.45,"l":"510: Res-Single Family","c":0}},{"type":"Feature","geometry":{"type":"Polygon","coordinates":[[[-84.593792,40.873485],[-84.593792,40.873304],[-84.594281,40.87348],[-84.594191,40.873629],[-84.593792,40.873485]]]},"properties":{"p":"12-032160.0000","o":"ADAMS KIRK L & PATRICIA L JTS &ADAMS BROCK","a":"183    BURT                   STW2","d":"VAN WERT CITY SCHOOL DISTRICT","t":1360.86,"l":"510: Res-Single Family","c":0}},{"type":"Feature","geometry":{"type":"Polygon","coordinates":[[[-84.591223,40.875905],[-84.591226,40.875724],[-84.591768,40.875719],[-84.591766,40.8759],[-84.591223,40.875905]]]},"properties":{"p":"12-032244.0000","o":"STANT CHRISTOPHER","a":"147    BLAINE                 STW2","d":"VAN WERT CITY SCHOOL DISTRICT","t":259.37,"l":"510: Res-Single Family","c":0}},{"type":"Feature","geometry":{"type":"Polygon","coordinates":[[[-84.590446,40.866827],[-84.590445,40.866656],[-84.590764,40.866654],[-84.590729,40.866825],[-84.590446,40.866827]]]},"properties":{"p":"12-032592.0000","o":"VAN INDUSTRIES LLC","a":"LEESON                 AVW3","d":"VAN WERT CITY SCHOOL DISTRICT","t":669.78,"l":"400: Com-Vacant Land","c":0}},{"type":"Feature","geometry":{"type":"Polygon","coordinates":[[[-84.585566,40.864619],[-84.585566,40.864437],[-84.586014,40.864433],[-84.586014,40.864614],[-84.585566,40.864619]]]},"properties":{"p":"12-033636.0000","o":"MCHUGH JEFFERY A & CRISSY","a":"627    ELM                    STW3","d":"VAN WERT CITY SCHOOL DISTRICT","t":1073,"l":"510: Res-Single Family","c":0}},{"type":"Feature","geometry":{"type":"Polygon","coordinates":[[[-84.657267,40.763993],[-84.647859,40.76398],[-84.64786,40.763807],[-84.652565,40.763814],[-84.652565,40.763849],[-84.65493,40.763853],[-84.65493,40.763825],[-84.664818,40.763822],[-84.664816,40.763987],[-84.657267,40.763993]]]},"properties":{"p":"13-035726.0000","o":"LONG PRAIRIE WIND I LLC","a":"","d":"VAN WERT CITY SCHOOL DISTRICT","t":541.57,"l":"400: Com-Vacant Land","c":0}},{"type":"Feature","geometry":{"type":"MultiPolygon","coordinates":[[[[-84.623102,40.767616],[-84.628908,40.766026],[-84.628906,40.766219],[-84.623049,40.767805],[-84.623102,40.767616]]],[[[-84.616094,40.765955],[-84.616878,40.764047],[-84.617068,40.764045],[-84.616284,40.765952],[-84.616094,40.765955]]]]},"properties":{"p":"13-035834.0000","o":"RAILROAD PROPERTIES LP C/O ROBERT R FOWLER","a":"","d":"VAN WERT CITY SCHOOL DISTRICT","t":611.17,"l":"400: Com-Vacant Land","c":0}},{"type":"Feature","geometry":{"type":"Polygon","coordinates":[[[-84.603631,40.767852],[-84.604075,40.767851],[-84.571385,40.760986],[-84.571387,40.760702],[-84.605418,40.767849],[-84.605093,40.767849],[-84.605097,40.76816],[-84.603631,40.767852]]]},"properties":{"p":"13-035890.0000","o":"RAILROAD PROPERTIES LP C/O ROBERT R FOWLER","a":"","d":"VAN WERT CITY SCHOOL DISTRICT","t":1396.12,"l":"400: Com-Vacant Land","c":0}},{"type":"Feature","geometry":{"type":"Polygon","coordinates":[[[-84.615515,40.770752],[-84.615932,40.770743],[-84.615934,40.770804],[-84.615517,40.770812],[-84.615515,40.770752]]]},"properties":{"p":"14-036732.0000","o":"RIGGENBACH TIMOTHY","a":"115 S  MAIN                   ST","d":"VAN WERT CITY SCHOOL DISTRICT","t":1273.06,"l":"447: Com-Office","c":0}},{"type":"Feature","geometry":{"type":"Polygon","coordinates":[[[-84.548381,40.931762],[-84.54951,40.931757],[-84.549515,40.932292],[-84.548386,40.932297],[-84.548381,40.931762]]]},"properties":{"p":"15-039270.0100","o":"LEWIS DENNIS","a":"14197    FIFE                   RD","d":"LINCOLNVIEW LOCAL SCHOOL DISTRICT","t":892.81,"l":"510: Res-Single Family","c":0}},{"type":"Feature","geometry":{"type":"Polygon","coordinates":[[[-84.468521,40.785465],[-84.475763,40.783759],[-84.475766,40.783989],[-84.468521,40.785695],[-84.468521,40.785465]]]},"properties":{"p":"20-043126.0000","o":"RAILROAD PROPERTIES LP C/O ROBERT R FOWLER","a":"","d":"LINCOLNVIEW LOCAL SCHOOL DISTRICT","t":1136.92,"l":"400: Com-Vacant Land","c":0}},{"type":"Feature","geometry":{"type":"Polygon","coordinates":[[[-84.530279,40.771477],[-84.527889,40.771483],[-84.523159,40.771552],[-84.52316,40.771532],[-84.518533,40.771621],[-84.518533,40.771641],[-84.516762,40.771676],[-84.51592,40.771708],[-84.515992,40.771561],[-84.523161,40.771427],[-84.532628,40.771416],[-84.532628,40.77147],[-84.530279,40.771477]]]},"properties":{"p":"20-043278.0000","o":"LONG PRAIRIE WIND I LLC","a":"","d":"LINCOLNVIEW LOCAL SCHOOL DISTRICT","t":273.2,"l":"400: Com-Vacant Land","c":0}},{"type":"Feature","geometry":{"type":"Polygon","coordinates":[[[-84.350594,40.897102],[-84.351172,40.897088],[-84.351173,40.897425],[-84.350594,40.897439],[-84.350594,40.897102]]]},"properties":{"p":"24-046064.0000","o":"TEMAN DANIEL P","a":"7432    ST RT 66","d":"DELPHOS CITY SCHOOL DISTRICT","t":1006.36,"l":"510: Res-Single Family","c":0}},{"type":"Feature","geometry":{"type":"Polygon","coordinates":[[[-84.355407,40.899704],[-84.355465,40.898819],[-84.35542,40.898188],[-84.355437,40.897891],[-84.351782,40.897943],[-84.351781,40.89741],[-84.351173,40.897425],[-84.351172,40.897088],[-84.351281,40.897086],[-84.351278,40.895958],[-84.357344,40.895789],[-84.357431,40.899675],[-84.355407,40.899704]]]},"properties":{"p":"24-046056.0000","o":"TEMAN DANIEL P","a":"ST RT 66","d":"DELPHOS CITY SCHOOL DISTRICT","t":149.45,"l":"110: Agr-CAUV-Vacant Land","c":0}},{"type":"Feature","geometry":{"type":"Polygon","coordinates":[[[-84.417674,40.923122],[-84.417668,40.922736],[-84.418428,40.922728],[-84.41843,40.922819],[-84.418267,40.92282],[-84.418269,40.922921],[-84.418432,40.92292],[-84.418435,40.923117],[-84.417674,40.923122]]]},"properties":{"p":"23-045696.0000","o":"KNUTH WILLAM F & KNUTH EDWARD JTS","a":"5626    CONVERSE ROSELM        RD","d":"LINCOLNVIEW LOCAL SCHOOL DISTRICT","t":1579.52,"l":"510: Res-Single Family","c":0}},{"type":"Feature","geometry":{"type":"Polygon","coordinates":[[[-84.466497,40.94232],[-84.46649,40.941568],[-84.467209,40.941564],[-84.467217,40.942316],[-84.466497,40.94232]]]},"properties":{"p":"23-045608.0000","o":"MITCHENER CHRIS K & CHRISTINA KAYE MITCHENER","a":"4314    MOSIER                 RD","d":"LINCOLNVIEW LOCAL SCHOOL DISTRICT","t":541.46,"l":"510: Res-Single Family","c":0}},{"type":"Feature","geometry":{"type":"Polygon","coordinates":[[[-84.437514,40.979393],[-84.437506,40.979031],[-84.438701,40.979024],[-84.438709,40.979386],[-84.437514,40.979393]]]},"properties":{"p":"23-044828.0200","o":"YORK LEE CLARENCE","a":"1758    MIDDLE POINT WETZEL    RD","d":"LINCOLNVIEW LOCAL SCHOOL DISTRICT","t":454.82,"l":"560: Res-Mobile Home","c":0}},{"type":"Feature","geometry":{"type":"Polygon","coordinates":[[[-84.456407,40.788426],[-84.458736,40.787888],[-84.458735,40.787959],[-84.456407,40.788484],[-84.456407,40.788426]]]},"properties":{"p":"22-044670.0000","o":"RAILROAD PROPERTIES LP C/O ROBERT R FOWLER","a":"","d":"LINCOLNVIEW LOCAL SCHOOL DISTRICT","t":293.07,"l":"400: Com-Vacant Land","c":0}},{"type":"Feature","geometry":{"type":"Polygon","coordinates":[[[-84.456407,40.788363],[-84.458736,40.787818],[-84.458736,40.787888],[-84.456407,40.788426],[-84.456407,40.788363]]]},"properties":{"p":"22-044654.0000","o":"RAILROAD PROPERTIES LP C/O ROBERT R FOWLER","a":"","d":"LINCOLNVIEW LOCAL SCHOOL DISTRICT","t":543.94,"l":"400: Com-Vacant Land","c":0}},{"type":"Feature","geometry":{"type":"Polygon","coordinates":[[[-84.523971,40.771426],[-84.53263,40.771337],[-84.532628,40.771416],[-84.523971,40.771426]]]},"properties":{"p":"20-043446.0000","o":"LONG PRAIRIE WIND I LLC","a":"","d":"LINCOLNVIEW LOCAL SCHOOL DISTRICT","t":72.85,"l":"400: Com-Vacant Land","c":0}},{"type":"Feature","geometry":{"type":"Polygon","coordinates":[[[-84.48768,40.781031],[-84.496213,40.779044],[-84.496213,40.779159],[-84.495213,40.779395],[-84.485316,40.781696],[-84.485317,40.781583],[-84.48768,40.781031]]]},"properties":{"p":"20-043206.0000","o":"LONG PRAIRIE WIND I LLC","a":"","d":"LINCOLNVIEW LOCAL SCHOOL DISTRICT","t":139.46,"l":"400: Com-Vacant Land","c":0}},{"type":"Feature","geometry":{"type":"Polygon","coordinates":[[[-84.543995,40.881808],[-84.543985,40.8813],[-84.543083,40.881291],[-84.543077,40.880892],[-84.545463,40.88092],[-84.545477,40.881826],[-84.543995,40.881808]]]},"properties":{"p":"19-041452.0000","o":"CRAFT BARRY L & KRISTINA J JTS","a":"8478    BOROFF                 RD","d":"LINCOLNVIEW LOCAL SCHOOL DISTRICT","t":1207.53,"l":"510: Res-Single Family","c":0}},{"type":"Feature","geometry":{"type":"Polygon","coordinates":[[[-84.520358,40.902884],[-84.522467,40.902869],[-84.522464,40.903894],[-84.520355,40.90391],[-84.520358,40.902884]]]},"properties":{"p":"15-039966.0000","o":"CHURCH ROAD FAMILY FARM LLC","a":"15581    CHURCH                 RD","d":"LINCOLNVIEW LOCAL SCHOOL DISTRICT","t":305.73,"l":"510: Res-Single Family","c":0}},{"type":"Feature","geometry":{"type":"Polygon","coordinates":[[[-84.542854,40.910706],[-84.542851,40.910065],[-84.543599,40.910063],[-84.543611,40.910699],[-84.542854,40.910706]]]},"properties":{"p":"15-039938.0200","o":"RADABAUGH THERESA","a":"14465    GIFFIN                 RD","d":"LINCOLNVIEW LOCAL SCHOOL DISTRICT","t":652.61,"l":"540: Res-Custom Code","c":0}},{"type":"Feature","geometry":{"type":"Polygon","coordinates":[[[-84.484742,40.917525],[-84.485476,40.917529],[-84.485476,40.918095],[-84.484738,40.91809],[-84.484742,40.917525]]]},"properties":{"p":"15-039570.0100","o":"YOUNG K DAVID & CONNIE E JTS","a":"17503    CONVOY                 RD","d":"LINCOLNVIEW LOCAL SCHOOL DISTRICT","t":5279.25,"l":"510: Res-Single Family","c":0}},{"type":"Feature","geometry":{"type":"Polygon","coordinates":[[[-84.556762,40.946167],[-84.556758,40.945206],[-84.556491,40.94521],[-84.556486,40.944064],[-84.557241,40.944054],[-84.55725,40.94616],[-84.556762,40.946167]]]},"properties":{"p":"15-039198.0100","o":"NIHISER ADAM TROY","a":"13788    WETZEL                 RD","d":"LINCOLNVIEW LOCAL SCHOOL DISTRICT","t":36.41,"l":"510: Res-Single Family","c":0}},{"type":"Feature","geometry":{"type":"Polygon","coordinates":[[[-84.571307,40.946463],[-84.571301,40.945938],[-84.572291,40.945921],[-84.572296,40.946446],[-84.571307,40.946463]]]},"properties":{"p":"15-039162.0101","o":"BRUMMETTE VINCENT L & LEANDRA","a":"13031    WETZEL                 RD","d":"LINCOLNVIEW LOCAL SCHOOL DISTRICT","t":1726.76,"l":"560: Res-Mobile Home","c":0}},{"type":"Feature","geometry":{"type":"Polygon","coordinates":[[[-84.495118,40.948162],[-84.495112,40.94635],[-84.496785,40.946336],[-84.49679,40.948147],[-84.495118,40.948162]]]},"properties":{"p":"15-039014.0000","o":"CAMPBELL JAMES J","a":"16959    WETZEL                 RD","d":"LINCOLNVIEW LOCAL SCHOOL DISTRICT","t":896.06,"l":"401: Com-Apartment- 4 to 19","c":0}},{"type":"Feature","geometry":{"type":"Polygon","coordinates":[[[-84.614602,40.769622],[-84.614724,40.76932],[-84.614915,40.769316],[-84.614777,40.769656],[-84.614602,40.769622]]]},"properties":{"p":"14-038137.0200","o":"KLINE JASON","a":"S  MAIN                   ST","d":"VAN WERT CITY SCHOOL DISTRICT","t":107.46,"l":"500: Res-Vacant Land","c":0}},{"type":"Feature","geometry":{"type":"Polygon","coordinates":[[[-84.62204,40.769788],[-84.622401,40.769781],[-84.62235,40.769959],[-84.621655,40.769973],[-84.621703,40.769795],[-84.62204,40.769788]]]},"properties":{"p":"14-038060.0000","o":"JAMIE PHILLIPS","a":"204 S  SHANE                  ST","d":"VAN WERT CITY SCHOOL DISTRICT","t":52.83,"l":"510: Res-Single Family","c":0}},{"type":"Feature","geometry":{"type":"Polygon","coordinates":[[[-84.618867,40.769911],[-84.61925,40.769903],[-84.619249,40.7702],[-84.618866,40.770207],[-84.618867,40.769911]]]},"properties":{"p":"14-037932.0000","o":"CAMPBELL JAMES","a":"310 W  JEFFERSON              ST","d":"VAN WERT CITY SCHOOL DISTRICT","t":692.62,"l":"510: Res-Single Family","c":0}},{"type":"Feature","geometry":{"type":"Polygon","coordinates":[[[-84.622423,40.770437],[-84.62295,40.770426],[-84.622948,40.770563],[-84.622384,40.770575],[-84.622423,40.770437]]]},"properties":{"p":"14-037664.0000","o":"SMITH R TRAVIS","a":"S  SHANE                  ST","d":"VAN WERT CITY SCHOOL DISTRICT","t":191.42,"l":"500: Res-Vacant Land","c":0}},{"type":"Feature","geometry":{"type":"Polygon","coordinates":[[[-84.62295,40.770426],[-84.622423,40.770437],[-84.622462,40.770298],[-84.622952,40.770288],[-84.62295,40.770426]]]},"properties":{"p":"14-037660.0000","o":"SMITH R TRAVIS","a":"107 S  SHANE                  ST","d":"VAN WERT CITY SCHOOL DISTRICT","t":1353.26,"l":"510: Res-Single Family","c":0}},{"type":"Feature","geometry":{"type":"Polygon","coordinates":[[[-84.618899,40.77149],[-84.619093,40.771486],[-84.619099,40.771848],[-84.618906,40.771852],[-84.618899,40.77149]]]},"properties":{"p":"14-037444.0000","o":"GALLIMORE JOSHUA J & RUWOLDT JESSICA","a":"309 W  CARMEAN                ST","d":"VAN WERT CITY SCHOOL DISTRICT","t":1352.98,"l":"510: Res-Single Family","c":0}},{"type":"Feature","geometry":{"type":"Polygon","coordinates":[[[-84.621116,40.768645],[-84.621297,40.768641],[-84.621295,40.769041],[-84.621115,40.769045],[-84.621116,40.768645]]]},"properties":{"p":"14-037404.0000","o":"BORKOSKY DAVINA A","a":"505 W  HOFFMAN                ST","d":"VAN WERT CITY SCHOOL DISTRICT","t":1785.46,"l":"510: Res-Single Family","c":0}},{"type":"Feature","geometry":{"type":"Polygon","coordinates":[[[-84.614777,40.769656],[-84.614791,40.76962],[-84.615265,40.769611],[-84.615269,40.769739],[-84.615245,40.769745],[-84.614777,40.769656]]]},"properties":{"p":"14-036664.0000","o":"KLINE JASON ETAL","a":"S  MAIN                   ST","d":"VAN WERT CITY SCHOOL DISTRICT","t":120.14,"l":"500: Res-Vacant Land","c":0}},{"type":"Feature","geometry":{"type":"Polygon","coordinates":[[[-84.614841,40.769499],[-84.61526,40.76949],[-84.615265,40.769611],[-84.614791,40.76962],[-84.614841,40.769499]]]},"properties":{"p":"14-036660.0000","o":"KLINE JASON","a":"206 S  MAIN                   ST","d":"VAN WERT CITY SCHOOL DISTRICT","t":1094.39,"l":"540: Res-Custom Code","c":0}},{"type":"Feature","geometry":{"type":"Polygon","coordinates":[[[-84.616402,40.768923],[-84.615925,40.768933],[-84.615919,40.768752],[-84.616395,40.768742],[-84.616402,40.768923]]]},"properties":{"p":"14-036616.0000","o":"BRUMMETTE ALONZO J","a":"103 W  HOFFMAN                ST","d":"VAN WERT CITY SCHOOL DISTRICT","t":971.32,"l":"510: Res-Single Family","c":0}},{"type":"Feature","geometry":{"type":"Polygon","coordinates":[[[-84.589584,40.742354],[-84.590583,40.742348],[-84.590589,40.742991],[-84.589589,40.742997],[-84.589584,40.742354]]]},"properties":{"p":"13-035988.0100","o":"VAN WERT COUNTY LAND REUTILIZATION","a":"12001    ST RT 81","d":"VAN WERT CITY SCHOOL DISTRICT","t":4389.03,"l":"510: Res-Single Family","c":0}},{"type":"Feature","geometry":{"type":"Polygon","coordinates":[[[-84.59077,40.771529],[-84.573676,40.771603],[-84.571358,40.771453],[-84.571357,40.77124],[-84.574115,40.771461],[-84.575002,40.771495],[-84.576236,40.771492],[-84.576237,40.771547],[-84.581109,40.771501],[-84.581109,40.771459],[-84.593146,40.771418],[-84.593147,40.771528],[-84.59077,40.771529]]]},"properties":{"p":"13-035966.0000","o":"LONG PRAIRIE WIND I LLC","a":"","d":"VAN WERT CITY SCHOOL DISTRICT","t":484.73,"l":"400: Com-Vacant Land","c":0}},{"type":"Feature","geometry":{"type":"Polygon","coordinates":[[[-84.63831,40.763917],[-84.63831,40.763846],[-84.638912,40.763826],[-84.64786,40.763807],[-84.647861,40.763898],[-84.63831,40.763917]]]},"properties":{"p":"13-035746.0000","o":"LONG PRAIRIE WIND I LLC","a":"","d":"VAN WERT CITY SCHOOL DISTRICT","t":232.53,"l":"400: Com-Vacant Land","c":0}},{"type":"Feature","geometry":{"type":"Polygon","coordinates":[[[-84.676388,40.764014],[-84.671569,40.764001],[-84.67157,40.763917],[-84.667559,40.763906],[-84.66756,40.763836],[-84.676391,40.763849],[-84.676388,40.764014]]]},"properties":{"p":"13-035642.0100","o":"LONG PRAIRIE WIND I LLC","a":"","d":"VAN WERT CITY SCHOOL DISTRICT","t":263.97,"l":"400: Com-Vacant Land","c":0}},{"type":"Feature","geometry":{"type":"Polygon","coordinates":[[[-84.687346,40.764029],[-84.687346,40.763947],[-84.6805,40.763937],[-84.680499,40.76402],[-84.676389,40.764014],[-84.676391,40.763849],[-84.688249,40.763868],[-84.688776,40.763851],[-84.688774,40.764023],[-84.687346,40.764029]]]},"properties":{"p":"13-035642.0000","o":"RAILROAD PROPERTIES LP C/O ROBERT R FOWLER","a":"","d":"VAN WERT CITY SCHOOL DISTRICT","t":1550.34,"l":"400: Com-Vacant Land","c":0}},{"type":"Feature","geometry":{"type":"Polygon","coordinates":[[[-84.628283,40.772244],[-84.628282,40.771218],[-84.628877,40.771206],[-84.628879,40.772351],[-84.628283,40.772244]]]},"properties":{"p":"13-035412.0000","o":"GERMAIN ARIC L & GERMAIN SALONE LYNN PEREZ JTS","a":"10021    WILLSHIRE OHIO CITY    RD","d":"VAN WERT CITY SCHOOL DISTRICT","t":2944.51,"l":"510: Res-Single Family","c":0}},{"type":"Feature","geometry":{"type":"Polygon","coordinates":[[[-84.609865,40.782795],[-84.609867,40.782487],[-84.610668,40.782471],[-84.610665,40.783368],[-84.610304,40.783375],[-84.610306,40.782786],[-84.609865,40.782795]]]},"properties":{"p":"13-035228.0000","o":"SPALL BRIAN & JOYCE JTS","a":"15244    BURRIS                 RD","d":"VAN WERT CITY SCHOOL DISTRICT","t":78.76,"l":"510: Res-Single Family","c":0}},{"type":"Feature","geometry":{"type":"Polygon","coordinates":[[[-84.595573,40.771617],[-84.595573,40.771566],[-84.59077,40.771583],[-84.59077,40.771529],[-84.600301,40.771525],[-84.600301,40.771616],[-84.595573,40.771617]]]},"properties":{"p":"13-035178.0000","o":"LONG PRAIRIE WIND I LLC","a":"","d":"VAN WERT CITY SCHOOL DISTRICT","t":241.98,"l":"400: Com-Vacant Land","c":0}},{"type":"Feature","geometry":{"type":"Polygon","coordinates":[[[-84.583988,40.865258],[-84.583985,40.864563],[-84.584224,40.86456],[-84.584226,40.865256],[-84.583988,40.865258]]]},"properties":{"p":"12-033552.0000","o":"MARKLEY KRIS T","a":"200    SOUTH                  AVW3","d":"VAN WERT CITY SCHOOL DISTRICT","t":216.38,"l":"510: Res-Single Family","c":0}},{"type":"Feature","geometry":{"type":"Polygon","coordinates":[[[-84.587013,40.872793],[-84.587015,40.872557],[-84.587493,40.872555],[-84.58749,40.872791],[-84.587013,40.872793]]]},"properties":{"p":"12-032840.0000","o":"TRACY SANDY","a":"316 N  WALL                   STW2","d":"VAN WERT CITY SCHOOL DISTRICT","t":1488.58,"l":"510: Res-Single Family","c":0}},{"type":"Feature","geometry":{"type":"Polygon","coordinates":[[[-84.59279,40.876148],[-84.592712,40.875965],[-84.593085,40.875963],[-84.593085,40.876147],[-84.59279,40.876148]]]},"properties":{"p":"12-032248.0000","o":"ELLIS ROBERT C II","a":"BURT                   STW2","d":"VAN WERT CITY SCHOOL DISTRICT","t":38.23,"l":"500: Res-Vacant Land","c":0}},{"type":"Feature","geometry":{"type":"Polygon","coordinates":[[[-84.592334,40.876566],[-84.592341,40.876082],[-84.592761,40.87608],[-84.592965,40.87656],[-84.592334,40.876566]]]},"properties":{"p":"12-032232.0000","o":"TRIBOLT WARD TRAVIS L","a":"BLAINE                 STW2","d":"VAN WERT CITY SCHOOL DISTRICT","t":38.86,"l":"500: Res-Vacant Land","c":0}},{"type":"Feature","geometry":{"type":"Polygon","coordinates":[[[-84.574655,40.874686],[-84.574654,40.87459],[-84.575131,40.874589],[-84.575133,40.874685],[-84.574655,40.874686]]]},"properties":{"p":"12-031436.0000","o":"CAMPBELL JAMES","a":"501 N  RACE                   STW1","d":"VAN WERT CITY SCHOOL DISTRICT","t":357.86,"l":"510: Res-Single Family","c":0}},{"type":"Feature","geometry":{"type":"Polygon","coordinates":[[[-84.597911,40.866042],[-84.5979,40.865494],[-84.598472,40.865492],[-84.598483,40.86604],[-84.597911,40.866042]]]},"properties":{"p":"12-030884.0100","o":"WOLLET TIMOTHY M & JANET L","a":"1020    LEESON                 AVW3","d":"VAN WERT CITY SCHOOL DISTRICT","t":782.74,"l":"510: Res-Single Family","c":0}},{"type":"Feature","geometry":{"type":"Polygon","coordinates":[[[-84.5979,40.865494],[-84.59787,40.863916],[-84.597954,40.863916],[-84.597962,40.864328],[-84.598269,40.864326],[-84.598292,40.865492],[-84.5979,40.865494]]]},"properties":{"p":"12-030884.0000","o":"WOLLET TIMOTHY M & JANET L","a":"STATE                  STW3","d":"VAN WERT CITY SCHOOL DISTRICT","t":21.88,"l":"500: Res-Vacant Land","c":0}},{"type":"Feature","geometry":{"type":"Polygon","coordinates":[[[-84.594214,40.864649],[-84.594142,40.864649],[-84.594161,40.863945],[-84.594332,40.863944],[-84.594342,40.864425],[-84.594256,40.864426],[-84.594258,40.864648],[-84.594214,40.864649]]]},"properties":{"p":"12-030816.0200","o":"ZIAKAM ALIREZA","a":"NEELA                  DRW3","d":"VAN WERT CITY SCHOOL DISTRICT","t":1599.19,"l":"500: Res-Vacant Land","c":0}},{"type":"Feature","geometry":{"type":"Polygon","coordinates":[[[-84.589448,40.859692],[-84.589397,40.859693],[-84.589395,40.859418],[-84.589837,40.859414],[-84.589822,40.859689],[-84.589448,40.859692]]]},"properties":{"p":"12-030728.0000","o":"PERRY RHONDA LEE","a":"1032    GLENN                  STW3","d":"VAN WERT CITY SCHOOL DISTRICT","t":8.55,"l":"510: Res-Single Family","c":0}},{"type":"Feature","geometry":{"type":"Polygon","coordinates":[[[-84.603444,40.845106],[-84.60344,40.844788],[-84.604398,40.844785],[-84.60423,40.845103],[-84.603444,40.845106]]]},"properties":{"p":"12-030478.7500","o":"GONZALEZ VICTOR L","a":"10983    ST RT 118","d":"VAN WERT CITY SCHOOL DISTRICT","t":688.01,"l":"510: Res-Single Family","c":0}},{"type":"Feature","geometry":{"type":"Polygon","coordinates":[[[-84.58147,40.847722],[-84.581468,40.847283],[-84.58183,40.847282],[-84.581832,40.847721],[-84.58147,40.847722]]]},"properties":{"p":"12-030478.3000","o":"MELMARK PROPERTIES LLC","a":"12981    SUNSET                 DR","d":"VAN WERT CITY SCHOOL DISTRICT","t":501.3,"l":"510: Res-Single Family","c":0}},{"type":"Feature","geometry":{"type":"Polygon","coordinates":[[[-84.576672,40.877511],[-84.576673,40.877],[-84.577282,40.877001],[-84.577282,40.877144],[-84.577611,40.877141],[-84.577613,40.877322],[-84.577284,40.877325],[-84.577286,40.877506],[-84.576672,40.877511]]]},"properties":{"p":"12-030473.4186","o":"MILLS ERIK R","a":"646 N  CHERRY                 STW1","d":"VAN WERT CITY SCHOOL DISTRICT","t":570.33,"l":"510: Res-Single Family","c":0}},{"type":"Feature","geometry":{"type":"Polygon","coordinates":[[[-84.569903,40.858607],[-84.570026,40.858676],[-84.570161,40.858697],[-84.57016,40.859049],[-84.5697,40.85905],[-84.569707,40.858941],[-84.569747,40.858814],[-84.56982,40.858695],[-84.569903,40.858607]]]},"properties":{"p":"12-029288.0000","o":"GATES CHRISTOPHER D","a":"1032 E  ERVIN                  RDW4","d":"VAN WERT CITY SCHOOL DISTRICT","t":6304.45,"l":"510: Res-Single Family","c":0}},{"type":"Feature","geometry":{"type":"Polygon","coordinates":[[[-84.571225,40.855433],[-84.571302,40.85543],[-84.571302,40.855432],[-84.571225,40.855433]]]},"properties":{"p":"12-029084.0000","o":"DO NOT MAIL","a":"LINDEN                 DRW4","d":"VAN WERT CITY SCHOOL DISTRICT","t":52.93,"l":"500: Res-Vacant Land","c":0}},{"type":"Feature","geometry":{"type":"Polygon","coordinates":[[[-84.597761,40.860035],[-84.597544,40.860037],[-84.597539,40.85987],[-84.597969,40.859866],[-84.597971,40.860034],[-84.597761,40.860035]]]},"properties":{"p":"12-027892.0000","o":"DUTTON PAUL D","a":"AIRPORT                AVW3","d":"VAN WERT CITY SCHOOL DISTRICT","t":49.74,"l":"500: Res-Vacant Land","c":0}},{"type":"Feature","geometry":{"type":"Polygon","coordinates":[[[-84.597535,40.859702],[-84.59753,40.859535],[-84.597965,40.859532],[-84.597967,40.859699],[-84.597535,40.859702]]]},"properties":{"p":"12-027884.0000","o":"DUTTON PAUL D","a":"AIRPORT                AVW3","d":"VAN WERT CITY SCHOOL DISTRICT","t":49.74,"l":"500: Res-Vacant Land","c":0}},{"type":"Feature","geometry":{"type":"Polygon","coordinates":[[[-84.59753,40.859535],[-84.597526,40.859367],[-84.597964,40.859365],[-84.597965,40.859532],[-84.59753,40.859535]]]},"properties":{"p":"12-027880.0000","o":"DUTTON PAUL D","a":"AIRPORT                AVW3","d":"VAN WERT CITY SCHOOL DISTRICT","t":49.74,"l":"500: Res-Vacant Land","c":0}},{"type":"Feature","geometry":{"type":"Polygon","coordinates":[[[-84.59815,40.859865],[-84.598148,40.859698],[-84.598585,40.859695],[-84.598587,40.859862],[-84.59815,40.859865]]]},"properties":{"p":"12-027868.0000","o":"DUTTON PAUL D","a":"SOUTHWAY               STW3","d":"VAN WERT CITY SCHOOL DISTRICT","t":49.74,"l":"500: Res-Vacant Land","c":0}},{"type":"Feature","geometry":{"type":"Polygon","coordinates":[[[-84.598151,40.860032],[-84.59815,40.859865],[-84.598587,40.859862],[-84.598589,40.860029],[-84.598151,40.860032]]]},"properties":{"p":"12-027864.0000","o":"DUTTON PAUL D","a":"SOUTHWAY               STW3","d":"VAN WERT CITY SCHOOL DISTRICT","t":49.74,"l":"500: Res-Vacant Land","c":0}},{"type":"Feature","geometry":{"type":"Polygon","coordinates":[[[-84.598153,40.860199],[-84.598151,40.860032],[-84.598589,40.860029],[-84.59859,40.860196],[-84.598153,40.860199]]]},"properties":{"p":"12-027860.0000","o":"DUTTON PAUL D","a":"SOUTHWAY               STW3","d":"VAN WERT CITY SCHOOL DISTRICT","t":49.74,"l":"500: Res-Vacant Land","c":0}},{"type":"Feature","geometry":{"type":"Polygon","coordinates":[[[-84.597526,40.859367],[-84.597523,40.859257],[-84.597962,40.859255],[-84.597964,40.859365],[-84.597526,40.859367]]]},"properties":{"p":"12-027168.0000","o":"DUTTON PAUL D","a":"SOUTHWAY               STW3","d":"VAN WERT CITY SCHOOL DISTRICT","t":33.37,"l":"500: Res-Vacant Land","c":0}},{"type":"Feature","geometry":{"type":"Polygon","coordinates":[[[-84.592527,40.876959],[-84.592531,40.876597],[-84.592712,40.876595],[-84.592708,40.876958],[-84.592527,40.876959]]]},"properties":{"p":"12-026072.0000","o":"TRIBOLET WARD TRAVIS L","a":"648    CABLE                  STW2","d":"VAN WERT CITY SCHOOL DISTRICT","t":2810.6,"l":"510: Res-Single Family","c":0}},{"type":"Feature","geometry":{"type":"Polygon","coordinates":[[[-84.571251,40.864891],[-84.571249,40.864769],[-84.571726,40.864765],[-84.571728,40.864887],[-84.571251,40.864891]]]},"properties":{"p":"12-025208.0000","o":"WAHMHOFF JACOB N","a":"512 S  FRANKLIN               STW4","d":"VAN WERT CITY SCHOOL DISTRICT","t":1007.77,"l":"510: Res-Single Family","c":0}},{"type":"Feature","geometry":{"type":"Polygon","coordinates":[[[-84.570014,40.866097],[-84.570012,40.86591],[-84.570489,40.865907],[-84.570492,40.866094],[-84.570014,40.866097]]]},"properties":{"p":"12-024684.0000","o":"MYERS DAVID E JR","a":"408 S  VINE                   STW4","d":"VAN WERT CITY SCHOOL DISTRICT","t":1564.48,"l":"510: Res-Single Family","c":0}},{"type":"Feature","geometry":{"type":"Polygon","coordinates":[[[-84.596761,40.878212],[-84.59676,40.878566],[-84.596533,40.878568],[-84.596534,40.878214],[-84.596761,40.878212]]]},"properties":{"p":"12-024620.0000","o":"RODE THOMAS T","a":"918    MCKINLEY               STW2","d":"VAN WERT CITY SCHOOL DISTRICT","t":1299.41,"l":"510: Res-Single Family","c":0}},{"type":"Feature","geometry":{"type":"Polygon","coordinates":[[[-84.588082,40.860613],[-84.588627,40.860607],[-84.588628,40.860787],[-84.588083,40.860792],[-84.588082,40.860613]]]},"properties":{"p":"12-024168.0000","o":"VALLE MIGUEL SR & STUMP BRANDI A JTS","a":"326    WEBSTER                AVW3","d":"VAN WERT CITY SCHOOL DISTRICT","t":1230.95,"l":"510: Res-Single Family","c":0}},{"type":"Feature","geometry":{"type":"Polygon","coordinates":[[[-84.587247,40.877102],[-84.58725,40.876704],[-84.587466,40.876701],[-84.587463,40.877099],[-84.587247,40.877102]]]},"properties":{"p":"12-023868.0000","o":"SUMMERS DANIELLE D","a":"334    ANDERSON               AVW2","d":"VAN WERT CITY SCHOOL DISTRICT","t":109.44,"l":"500: Res-Vacant Land","c":0}},{"type":"Feature","geometry":{"type":"Polygon","coordinates":[[[-84.593088,40.876844],[-84.593088,40.876726],[-84.593623,40.876724],[-84.593623,40.876842],[-84.593088,40.876844]]]},"properties":{"p":"12-022924.0000","o":"ELLERBROCK VICTORIA A","a":"320    BURT                   STW2","d":"VAN WERT CITY SCHOOL DISTRICT","t":139.54,"l":"510: Res-Single Family","c":0}},{"type":"Feature","geometry":{"type":"Polygon","coordinates":[[[-84.581919,40.875384],[-84.581915,40.874999],[-84.582104,40.874998],[-84.582108,40.875383],[-84.581919,40.875384]]]},"properties":{"p":"12-021092.0000","o":"WALSER REX A & SANDRA K","a":"124 E  THIRD                  STW1","d":"VAN WERT CITY SCHOOL DISTRICT","t":781.82,"l":"510: Res-Single Family","c":0}},{"type":"Feature","geometry":{"type":"Polygon","coordinates":[[[-84.583512,40.865751],[-84.583511,40.86541],[-84.58375,40.865408],[-84.583751,40.865748],[-84.583512,40.865751]]]},"properties":{"p":"12-020928.0000","o":"DUNN JASON T & KRISTELL N JTS","a":"113    SOUTH                  AVW3","d":"VAN WERT CITY SCHOOL DISTRICT","t":2293.4,"l":"510: Res-Single Family","c":0}},{"type":"Feature","geometry":{"type":"Polygon","coordinates":[[[-84.569841,40.87192],[-84.569602,40.871922],[-84.569599,40.871742],[-84.570077,40.871738],[-84.570079,40.871918],[-84.569841,40.87192]]]},"properties":{"p":"12-019728.0000","o":"SHOWALTER KARLA J","a":"225 N  WAYNE                  STW1","d":"VAN WERT CITY SCHOOL DISTRICT","t":45.96,"l":"510: Res-Single Family","c":0}},{"type":"Feature","geometry":{"type":"Polygon","coordinates":[[[-84.572315,40.869812],[-84.572321,40.870175],[-84.572082,40.870177],[-84.572077,40.869814],[-84.572315,40.869812]]]},"properties":{"p":"12-019172.0000","o":"ELDER GREG A","a":"821 E  MAIN                   STW1","d":"VAN WERT CITY SCHOOL DISTRICT","t":1187.27,"l":"520: Res-Two Family","c":0}},{"type":"Feature","geometry":{"type":"Polygon","coordinates":[[[-84.572065,40.868998],[-84.572063,40.868816],[-84.572302,40.868814],[-84.572304,40.868996],[-84.572065,40.868998]]]},"properties":{"p":"12-019140.0000","o":"RILEY MATTHEW D & HEATHER M","a":"121 S  FRANKLIN               STW1","d":"VAN WERT CITY SCHOOL DISTRICT","t":1642.07,"l":"510: Res-Single Family","c":0}},{"type":"Feature","geometry":{"type":"Polygon","coordinates":[[[-84.575137,40.870976],[-84.575134,40.870795],[-84.575612,40.870791],[-84.575614,40.870972],[-84.575137,40.870976]]]},"properties":{"p":"12-018404.0000","o":"SHIE MICHAEL A","a":"200 N  TYLER                  STW1","d":"VAN WERT CITY SCHOOL DISTRICT","t":451.52,"l":"455: Com-Garage","c":0}},{"type":"Feature","geometry":{"type":"Polygon","coordinates":[[[-84.57514,40.871156],[-84.575137,40.870976],[-84.575614,40.870972],[-84.575617,40.871152],[-84.57514,40.871156]]]},"properties":{"p":"12-018400.0000","o":"SHIE MICHAEL A","a":"200 N  TYLER                  STW1","d":"VAN WERT CITY SCHOOL DISTRICT","t":1702.75,"l":"455: Com-Garage","c":0}},{"type":"Feature","geometry":{"type":"Polygon","coordinates":[[[-84.582285,40.873479],[-84.58228,40.873099],[-84.582399,40.873099],[-84.582404,40.873478],[-84.582285,40.873479]]]},"properties":{"p":"12-017992.0000","o":"LUICH KRISTI","a":"114 E  FIRST                  STW1","d":"VAN WERT CITY SCHOOL DISTRICT","t":1045.55,"l":"510: Res-Single Family","c":0}},{"type":"Feature","geometry":{"type":"Polygon","coordinates":[[[-84.582015,40.984882],[-84.582017,40.985417],[-84.581187,40.985419],[-84.581185,40.984884],[-84.582015,40.984882]]]},"properties":{"p":"09-013096.0100","o":"GRIFFITHS STEVE","a":"1339    SCOTT                  RD","d":"WAYNE TRACE LOCAL SCHOOL DISTRICT","t":71.75,"l":"510: Res-Single Family","c":0}},{"type":"Feature","geometry":{"type":"Polygon","coordinates":[[[-84.587111,40.989382],[-84.587105,40.988023],[-84.588062,40.988019],[-84.588067,40.989378],[-84.587111,40.989382]]]},"properties":{"p":"09-013060.0000","o":"HILL JAMES A HILL KENNETH E LE","a":"1070    HOLTERY                ST","d":"WAYNE TRACE LOCAL SCHOOL DISTRICT","t":1377.6,"l":"510: Res-Single Family","c":0}},{"type":"Feature","geometry":{"type":"Polygon","coordinates":[[[-84.585093,40.98656],[-84.585092,40.986224],[-84.586975,40.986215],[-84.586976,40.986544],[-84.585093,40.98656]]]},"properties":{"p":"09-012968.0000","o":"COLLINS ANNA M","a":"HAVEN                  ST","d":"WAYNE TRACE LOCAL SCHOOL DISTRICT","t":4532.26,"l":"500: Res-Vacant Land","c":0}},{"type":"Feature","geometry":{"type":"Polygon","coordinates":[[[-84.583716,40.986571],[-84.583715,40.986231],[-84.584405,40.986227],[-84.584406,40.986565],[-84.583716,40.986571]]]},"properties":{"p":"09-012960.0100","o":"RHODES DANIEL W & GINGER L JTS","a":"394    HAVEN                  ST","d":"WAYNE TRACE LOCAL SCHOOL DISTRICT","t":96,"l":"540: Res-Custom Code","c":0}},{"type":"Feature","geometry":{"type":"Polygon","coordinates":[[[-84.583729,40.989804],[-84.583728,40.989474],[-84.583862,40.989473],[-84.583863,40.989803],[-84.583729,40.989804]]]},"properties":{"p":"09-012688.0000","o":"STAHL THOMAS R","a":"BLAINE                 ST","d":"WAYNE TRACE LOCAL SCHOOL DISTRICT","t":490.44,"l":"510: Res-Single Family","c":0}},{"type":"Feature","geometry":{"type":"Polygon","coordinates":[[[-84.583651,40.989804],[-84.58365,40.989475],[-84.583728,40.989474],[-84.583729,40.989804],[-84.583651,40.989804]]]},"properties":{"p":"09-012672.0000","o":"STAHL THOMAS R","a":"12430    BLAINE                 ST","d":"WAYNE TRACE LOCAL SCHOOL DISTRICT","t":28.02,"l":"599: Res-Other","c":0}},{"type":"Feature","geometry":{"type":"MultiPolygon","coordinates":[[[[-84.581581,40.917219],[-84.581556,40.91359],[-84.581527,40.913591],[-84.581503,40.90897],[-84.581742,40.908969],[-84.58178,40.91359],[-84.581751,40.91359],[-84.581781,40.917218],[-84.581581,40.917219]]],[[[-84.581498,40.908329],[-84.581451,40.902706],[-84.58169,40.902705],[-84.581737,40.908328],[-84.581498,40.908329]]]]},"properties":{"p":"08-012616.0100","o":"CSX TRANSPORTATION ATTN: PROPERTY TAX","a":"CONVOY                 RD","d":"CRESTVIEW LOCAL SCHOOL DISTRICT","t":21610.1,"l":"400: Com-Vacant Land","c":0}},{"type":"Feature","geometry":{"type":"Polygon","coordinates":[[[-84.795169,40.745443],[-84.79532,40.745368],[-84.795845,40.745977],[-84.795694,40.746052],[-84.795169,40.745443]]]},"properties":{"p":"07-010596.0000","o":"BOWEN JAMES A","a":"410    SOUTH                  ST","d":"PARKWAY LOCAL SCHOOL DISTRICT","t":467.25,"l":"540: Res-Custom Code","c":0}},{"type":"Feature","geometry":{"type":"Polygon","coordinates":[[[-84.795018,40.745518],[-84.795169,40.745443],[-84.795694,40.746052],[-84.795544,40.746128],[-84.795018,40.745518]]]},"properties":{"p":"07-010592.0000","o":"BOWEN JAMES A","a":"410    SOUTH                  ST","d":"PARKWAY LOCAL SCHOOL DISTRICT","t":74.95,"l":"500: Res-Vacant Land","c":0}},{"type":"Feature","geometry":{"type":"Polygon","coordinates":[[[-84.795605,40.744573],[-84.795831,40.74446],[-84.796094,40.744765],[-84.795868,40.744878],[-84.795605,40.744573]]]},"properties":{"p":"07-010552.0000","o":"RATLIFF ASHLEY","a":"501    SOUTH                  ST","d":"PARKWAY LOCAL SCHOOL DISTRICT","t":400.53,"l":"510: Res-Single Family","c":0}},{"type":"Feature","geometry":{"type":"Polygon","coordinates":[[[-84.795342,40.744268],[-84.795568,40.744155],[-84.795831,40.74446],[-84.795605,40.744573],[-84.795342,40.744268]]]},"properties":{"p":"07-010520.0000","o":"MILLER JOE & SUSAN JTS","a":"502    GREEN                  ST","d":"PARKWAY LOCAL SCHOOL DISTRICT","t":434.9,"l":"560: Res-Mobile Home","c":0}},{"type":"Feature","geometry":{"type":"Polygon","coordinates":[[[-84.788848,40.743374],[-84.788844,40.743237],[-84.789476,40.743229],[-84.789478,40.743366],[-84.788848,40.743374]]]},"properties":{"p":"07-010332.0000","o":"COURTNEY RUTH X","a":"622    ST RT 49","d":"PARKWAY LOCAL SCHOOL DISTRICT","t":515.54,"l":"510: Res-Single Family","c":0}},{"type":"Feature","geometry":{"type":"Polygon","coordinates":[[[-84.793885,40.749898],[-84.793906,40.749861],[-84.794337,40.749836],[-84.794339,40.749705],[-84.794634,40.749876],[-84.794343,40.750162],[-84.793885,40.749898]]]},"properties":{"p":"07-010184.0000","o":"SEARLES CAROLYN","a":"117    HOGAN                  ST","d":"PARKWAY LOCAL SCHOOL DISTRICT","t":529.85,"l":"560: Res-Mobile Home","c":0}},{"type":"Feature","geometry":{"type":"Polygon","coordinates":[[[-84.796069,40.74903],[-84.795777,40.749316],[-84.795588,40.749207],[-84.795879,40.74892],[-84.796069,40.74903]]]},"properties":{"p":"07-010064.0000","o":"HAVILL JOHN T & LISA NICOLE JTS","a":"502    ST RT 33","d":"PARKWAY LOCAL SCHOOL DISTRICT","t":823.87,"l":"510: Res-Single Family","c":0}},{"type":"Feature","geometry":{"type":"Polygon","coordinates":[[[-84.790504,40.746116],[-84.78998,40.7462],[-84.789926,40.746],[-84.79045,40.745916],[-84.790504,40.746116]]]},"properties":{"p":"07-009860.0000","o":"219 INVESTMENTS LLC","a":"503    STATE & 505            ST","d":"PARKWAY LOCAL SCHOOL DISTRICT","t":532.01,"l":"520: Res-Two Family","c":0}},{"type":"Feature","geometry":{"type":"Polygon","coordinates":[[[-84.739401,40.757113],[-84.727362,40.757023],[-84.727363,40.756933],[-84.743052,40.757004],[-84.746624,40.757057],[-84.746624,40.757166],[-84.739401,40.757113]]]},"properties":{"p":"06-008746.0000","o":"LONG PRAIRIE WIND I LLC","a":"","d":"PARKWAY LOCAL SCHOOL DISTRICT","t":279.44,"l":"400: Com-Vacant Land","c":0}},{"type":"Feature","geometry":{"type":"Polygon","coordinates":[[[-84.698353,40.760932],[-84.69982,40.760335],[-84.699735,40.760214],[-84.705575,40.757791],[-84.706183,40.757572],[-84.706807,40.757382],[-84.707446,40.757224],[-84.708012,40.757112],[-84.708011,40.757292],[-84.707511,40.757392],[-84.706886,40.757547],[-84.706274,40.757733],[-84.70568,40.757948],[-84.699551,40.760475],[-84.698353,40.760962],[-84.698353,40.760932]]]},"properties":{"p":"06-008514.0100","o":"LONG PRAIRIE WIND I LLC","a":"","d":"PARKWAY LOCAL SCHOOL DISTRICT","t":180.14,"l":"400: Com-Vacant Land","c":0}},{"type":"Feature","geometry":{"type":"Polygon","coordinates":[[[-84.688776,40.763851],[-84.689445,40.763807],[-84.690109,40.763729],[-84.691089,40.763551],[-84.691727,40.763392],[-84.69235,40.763201],[-84.692956,40.76298],[-84.696264,40.761629],[-84.696265,40.761473],[-84.69693,40.761202],[-84.69693,40.761354],[-84.697032,40.761499],[-84.693054,40.763127],[-84.692444,40.76335],[-84.691816,40.763542],[-84.691173,40.763704],[-84.690585,40.763829],[-84.689686,40.763961],[-84.688774,40.764023],[-84.688776,40.763851]]]},"properties":{"p":"06-008514.0000","o":"LONG PRAIRIE WIND I LLC","a":"","d":"VAN WERT CITY SCHOOL DISTRICT","t":243.85,"l":"400: Com-Vacant Land","c":0}},{"type":"Feature","geometry":{"type":"Polygon","coordinates":[[[-84.717687,40.757108],[-84.710075,40.757098],[-84.709086,40.757154],[-84.708433,40.757232],[-84.708011,40.757301],[-84.708012,40.757103],[-84.708708,40.757],[-84.725196,40.757021],[-84.725196,40.757111],[-84.717687,40.757108]]]},"properties":{"p":"06-008498.0000","o":"LONG PRAIRIE WIND I LLC","a":"","d":"PARKWAY LOCAL SCHOOL DISTRICT","t":280.42,"l":"400: Com-Vacant Land","c":0}},{"type":"Feature","geometry":{"type":"Polygon","coordinates":[[[-84.739401,40.757204],[-84.739401,40.757113],[-84.746624,40.757166],[-84.746624,40.757257],[-84.739401,40.757204]]]},"properties":{"p":"06-008438.0100","o":"LONG PRAIRIE WIND I LLC","a":"","d":"PARKWAY LOCAL SCHOOL DISTRICT","t":120.34,"l":"400: Com-Vacant Land","c":0}},{"type":"Feature","geometry":{"type":"Polygon","coordinates":[[[-84.780113,40.771603],[-84.780098,40.769284],[-84.78086,40.76928],[-84.780876,40.771599],[-84.780113,40.771603]]]},"properties":{"p":"06-008372.0000","o":"HAMRICK MARVIN","a":"2228    WILLSHIRE OHIO CITY    RD","d":"PARKWAY LOCAL SCHOOL DISTRICT","t":2111.69,"l":"111: Agr-CAUV-Cash-Grain Farm","c":0}},{"type":"Feature","geometry":{"type":"Polygon","coordinates":[[[-84.77751,40.771618],[-84.777493,40.768867],[-84.780095,40.768853],[-84.780107,40.770699],[-84.777707,40.770713],[-84.777708,40.771617],[-84.77751,40.771618]]]},"properties":{"p":"06-008360.0400","o":"HAMRICK MARVIN D & FRANCE RICHARD D JTS","a":"WILLSHIRE OHIO CITY    RD","d":"PARKWAY LOCAL SCHOOL DISTRICT","t":987.35,"l":"110: Agr-CAUV-Vacant Land","c":0}},{"type":"Feature","geometry":{"type":"Polygon","coordinates":[[[-84.777708,40.771617],[-84.777707,40.770713],[-84.780107,40.770699],[-84.780113,40.771603],[-84.777708,40.771617]]]},"properties":{"p":"06-008360.0100","o":"HAMRICK MARVIN D & FRANCE RICHARD D JTS","a":"2320    WILLSHIRE OHIO CITY    RD","d":"PARKWAY LOCAL SCHOOL DISTRICT","t":2801.95,"l":"111: Agr-CAUV-Cash-Grain Farm","c":0}},{"type":"Feature","geometry":{"type":"Polygon","coordinates":[[[-84.774612,40.797957],[-84.77437,40.797959],[-84.774372,40.797157],[-84.775275,40.797152],[-84.775273,40.797951],[-84.774612,40.797957]]]},"properties":{"p":"05-008070.0000","o":"STUTZ ZACHARY L","a":"305 S  ST RT 49","d":"CRESTVIEW LOCAL SCHOOL DISTRICT","t":278.4,"l":"599: Res-Other","c":0}},{"type":"Feature","geometry":{"type":"Polygon","coordinates":[[[-84.775892,40.800451],[-84.775892,40.8003],[-84.776369,40.800295],[-84.776368,40.800446],[-84.775892,40.800451]]]},"properties":{"p":"05-007644.0000","o":"BUCKNER ERICA","a":"105    STATE                  ST","d":"CRESTVIEW LOCAL SCHOOL DISTRICT","t":124.49,"l":"560: Res-Mobile Home","c":0}},{"type":"Feature","geometry":{"type":"Polygon","coordinates":[[[-84.774369,40.800044],[-84.774499,40.799645],[-84.774673,40.799676],[-84.774542,40.800076],[-84.774369,40.800044]]]},"properties":{"p":"05-007488.0000","o":"STUTZ ZACHARY L","a":"108 E  MAIN                   ST","d":"CRESTVIEW LOCAL SCHOOL DISTRICT","t":206.85,"l":"599: Res-Other","c":0}},{"type":"Feature","geometry":{"type":"Polygon","coordinates":[[[-84.774506,40.771636],[-84.774867,40.771634],[-84.774876,40.772524],[-84.774515,40.772526],[-84.774506,40.771636]]]},"properties":{"p":"04-007348.0000","o":"BOWEN DENNIS L & NATALIE J JTS","a":"2543    WILLSHIRE OHIO CITY    RD","d":"CRESTVIEW LOCAL SCHOOL DISTRICT","t":2718.07,"l":"510: Res-Single Family","c":0}},{"type":"Feature","geometry":{"type":"Polygon","coordinates":[[[-84.765812,40.775403],[-84.76581,40.776536],[-84.765257,40.776537],[-84.765259,40.775404],[-84.765812,40.775403]]]},"properties":{"p":"04-007296.0100","o":"BLAKE SHARLEY J","a":"15699    CLAYTON                RD","d":"CRESTVIEW LOCAL SCHOOL DISTRICT","t":1772.01,"l":"500: Res-Vacant Land","c":0}},{"type":"Feature","geometry":{"type":"Polygon","coordinates":[[[-84.722466,40.789539],[-84.712914,40.787808],[-84.712914,40.787699],[-84.712703,40.78766],[-84.712703,40.78777],[-84.707973,40.786913],[-84.707972,40.78663],[-84.727285,40.79013],[-84.727283,40.790412],[-84.722466,40.789539]]]},"properties":{"p":"04-007142.0000","o":"WOLLET TIMOTHY","a":"GLENMORE               RD","d":"CRESTVIEW LOCAL SCHOOL DISTRICT","t":7.82,"l":"500: Res-Vacant Land","c":0}},{"type":"Feature","geometry":{"type":"Polygon","coordinates":[[[-84.740293,40.792755],[-84.727283,40.790412],[-84.727285,40.79013],[-84.742262,40.792828],[-84.742597,40.792805],[-84.743446,40.792962],[-84.74342,40.793042],[-84.746671,40.79364],[-84.746673,40.793923],[-84.740293,40.792755]]]},"properties":{"p":"04-007106.0000","o":"WOLLET TIMOTHY","a":"GLENMORE               RD","d":"CRESTVIEW LOCAL SCHOOL DISTRICT","t":7.82,"l":"500: Res-Vacant Land","c":0}},{"type":"Feature","geometry":{"type":"Polygon","coordinates":[[[-84.774612,40.797155],[-84.774613,40.796734],[-84.775276,40.796728],[-84.775275,40.797152],[-84.774612,40.797155]]]},"properties":{"p":"04-006984.0200","o":"STUTZ ZACHARY L","a":"ST RT 49","d":"CRESTVIEW LOCAL SCHOOL DISTRICT","t":152.48,"l":"599: Res-Other","c":0}},{"type":"Feature","geometry":{"type":"Polygon","coordinates":[[[-84.707397,40.920942],[-84.707397,40.920761],[-84.707875,40.920761],[-84.707875,40.920942],[-84.707397,40.920942]]]},"properties":{"p":"02-003852.0000","o":"HUNTER KAREN","a":"503 N  MAIN                   ST","d":"CRESTVIEW LOCAL SCHOOL DISTRICT","t":486.24,"l":"510: Res-Single Family","c":0}},{"type":"Feature","geometry":{"type":"Polygon","coordinates":[[[-84.708803,40.915009],[-84.708804,40.914669],[-84.709131,40.914669],[-84.709129,40.915009],[-84.708803,40.915009]]]},"properties":{"p":"02-003336.0000","o":"BEROGAN CHRISTOPHER","a":"134    PETTIT                 ST","d":"CRESTVIEW LOCAL SCHOOL DISTRICT","t":751.72,"l":"510: Res-Single Family","c":0}},{"type":"Feature","geometry":{"type":"Polygon","coordinates":[[[-84.707407,40.914832],[-84.707408,40.914668],[-84.70789,40.914668],[-84.707889,40.914832],[-84.707407,40.914832]]]},"properties":{"p":"02-003304.0000","o":"LEMIEUX JONNA M","a":"321 S  MAIN                   ST","d":"CRESTVIEW LOCAL SCHOOL DISTRICT","t":5184.39,"l":"510: Res-Single Family","c":0}},{"type":"Feature","geometry":{"type":"Polygon","coordinates":[[[-84.705069,40.917323],[-84.705064,40.91696],[-84.705303,40.91696],[-84.705308,40.917324],[-84.705069,40.917323]]]},"properties":{"p":"02-003160.0000","o":"LUCENTE JOHN J","a":"222 E  TULLY                  ST","d":"CRESTVIEW LOCAL SCHOOL DISTRICT","t":1983.12,"l":"510: Res-Single Family","c":0}},{"type":"Feature","geometry":{"type":"Polygon","coordinates":[[[-84.710941,40.916445],[-84.710943,40.916083],[-84.711191,40.916083],[-84.711189,40.916445],[-84.710941,40.916445]]]},"properties":{"p":"02-002508.0000","o":"ROTHGEB TYLER A & CARRIE I","a":"304    BEAMER                 ST","d":"CRESTVIEW LOCAL SCHOOL DISTRICT","t":194.83,"l":"500: Res-Vacant Land","c":0}},{"type":"Feature","geometry":{"type":"Polygon","coordinates":[[[-84.711008,40.91649],[-84.711189,40.91649],[-84.711189,40.916542],[-84.711008,40.91649]]]},"properties":{"p":"02-002472.0100","o":"DO NOT MAIL","a":"TULLY                  ST","d":"CRESTVIEW LOCAL SCHOOL DISTRICT","t":430.63,"l":"500: Res-Vacant Land","c":0}},{"type":"Feature","geometry":{"type":"Polygon","coordinates":[[[-84.781529,40.902378],[-84.78248,40.902374],[-84.782486,40.903137],[-84.781534,40.903141],[-84.781529,40.902378]]]},"properties":{"p":"01-001776.0100","o":"WALDEN HALEY L & TIMOTHY G","a":"2135    TULLY HARRISON         RD","d":"CRESTVIEW LOCAL SCHOOL DISTRICT","t":1400.57,"l":"510: Res-Single Family","c":0}},{"type":"Feature","geometry":{"type":"Polygon","coordinates":[[[-84.788883,40.909667],[-84.788912,40.902341],[-84.788942,40.902341],[-84.788913,40.909667],[-84.788883,40.909667]]]},"properties":{"p":"01-001682.0000","o":"DO NOT MAIL","a":"TULLY HARRISON         RD","d":"CRESTVIEW LOCAL SCHOOL DISTRICT","t":282.95,"l":"500: Res-Vacant Land","c":0}},{"type":"Feature","geometry":{"type":"Polygon","coordinates":[[[-84.726513,40.980474],[-84.72652,40.9813],[-84.725471,40.981305],[-84.725464,40.980479],[-84.726513,40.980474]]]},"properties":{"p":"01-000064.0400","o":"EDGELL CHRIS A","a":"1625    ST RT 49","d":"CRESTVIEW LOCAL SCHOOL DISTRICT","t":2804.52,"l":"510: Res-Single Family","c":0}},{"type":"Feature","geometry":{"type":"Polygon","coordinates":[[[-84.346144,40.846268],[-84.346142,40.846107],[-84.34636,40.846105],[-84.346361,40.846267],[-84.346144,40.846268]]]},"properties":{"p":"25-048596.0000","o":"JWJ HOUSE LLC","a":"409 N  BREDEICK               ST","d":"DELPHOS CITY SCHOOL DISTRICT","t":10270.14,"l":"510: Res-Single Family","c":0}},{"type":"Feature","geometry":{"type":"Polygon","coordinates":[[[-84.346137,40.845531],[-84.346354,40.845529],[-84.346356,40.845724],[-84.346139,40.845726],[-84.346137,40.845531]]]},"properties":{"p":"25-048620.0000","o":"BLACKBURN JEFFREY C","a":"317 N  BREDEICK               ST","d":"DELPHOS CITY SCHOOL DISTRICT","t":1081.05,"l":"510: Res-Single Family","c":0}},{"type":"Feature","geometry":{"type":"Polygon","coordinates":[[[-84.350551,40.833673],[-84.350548,40.833305],[-84.350788,40.833304],[-84.35079,40.833672],[-84.350551,40.833673]]]},"properties":{"p":"25-049676.0000","o":"NICHOLS ISAAC & STEPHEN JTS","a":"821 W  CLIME                  ST","d":"DELPHOS CITY SCHOOL DISTRICT","t":701.7,"l":"510: Res-Single Family","c":0}},{"type":"Feature","geometry":{"type":"Polygon","coordinates":[[[-84.35007,40.833308],[-84.350073,40.833675],[-84.349834,40.833676],[-84.349831,40.833309],[-84.35007,40.833308]]]},"properties":{"p":"25-049688.0000","o":"HARNER KENNETH M","a":"803 W  CLIME                  ST","d":"DELPHOS CITY SCHOOL DISTRICT","t":282.5,"l":"510: Res-Single Family","c":0}},{"type":"Feature","geometry":{"type":"Polygon","coordinates":[[[-84.343914,40.832945],[-84.343914,40.833307],[-84.343676,40.833308],[-84.343677,40.832946],[-84.343914,40.832945]]]},"properties":{"p":"25-049776.0000","o":"HERNDON JILL","a":"1033 S  CLAY                   ST","d":"DELPHOS CITY SCHOOL DISTRICT","t":1219.79,"l":"510: Res-Single Family","c":0}},{"type":"Feature","geometry":{"type":"Polygon","coordinates":[[[-84.345804,40.842217],[-84.345806,40.84258],[-84.345624,40.842581],[-84.34562,40.842218],[-84.345804,40.842217]]]},"properties":{"p":"25-049888.0000","o":"OSBURN ROBERT G & PATRICIA G C/0 OSBURN PATRICIA","a":"527 W  FIRST                  ST","d":"DELPHOS CITY SCHOOL DISTRICT","t":2014.76,"l":"510: Res-Single Family","c":0}},{"type":"Feature","geometry":{"type":"Polygon","coordinates":[[[-84.347127,40.841337],[-84.347133,40.840975],[-84.347372,40.840977],[-84.347366,40.841339],[-84.347127,40.841337]]]},"properties":{"p":"25-049960.0000","o":"SOWARDS JENNIFER A","a":"621 W  BANK                   ST","d":"DELPHOS CITY SCHOOL DISTRICT","t":4481.27,"l":"510: Res-Single Family","c":0}},{"type":"Feature","geometry":{"type":"Polygon","coordinates":[[[-84.347116,40.841337],[-84.34712,40.841116],[-84.347093,40.841116],[-84.347094,40.841073],[-84.346893,40.841071],[-84.346895,40.840972],[-84.347133,40.840975],[-84.347127,40.841337],[-84.347116,40.841337]]]},"properties":{"p":"25-049964.0000","o":"SOWARDS JENNIFER A","a":"W  BANK                   ST","d":"DELPHOS CITY SCHOOL DISTRICT","t":437.37,"l":"599: Res-Other","c":0}},{"type":"Feature","geometry":{"type":"Polygon","coordinates":[[[-84.344839,40.839205],[-84.344839,40.839023],[-84.345316,40.839017],[-84.345316,40.839199],[-84.344839,40.839205]]]},"properties":{"p":"25-050648.0000","o":"THOMPSON ANGELA AKA ANGELA D","a":"415 S  CASS                   ST","d":"DELPHOS CITY SCHOOL DISTRICT","t":1164.13,"l":"510: Res-Single Family","c":0}},{"type":"Feature","geometry":{"type":"Polygon","coordinates":[[[-84.340594,40.85231],[-84.340969,40.852302],[-84.340971,40.852471],[-84.340595,40.85248],[-84.340594,40.85231]]]},"properties":{"p":"25-050800.0000","o":"WUEBBENHORST KATHRYN D","a":"1010 N  CANAL                  ST","d":"DELPHOS CITY SCHOOL DISTRICT","t":559.44,"l":"510: Res-Single Family","c":0}},{"type":"Feature","geometry":{"type":"Polygon","coordinates":[[[-84.345647,40.840217],[-84.345646,40.840097],[-84.346217,40.840089],[-84.346215,40.84021],[-84.345647,40.840217]]]},"properties":{"p":"25-051132.0000","o":"DITTO DAVID V","a":"322 S  BREDEICK               ST","d":"DELPHOS CITY SCHOOL DISTRICT","t":1133.33,"l":"510: Res-Single Family","c":0}},{"type":"Feature","geometry":{"type":"Polygon","coordinates":[[[-84.343685,40.840434],[-84.343683,40.840269],[-84.344276,40.840262],[-84.344276,40.840427],[-84.343685,40.840434]]]},"properties":{"p":"25-051236.0000","o":"BROCK CAROLYN","a":"315 S  CLAY                   ST","d":"DELPHOS CITY SCHOOL DISTRICT","t":687.97,"l":"510: Res-Single Family","c":0}},{"type":"Feature","geometry":{"type":"Polygon","coordinates":[[[-84.344401,40.835325],[-84.3444,40.835038],[-84.34496,40.835036],[-84.344961,40.835322],[-84.344401,40.835325]]]},"properties":{"p":"25-051640.0000","o":"AGLER TOM A SR","a":"820    PINEHURST              DR","d":"DELPHOS CITY SCHOOL DISTRICT","t":255.57,"l":"510: Res-Single Family","c":0}},{"type":"Feature","geometry":{"type":"Polygon","coordinates":[[[-84.436315,40.828654],[-84.436306,40.827979],[-84.437192,40.827973],[-84.437199,40.828648],[-84.436315,40.828654]]]},"properties":{"p":"26-053352.0300","o":"BRINKMAN D W & C LIVING TRUST CAROLYN BRINKMAN TRUSTEE","a":"12118    MIDDLE POINT WETZEL    RD","d":"LINCOLNVIEW LOCAL SCHOOL DISTRICT","t":698.23,"l":"510: Res-Single Family","c":0}},{"type":"Feature","geometry":{"type":"Polygon","coordinates":[[[-84.446662,40.85723],[-84.446748,40.856874],[-84.447217,40.856937],[-84.447132,40.857294],[-84.446662,40.85723]]]},"properties":{"p":"27-053836.0000","o":"MCCARTHY DAVID D & TERRI L","a":"303    TYLER                  ST","d":"LINCOLNVIEW LOCAL SCHOOL DISTRICT","t":3639.93,"l":"510: Res-Single Family","c":0}},{"type":"Feature","geometry":{"type":"Polygon","coordinates":[[[-84.445013,40.856767],[-84.445015,40.85713],[-84.444777,40.857129],[-84.444774,40.856767],[-84.445013,40.856767]]]},"properties":{"p":"27-053928.0000","o":"BROWN DENISE ANN (GLOSSETT)","a":"302 N  WALNUT                 ST","d":"LINCOLNVIEW LOCAL SCHOOL DISTRICT","t":1036.27,"l":"510: Res-Single Family","c":0}},{"type":"Feature","geometry":{"type":"Polygon","coordinates":[[[-84.447481,40.85367],[-84.447557,40.853313],[-84.447795,40.853341],[-84.447717,40.853698],[-84.447481,40.85367]]]},"properties":{"p":"27-054016.0000","o":"WEST ANTHONY J & JENNIFER L JTS","a":"110    SOUTH                  ST","d":"LINCOLNVIEW LOCAL SCHOOL DISTRICT","t":1743.6,"l":"510: Res-Single Family","c":0}},{"type":"Feature","geometry":{"type":"Polygon","coordinates":[[[-84.446584,40.853199],[-84.446446,40.853549],[-84.446099,40.853508],[-84.446098,40.853142],[-84.446584,40.853199]]]},"properties":{"p":"27-054036.0000","o":"REDDING RYKER LJ","a":"202    SOUTH ADAMS            ST","d":"LINCOLNVIEW LOCAL SCHOOL DISTRICT","t":411.22,"l":"510: Res-Single Family","c":0}},{"type":"Feature","geometry":{"type":"Polygon","coordinates":[[[-84.447492,40.855273],[-84.447625,40.855201],[-84.447856,40.85523],[-84.447762,40.855635],[-84.447423,40.85559],[-84.447492,40.855273]]]},"properties":{"p":"27-054356.0000","o":"THOMAS SANDRA","a":"202 W  JACKSON                ST","d":"LINCOLNVIEW LOCAL SCHOOL DISTRICT","t":55.19,"l":"510: Res-Single Family","c":0}},{"type":"Feature","geometry":{"type":"Polygon","coordinates":[[[-84.444924,40.79147],[-84.454032,40.789027],[-84.454032,40.789158],[-84.452287,40.789628],[-84.45227,40.78959],[-84.450668,40.790022],[-84.450668,40.790037],[-84.444923,40.791587],[-84.444924,40.79147]]]},"properties":{"p":"28-054950.0000","o":"RAILROAD PROPERTIES L P C/O ROBERT R FOWLER","a":"","d":"SPENCERVILLE LOCAL SCHOOL DISTRICT","t":1530.41,"l":"400: Com-Vacant Land","c":0}},{"type":"Feature","geometry":{"type":"Polygon","coordinates":[[[-84.425737,40.797346],[-84.426072,40.797215],[-84.42665,40.796956],[-84.428408,40.796062],[-84.42919,40.795748],[-84.429733,40.795572],[-84.435306,40.794064],[-84.435305,40.794181],[-84.429783,40.795675],[-84.429249,40.795848],[-84.428732,40.796048],[-84.428233,40.796274],[-84.426729,40.797048],[-84.426259,40.797262],[-84.425735,40.797469],[-84.425737,40.797346]]]},"properties":{"p":"30-056382.0000","o":"RAILROAD PROPERTIES LP C/O ROBERT R FOWLER","a":"","d":"LINCOLNVIEW LOCAL SCHOOL DISTRICT","t":2046.59,"l":"400: Com-Vacant Land","c":0}}]}