{"type":"FeatureCollection","features":[{"type":"Feature","geometry":{"type":"Polygon","coordinates":[[[-84.316074,40.467225],[-84.316075,40.467084],[-84.316825,40.467075],[-84.316824,40.467216],[-84.316074,40.467225]]]},"properties":{"p":"56-0132300.013","o":"BROWN JAMES A & LYNNETTE K","a":"BOTKINS RD","d":"NEW KNOXVILLE LOCAL SCHOOL DISTRICT","t":23.8,"l":"500: Res-Vacant Land","c":0}},{"type":"Feature","geometry":{"type":"Polygon","coordinates":[[[-84.189682,40.468232],[-84.189679,40.46786],[-84.189916,40.467859],[-84.189919,40.468232],[-84.189682,40.468232]]]},"properties":{"p":"11-0232454.008","o":"MALLOW ALLEN D","a":"602 W STATE ST BOTKINS 45306","d":"BOTKINS LOCAL SCHOOL DISTRICT","t":1047.56,"l":"510: Res-Single Family","c":0}},{"type":"Feature","geometry":{"type":"Polygon","coordinates":[[[-84.181522,40.468566],[-84.181499,40.468387],[-84.182069,40.468383],[-84.182092,40.468562],[-84.181522,40.468566]]]},"properties":{"p":"11-0233358.010","o":"ALTSTAETTER MICHAEL M","a":"106 N MAIN ST BOTKINS 45306","d":"BOTKINS LOCAL SCHOOL DISTRICT","t":800.72,"l":"510: Res-Single Family","c":0}},{"type":"Feature","geometry":{"type":"Polygon","coordinates":[[[-84.041351,40.446522],[-84.041348,40.446052],[-84.043379,40.446085],[-84.043366,40.446555],[-84.041351,40.446522]]]},"properties":{"p":"20-0610326.003","o":"BUNKE FREDERICK G","a":"100 JERRY DR JACKSON CENTER 45334","d":"JACKSON CENTER LOCAL SCHOOL DISTRICT","t":2476.89,"l":"330: Ind-Manufacturing-Medium","c":0}},{"type":"Feature","geometry":{"type":"Polygon","coordinates":[[[-84.039602,40.440082],[-84.03976,40.440082],[-84.03976,40.440012],[-84.040072,40.440012],[-84.040073,40.440191],[-84.039603,40.440191],[-84.039602,40.440082]]]},"properties":{"p":"20-0610463.003","o":"WIS-OH HOLDINGS LLC","a":"106 MAIN ST JACKSON CENTER 45334","d":"JACKSON CENTER LOCAL SCHOOL DISTRICT","t":36.52,"l":"499: Com-Other","c":0}},{"type":"Feature","geometry":{"type":"Polygon","coordinates":[[[-84.036526,40.43911],[-84.036538,40.438817],[-84.036723,40.438823],[-84.036782,40.439119],[-84.036526,40.43911]]]},"properties":{"p":"20-0615203.007","o":"HUGHES LEONARD & VICKIE","a":"404 DAVIS ST JACKSON CENTER 45334","d":"JACKSON CENTER LOCAL SCHOOL DISTRICT","t":5331.96,"l":"510: Res-Single Family","c":0}},{"type":"Feature","geometry":{"type":"Polygon","coordinates":[[[-84.074655,40.434138],[-84.074656,40.433144],[-84.075231,40.43314],[-84.075232,40.432316],[-84.075399,40.432315],[-84.075396,40.434134],[-84.074655,40.434138]]]},"properties":{"p":"19-0617200.010","o":"HAGER CLINTON & SHERRI","a":"MONTRA RD","d":"JACKSON CENTER LOCAL SCHOOL DISTRICT","t":908.22,"l":"500: Res-Vacant Land","c":0}},{"type":"Feature","geometry":{"type":"Polygon","coordinates":[[[-84.09596,40.432633],[-84.09596,40.43261],[-84.0967,40.432605],[-84.0967,40.432627],[-84.09596,40.432633]]]},"properties":{"p":"19-0618251.022","o":"COOPER ALICIA J","a":"MONTRA RD REAR","d":"JACKSON CENTER LOCAL SCHOOL DISTRICT","t":17.9,"l":"500: Res-Vacant Land","c":0}},{"type":"Feature","geometry":{"type":"Polygon","coordinates":[[[-84.024769,40.401732],[-84.024759,40.401712],[-84.025593,40.401918],[-84.025765,40.402],[-84.025824,40.40208],[-84.025834,40.402142],[-84.02581,40.402389],[-84.025772,40.402562],[-84.025785,40.402616],[-84.025209,40.402674],[-84.024769,40.401732]]]},"properties":{"p":"19-0637200.002","o":"NAPIER LINDA S","a":"13981 TAWAWA MAPLEWOOD RD","d":"JACKSON CENTER LOCAL SCHOOL DISTRICT","t":1461.02,"l":"540: Res-Custom Code","c":0}},{"type":"Feature","geometry":{"type":"Polygon","coordinates":[[[-84.348994,40.373682],[-84.348989,40.373517],[-84.349054,40.373516],[-84.349058,40.373681],[-84.348994,40.373682]]]},"properties":{"p":"32-0701179.010","o":"BERKEY JOHN DWIGHT","a":"ASH RD","d":"MINSTER LOCAL SCHOOL DISTRICT","t":60.1,"l":"500: Res-Vacant Land","c":0}},{"type":"Feature","geometry":{"type":"Polygon","coordinates":[[[-84.348867,40.373683],[-84.348863,40.373518],[-84.348989,40.373517],[-84.348994,40.373682],[-84.348867,40.373683]]]},"properties":{"p":"32-0701179.011","o":"BERKEY JOHN DWIGHT","a":"12149 ASH RD","d":"MINSTER LOCAL SCHOOL DISTRICT","t":879.63,"l":"510: Res-Single Family","c":0}},{"type":"Feature","geometry":{"type":"Polygon","coordinates":[[[-84.240178,40.372553],[-84.240289,40.372551],[-84.240288,40.372827],[-84.239929,40.372834],[-84.23993,40.372558],[-84.240178,40.372553]]]},"properties":{"p":"45-0801300.001","o":"ROBINSON RONSON","a":"HARDIN WAPAKONETA RD","d":"ANNA LOCAL SCHOOL DISTRICT","t":21.5,"l":"500: Res-Vacant Land","c":0}},{"type":"Feature","geometry":{"type":"Polygon","coordinates":[[[-84.213832,40.316198],[-84.21383,40.316136],[-84.215506,40.316116],[-84.215533,40.317329],[-84.213857,40.317349],[-84.213832,40.316198]]]},"properties":{"p":"48-1816400.004","o":"PEACOCK VERNON E JR","a":"3490 CISCO RD","d":"HARDIN-HOUSTON LOCAL SCHOOL DISTRICT","t":837.14,"l":"540: Res-Custom Code","c":0}},{"type":"Feature","geometry":{"type":"Polygon","coordinates":[[[-84.166517,40.293912],[-84.166931,40.293906],[-84.166934,40.294025],[-84.16652,40.294031],[-84.166517,40.293912]]]},"properties":{"p":"01-1825302.011","o":"LEE DEBRA M & JACQUELINE SHROPSHIRE ETAL","a":"N BUCKEYE AVE SIDNEY 45365","d":"SIDNEY CITY SCHOOL DISTRICT","t":3437.46,"l":"500: Res-Vacant Land","c":0}},{"type":"Feature","geometry":{"type":"Polygon","coordinates":[[[-84.166044,40.293798],[-84.166929,40.293785],[-84.166931,40.293906],[-84.166046,40.293919],[-84.166044,40.293798]]]},"properties":{"p":"01-1825302.013","o":"LEE DEBRA M & JACQUELINE SHROPSHIRE ETAL","a":"N BUCKEYE AVE SIDNEY 45365","d":"SIDNEY CITY SCHOOL DISTRICT","t":4079.28,"l":"500: Res-Vacant Land","c":0}},{"type":"Feature","geometry":{"type":"Polygon","coordinates":[[[-84.165948,40.292563],[-84.166097,40.29256],[-84.166108,40.293036],[-84.165959,40.293038],[-84.165948,40.292563]]]},"properties":{"p":"01-1825302.043","o":"LEE SHIRLEY A & BETTY LEE & MARGARET KEITH ETAL","a":"624 PARK ST SIDNEY 45365","d":"SIDNEY CITY SCHOOL DISTRICT","t":5369.77,"l":"510: Res-Single Family","c":0}},{"type":"Feature","geometry":{"type":"Polygon","coordinates":[[[-84.164419,40.293943],[-84.164472,40.293942],[-84.164367,40.293532],[-84.164978,40.293523],[-84.164984,40.294054],[-84.16445,40.294062],[-84.164419,40.293943]]]},"properties":{"p":"01-1825303.015","o":"DORSEY SCOTT N","a":"720 LINDEN AVE SIDNEY 45365","d":"SIDNEY CITY SCHOOL DISTRICT","t":10443.15,"l":"499: Com-Other","c":0}},{"type":"Feature","geometry":{"type":"Polygon","coordinates":[[[-84.162561,40.294478],[-84.16256,40.294429],[-84.16408,40.294414],[-84.164238,40.295009],[-84.162693,40.295026],[-84.162681,40.294477],[-84.162561,40.294478]]]},"properties":{"p":"01-1825326.036","o":"GARTLAND HASWELL FDRY CO","a":"W PARK ST SIDNEY 45365","d":"SIDNEY CITY SCHOOL DISTRICT","t":40037.7,"l":"300: Ind-Vacant Land","c":0}},{"type":"Feature","geometry":{"type":"Polygon","coordinates":[[[-84.155379,40.293805],[-84.155377,40.293722],[-84.155654,40.293719],[-84.155725,40.2938],[-84.155379,40.293805]]]},"properties":{"p":"01-1825403.013","o":"TODD AND NIKKI RENTALS LLC","a":"733 N MAIN AVE SIDNEY 45365","d":"SIDNEY CITY SCHOOL DISTRICT","t":1132.47,"l":"520: Res-Two Family","c":0}},{"type":"Feature","geometry":{"type":"Polygon","coordinates":[[[-84.150354,40.292946],[-84.150353,40.292691],[-84.150503,40.292689],[-84.150507,40.292944],[-84.150354,40.292946]]]},"properties":{"p":"01-1825430.041","o":"WOLAVER DAVID L","a":"BROADWAY AVE SIDNEY 45365","d":"SIDNEY CITY SCHOOL DISTRICT","t":633.69,"l":"599: Res-Other","c":0}},{"type":"Feature","geometry":{"type":"Polygon","coordinates":[[[-84.150503,40.292689],[-84.150501,40.292612],[-84.150652,40.29261],[-84.150653,40.292687],[-84.150503,40.292689]]]},"properties":{"p":"01-1825430.049","o":"WOLAVER DAVID & JENNIFER","a":"440 JEFFERSON ST SIDNEY 45365","d":"SIDNEY CITY SCHOOL DISTRICT","t":1566.56,"l":"510: Res-Single Family","c":0}},{"type":"Feature","geometry":{"type":"Polygon","coordinates":[[[-84.150353,40.292691],[-84.150352,40.292614],[-84.150501,40.292612],[-84.150503,40.292689],[-84.150353,40.292691]]]},"properties":{"p":"01-1825430.050","o":"WOLAVER DAVID L","a":"442 JEFFERSON ST SIDNEY 45365","d":"SIDNEY CITY SCHOOL DISTRICT","t":1777.54,"l":"520: Res-Two Family","c":0}},{"type":"Feature","geometry":{"type":"Polygon","coordinates":[[[-84.091661,40.333307],[-84.091988,40.33319],[-84.092305,40.333728],[-84.091979,40.333844],[-84.091661,40.333307]]]},"properties":{"p":"42-1910353.004","o":"KENNEDY JIMMIE","a":"18100 RICK WAY PORT JEFFERSON 45360","d":"SIDNEY CITY SCHOOL DISTRICT","t":378.5,"l":"510: Res-Single Family","c":0}},{"type":"Feature","geometry":{"type":"Polygon","coordinates":[[[-84.066256,40.337954],[-84.066464,40.337904],[-84.066478,40.338707],[-84.066119,40.338822],[-84.066109,40.337991],[-84.066256,40.337954]]]},"properties":{"p":"40-1911327.009","o":"GATES DANNY JO & DEANNA JEAN","a":"18488 HERRING RD","d":"FAIRLAWN LOCAL SCHOOL DISTRICT","t":127.4,"l":"540: Res-Custom Code","c":0}},{"type":"Feature","geometry":{"type":"Polygon","coordinates":[[[-84.04073,40.336837],[-84.040753,40.336817],[-84.040935,40.337085],[-84.041179,40.337335],[-84.041268,40.337396],[-84.040889,40.337735],[-84.040202,40.337285],[-84.04073,40.336837]]]},"properties":{"p":"40-1912400.009","o":"NICHOLS DAVID E","a":"19788 HERRING RD","d":"FAIRLAWN LOCAL SCHOOL DISTRICT","t":599.36,"l":"599: Res-Other","c":0}},{"type":"Feature","geometry":{"type":"Polygon","coordinates":[[[-84.091798,40.328527],[-84.091905,40.328489],[-84.092105,40.328822],[-84.091997,40.328861],[-84.091798,40.328527]]]},"properties":{"p":"42-1915114.010","o":"TERRY SHAWN A","a":"CANAL ST PORT JEFFERSON 45360","d":"SIDNEY CITY SCHOOL DISTRICT","t":305.16,"l":"500: Res-Vacant Land","c":0}},{"type":"Feature","geometry":{"type":"Polygon","coordinates":[[[-84.08796,40.331455],[-84.087999,40.331441],[-84.088046,40.331518],[-84.08796,40.331455]]]},"properties":{"p":"42-1915128.001","o":"BRANDYBERRY BRYSTON G & ASHLEE K HAMAKER","a":"204 WATER ST PORT JEFFERSON 45360","d":"SIDNEY CITY SCHOOL DISTRICT","t":1178.91,"l":"540: Res-Custom Code","c":0}},{"type":"Feature","geometry":{"type":"Polygon","coordinates":[[[-84.129729,40.316242],[-84.129715,40.315869],[-84.127789,40.315907],[-84.127802,40.314542],[-84.129889,40.314543],[-84.130391,40.314735],[-84.130482,40.314835],[-84.130536,40.315268],[-84.130577,40.315422],[-84.130625,40.315523],[-84.130668,40.315587],[-84.130728,40.315624],[-84.130886,40.315666],[-84.130987,40.315726],[-84.129729,40.316242]]]},"properties":{"p":"44-1920100.005","o":"LINDSTROM RONALD G JR","a":"RIVERSIDE DR","d":"SIDNEY CITY SCHOOL DISTRICT","t":1595.46,"l":"500: Res-Vacant Land","c":0}},{"type":"Feature","geometry":{"type":"Polygon","coordinates":[[[-84.027527,40.236915],[-84.027542,40.236728],[-84.027661,40.236734],[-84.027645,40.23692],[-84.027527,40.236915]]]},"properties":{"p":"17-2301252.002","o":"SCHERER CHARLES K","a":"3556 TAWAWA MAPLEWOOD RD","d":"FAIRLAWN LOCAL SCHOOL DISTRICT","t":185.29,"l":"510: Res-Single Family","c":0}},{"type":"Feature","geometry":{"type":"Polygon","coordinates":[[[-84.033628,40.295472],[-84.033636,40.295359],[-84.034062,40.295382],[-84.034055,40.295495],[-84.033628,40.295472]]]},"properties":{"p":"38-2311278.008","o":"GILLEM KATHY","a":"MAIN ST PEMBERTON 45353","d":"FAIRLAWN LOCAL SCHOOL DISTRICT","t":404.14,"l":"599: Res-Other","c":0}},{"type":"Feature","geometry":{"type":"Polygon","coordinates":[[[-84.083059,40.253156],[-84.081164,40.250668],[-84.084615,40.250859],[-84.084501,40.252035],[-84.083501,40.251978],[-84.083376,40.253257],[-84.083125,40.253243],[-84.083059,40.253156]]]},"properties":{"p":"17-2320400.007","o":"KATTAU LANE A","a":"18654 MCCLOSKEY SCHOOL RD SIDNEY 45365","d":"FAIRLAWN LOCAL SCHOOL DISTRICT","t":3270.84,"l":"101: Agr-Cash-Grain Farm","c":0}},{"type":"Feature","geometry":{"type":"Polygon","coordinates":[[[-84.077477,40.267636],[-84.077515,40.267085],[-84.080593,40.267251],[-84.080548,40.267875],[-84.077472,40.267719],[-84.077477,40.267636]]]},"properties":{"p":"38-2321401.004","o":"J AND A HOMES LLC","a":"JOHNSTON RD","d":"FAIRLAWN LOCAL SCHOOL DISTRICT","t":167.78,"l":"100: Agr-Vacant Land","c":0}},{"type":"Feature","geometry":{"type":"Polygon","coordinates":[[[-84.333823,40.246064],[-84.333837,40.24606],[-84.333938,40.246245],[-84.334073,40.246282],[-84.334174,40.246679],[-84.333816,40.246686],[-84.333823,40.246064]]]},"properties":{"p":"22-2509303.002","o":"DRISCOLL MICHAEL J","a":"STATE ROUTE 66","d":"HARDIN-HOUSTON LOCAL SCHOOL DISTRICT","t":36.38,"l":"500: Res-Vacant Land","c":0}},{"type":"Feature","geometry":{"type":"Polygon","coordinates":[[[-84.234349,40.257968],[-84.234339,40.257517],[-84.234832,40.257511],[-84.234843,40.257962],[-84.234349,40.257968]]]},"properties":{"p":"58-2608201.001","o":"RASOR JAMES A & ELENORE A","a":"LINDSEY RD","d":"HARDIN-HOUSTON LOCAL SCHOOL DISTRICT","t":1625.55,"l":"500: Res-Vacant Land","c":0}},{"type":"Feature","geometry":{"type":"Polygon","coordinates":[[[-84.23291,40.251179],[-84.23294,40.252262],[-84.232644,40.252267],[-84.232603,40.250773],[-84.232898,40.250767],[-84.23291,40.251179]]]},"properties":{"p":"58-2608251.015","o":"WILLIAMSON AMY S","a":"10601 SCHENK RD SIDNEY 45365","d":"HARDIN-HOUSTON LOCAL SCHOOL DISTRICT","t":553.46,"l":"510: Res-Single Family","c":0}},{"type":"Feature","geometry":{"type":"Polygon","coordinates":[[[-84.228372,40.250856],[-84.228406,40.250855],[-84.228371,40.252348],[-84.228256,40.25235],[-84.228228,40.250859],[-84.228372,40.250856]]]},"properties":{"p":"58-2608276.007","o":"GRIFFIS NORMA J","a":"SCHENK RD","d":"HARDIN-HOUSTON LOCAL SCHOOL DISTRICT","t":42.57,"l":"500: Res-Vacant Land","c":0}},{"type":"Feature","geometry":{"type":"Polygon","coordinates":[[[-84.227933,40.250865],[-84.228228,40.250859],[-84.228256,40.25235],[-84.22796,40.252356],[-84.227933,40.250865]]]},"properties":{"p":"58-2608276.008","o":"GRIFFIS NORMA J","a":"10847 SCHENK RD SIDNEY 45365","d":"HARDIN-HOUSTON LOCAL SCHOOL DISTRICT","t":882.93,"l":"510: Res-Single Family","c":0}},{"type":"Feature","geometry":{"type":"Polygon","coordinates":[[[-84.22701,40.247283],[-84.227286,40.247277],[-84.227299,40.247665],[-84.227023,40.24767],[-84.22701,40.247283]]]},"properties":{"p":"58-2608432.007","o":"SNOW JAMES C & BRENDA L","a":"10978 COMANCHE DR","d":"HARDIN-HOUSTON LOCAL SCHOOL DISTRICT","t":10.47,"l":"510: Res-Single Family","c":0}},{"type":"Feature","geometry":{"type":"Polygon","coordinates":[[[-84.189919,40.468232],[-84.189916,40.467859],[-84.190153,40.467859],[-84.190156,40.468232],[-84.189919,40.468232]]]},"properties":{"p":"11-0232454.007","o":"MALLOW ALLEN D","a":"STATE ST BOTKINS 45306","d":"BOTKINS LOCAL SCHOOL DISTRICT","t":156.06,"l":"599: Res-Other","c":0}},{"type":"Feature","geometry":{"type":"Polygon","coordinates":[[[-84.107773,40.392956],[-84.109209,40.392934],[-84.10921,40.393439],[-84.107776,40.393462],[-84.107773,40.392956]]]},"properties":{"p":"13-0536226.005","o":"SCHROER JOE A","a":"AILES RD","d":"ANNA LOCAL SCHOOL DISTRICT","t":48.15,"l":"500: Res-Vacant Land","c":0}},{"type":"Feature","geometry":{"type":"Polygon","coordinates":[[[-84.369982,40.294287],[-84.370445,40.294386],[-84.370372,40.294549],[-84.369982,40.294287]]]},"properties":{"p":"03-1730182.002","o":"GOUBEAUX CHARLES D","a":"6626 STATE ROUTE 66","d":"FORT LORAMIE LOCAL SCHOOL DISTRICT","t":36231.9,"l":"430: Com-Retaurant","c":0}},{"type":"Feature","geometry":{"type":"Polygon","coordinates":[[[-84.151891,40.345961],[-84.151891,40.345906],[-84.1526,40.345925],[-84.152606,40.346379],[-84.151896,40.346359],[-84.151891,40.345961]]]},"properties":{"p":"13-1801476.003","o":"BURKHOLDER DOUGLAS P & LEESA M","a":"14933 SHARP RD SIDNEY 45365","d":"ANNA LOCAL SCHOOL DISTRICT","t":325.06,"l":"540: Res-Custom Code","c":0}},{"type":"Feature","geometry":{"type":"Polygon","coordinates":[[[-84.157926,40.304835],[-84.157908,40.304836],[-84.1579,40.304423],[-84.157972,40.304422],[-84.15798,40.304835],[-84.157926,40.304835]]]},"properties":{"p":"01-1824455.026","o":"HENSON MATTHEW R & ERIN A","a":"W RUTH ST SIDNEY 45365","d":"SIDNEY CITY SCHOOL DISTRICT","t":103.76,"l":"500: Res-Vacant Land","c":0}},{"type":"Feature","geometry":{"type":"Polygon","coordinates":[[[-84.150507,40.292944],[-84.150503,40.292689],[-84.150653,40.292687],[-84.150658,40.292943],[-84.150507,40.292944]]]},"properties":{"p":"01-1825430.040","o":"WOLAVER DAVID & JENNIFER","a":"JEFFERSON ST SIDNEY 45365","d":"SIDNEY CITY SCHOOL DISTRICT","t":289.87,"l":"599: Res-Other","c":0}},{"type":"Feature","geometry":{"type":"Polygon","coordinates":[[[-84.040945,40.337685],[-84.041268,40.337396],[-84.041557,40.337599],[-84.041885,40.337708],[-84.041887,40.338278],[-84.041219,40.337952],[-84.040889,40.337735],[-84.040945,40.337685]]]},"properties":{"p":"40-1912400.008","o":"NICHOLS DAVID E","a":"19788 HERRING RD","d":"FAIRLAWN LOCAL SCHOOL DISTRICT","t":249.65,"l":"540: Res-Custom Code","c":0}},{"type":"Feature","geometry":{"type":"Polygon","coordinates":[[[-84.094283,40.328962],[-84.094608,40.328846],[-84.094612,40.329041],[-84.094286,40.329157],[-84.094283,40.328962]]]},"properties":{"p":"42-1916229.011","o":"NICHOLS DAVID E","a":"205 PASCO MONTRA RD PORT JEFFERSON 45360","d":"SIDNEY CITY SCHOOL DISTRICT","t":3251.74,"l":"455: Com-Garage","c":0}},{"type":"Feature","geometry":{"type":"Polygon","coordinates":[[[-84.094608,40.328846],[-84.094283,40.328962],[-84.094278,40.328753],[-84.09453,40.328663],[-84.094733,40.328998],[-84.094612,40.329041],[-84.094608,40.328846]]]},"properties":{"p":"42-1916229.015","o":"NICHOLS DAVID E","a":"MAIN ST PORT JEFFERSON 45360","d":"SIDNEY CITY SCHOOL DISTRICT","t":707.86,"l":"400: Com-Vacant Land","c":0}},{"type":"Feature","geometry":{"type":"Polygon","coordinates":[[[-84.149575,40.294657],[-84.149574,40.294544],[-84.150148,40.294537],[-84.150149,40.29465],[-84.149575,40.294657]]]},"properties":{"p":"01-1930301.004","o":"WESTERHEIDE TONYA","a":"816 N BROADWAY AVE SIDNEY 45365","d":"SIDNEY CITY SCHOOL DISTRICT","t":584.27,"l":"510: Res-Single Family","c":0}},{"type":"Feature","geometry":{"type":"Polygon","coordinates":[[[-84.145304,40.282528],[-84.145301,40.282206],[-84.145443,40.282175],[-84.145447,40.282532],[-84.145304,40.282528]]]},"properties":{"p":"01-2204307.029","o":"HOSTETLER SAVANNAH","a":"828 FIELDING RD SIDNEY 45365","d":"SIDNEY CITY SCHOOL DISTRICT","t":348,"l":"510: Res-Single Family","c":0}},{"type":"Feature","geometry":{"type":"Polygon","coordinates":[[[-84.158211,40.265286],[-84.15838,40.26514],[-84.160351,40.265558],[-84.160279,40.265756],[-84.158211,40.265286]]]},"properties":{"p":"36-2208126.003","o":"MILLER DEAN D & NELL A","a":"RIVER RD","d":"SIDNEY CITY SCHOOL DISTRICT","t":304.17,"l":"500: Res-Vacant Land","c":0}},{"type":"Feature","geometry":{"type":"Polygon","coordinates":[[[-84.178394,40.247072],[-84.178803,40.24661],[-84.178905,40.246758],[-84.178628,40.246993],[-84.178493,40.247215],[-84.178394,40.247072]]]},"properties":{"p":"36-2213251.001","o":"STEPHENS JESSIE J & LUCINDA","a":"3640 RIVER RD","d":"SIDNEY CITY SCHOOL DISTRICT","t":1610.07,"l":"500: Res-Vacant Land","c":0}},{"type":"Feature","geometry":{"type":"Polygon","coordinates":[[[-84.033616,40.295646],[-84.033628,40.295472],[-84.034055,40.295495],[-84.034043,40.295718],[-84.033616,40.295646]]]},"properties":{"p":"38-2311278.007","o":"GILLEM JOHNIE J SR & KATHY S","a":"6705 MAIN ST PEMBERTON 45353","d":"FAIRLAWN LOCAL SCHOOL DISTRICT","t":303.57,"l":"510: Res-Single Family","c":0}},{"type":"Feature","geometry":{"type":"Polygon","coordinates":[[[-84.09183,40.275811],[-84.09182,40.275779],[-84.092343,40.275683],[-84.09239,40.275838],[-84.09183,40.275811]]]},"properties":{"p":"38-2327227.001","o":"STEENROD STEPHANIE RENEE","a":"STATE ROUTE 29","d":"FAIRLAWN LOCAL SCHOOL DISTRICT","t":38.03,"l":"500: Res-Vacant Land","c":0}},{"type":"Feature","geometry":{"type":"Polygon","coordinates":[[[-84.406278,40.233127],[-84.406274,40.232822],[-84.406766,40.232812],[-84.406768,40.23299],[-84.406577,40.232982],[-84.406579,40.233127],[-84.406278,40.233127]]]},"properties":{"p":"24-2414327.008","o":"FRANCIS KAREN M & PAUL R","a":"100 HIGHLAND DR RUSSIA 45363","d":"RUSSIA LOCAL SCHOOL DISTRICT","t":153.12,"l":"510: Res-Single Family","c":0}},{"type":"Feature","geometry":{"type":"Polygon","coordinates":[[[-84.335602,40.250575],[-84.336218,40.250519],[-84.33627,40.250856],[-84.335654,40.250912],[-84.335602,40.250575]]]},"properties":{"p":"22-2509152.048","o":"MUMMEY COREY A & TIFFANY","a":"3619 STATE ROUTE 66 HOUSTON 45333","d":"HARDIN-HOUSTON LOCAL SCHOOL DISTRICT","t":3304.23,"l":"510: Res-Single Family","c":0}},{"type":"Feature","geometry":{"type":"Polygon","coordinates":[[[-84.334969,40.245751],[-84.335083,40.245719],[-84.335139,40.2461],[-84.335004,40.246104],[-84.335021,40.246329],[-84.334632,40.246667],[-84.334625,40.2468],[-84.333814,40.246819],[-84.333816,40.246686],[-84.334174,40.246679],[-84.334073,40.246282],[-84.333938,40.246245],[-84.333837,40.24606],[-84.334969,40.245751]]]},"properties":{"p":"22-2509303.001","o":"DRISCOLL MICHAEL J","a":"5265 HOUSTON RD","d":"HARDIN-HOUSTON LOCAL SCHOOL DISTRICT","t":292.75,"l":"540: Res-Custom Code","c":0}},{"type":"Feature","geometry":{"type":"Polygon","coordinates":[[[-84.261908,40.227871],[-84.261884,40.227232],[-84.262242,40.227227],[-84.262268,40.227921],[-84.26191,40.227926],[-84.261908,40.227871]]]},"properties":{"p":"58-2524226.012","o":"BURKETT TOMMY E & DEBORAH A","a":"8998 LEHMAN RD","d":"HARDIN-HOUSTON LOCAL SCHOOL DISTRICT","t":19.75,"l":"540: Res-Custom Code","c":0}},{"type":"Feature","geometry":{"type":"Polygon","coordinates":[[[-84.194435,40.263063],[-84.195216,40.263049],[-84.195411,40.265792],[-84.194617,40.2658],[-84.194435,40.263063]]]},"properties":{"p":"01-2603401.003","o":"FAITH BAPTIST CH OF SIDNEY","a":"2555 MILLCREEK RD SIDNEY 45365","d":"SIDNEY CITY SCHOOL DISTRICT","t":80.4,"l":"499: Com-Other","c":0}},{"type":"Feature","geometry":{"type":"Polygon","coordinates":[[[-84.235157,40.209013],[-84.235156,40.20893],[-84.235394,40.208928],[-84.235395,40.209011],[-84.235157,40.209013]]]},"properties":{"p":"59-2629178.010","o":"HENRY CHARLES & CHASITY","a":"CROSS ST REAR","d":"HARDIN-HOUSTON LOCAL SCHOOL DISTRICT","t":32.23,"l":"599: Res-Other","c":0}},{"type":"Feature","geometry":{"type":"Polygon","coordinates":[[[-84.234917,40.208933],[-84.235156,40.20893],[-84.235157,40.209013],[-84.234919,40.209016],[-84.234917,40.208933]]]},"properties":{"p":"59-2629178.016","o":"HENRY CHARLES & CHASITY","a":"605 CROSS ST","d":"HARDIN-HOUSTON LOCAL SCHOOL DISTRICT","t":237.46,"l":"510: Res-Single Family","c":0}},{"type":"Feature","geometry":{"type":"Polygon","coordinates":[[[-84.237002,40.204814],[-84.235723,40.204243],[-84.23632,40.203433],[-84.237424,40.202701],[-84.238344,40.203931],[-84.23786,40.204117],[-84.237655,40.203719],[-84.236818,40.203963],[-84.23746,40.204533],[-84.237297,40.204946],[-84.237002,40.204814]]]},"properties":{"p":"58-2629334.002","o":"MEYER SHIRLEY A","a":"MIAMI CONSERVANCY RD","d":"HARDIN-HOUSTON LOCAL SCHOOL DISTRICT","t":250.95,"l":"500: Res-Vacant Land","c":0}},{"type":"Feature","geometry":{"type":"Polygon","coordinates":[[[-84.189707,40.23537],[-84.189742,40.234957],[-84.190725,40.23522],[-84.190413,40.235614],[-84.189681,40.235421],[-84.189707,40.23537]]]},"properties":{"p":"36-2724226.004","o":"GRIMES CODY & ERIN","a":"RIVER RD","d":"SIDNEY CITY SCHOOL DISTRICT","t":127.94,"l":"500: Res-Vacant Land","c":0}},{"type":"Feature","geometry":{"type":"Polygon","coordinates":[[[-84.030394,40.184504],[-84.030401,40.184421],[-84.031037,40.184459],[-84.031004,40.184838],[-84.030367,40.184798],[-84.030394,40.184504]]]},"properties":{"p":"17-2804400.005","o":"MORRISON CHRISTOPHER L","a":"21609 E MIAMI SHELBY RD","d":"FAIRLAWN LOCAL SCHOOL DISTRICT","t":444.28,"l":"510: Res-Single Family","c":0}},{"type":"Feature","geometry":{"type":"Polygon","coordinates":[[[-84.154008,40.291659],[-84.154005,40.291468],[-84.154113,40.291467],[-84.154116,40.291658],[-84.154008,40.291659]]]},"properties":{"p":"01-1825431.014","o":"MARKET PATRICIA A","a":"226 WASHINGTON ST SIDNEY 45365","d":"SIDNEY CITY SCHOOL DISTRICT","t":732.89,"l":"510: Res-Single Family","c":0}},{"type":"Feature","geometry":{"type":"Polygon","coordinates":[[[-84.151795,40.292415],[-84.15179,40.292133],[-84.151949,40.292131],[-84.151954,40.292413],[-84.151795,40.292415]]]},"properties":{"p":"01-1825433.001","o":"HODGE TINA L","a":"401 JEFFERSON ST SIDNEY 45365","d":"SIDNEY CITY SCHOOL DISTRICT","t":483.84,"l":"520: Res-Two Family","c":0}},{"type":"Feature","geometry":{"type":"Polygon","coordinates":[[[-84.15866,40.291026],[-84.158838,40.291024],[-84.158846,40.29143],[-84.158666,40.291433],[-84.15866,40.291026]]]},"properties":{"p":"01-1825451.024","o":"HU NAN","a":"212 MAPLE ST SIDNEY 45365","d":"SIDNEY CITY SCHOOL DISTRICT","t":593.84,"l":"510: Res-Single Family","c":0}},{"type":"Feature","geometry":{"type":"Polygon","coordinates":[[[-84.15597,40.290481],[-84.155969,40.290387],[-84.156562,40.290379],[-84.156564,40.290474],[-84.15597,40.290481]]]},"properties":{"p":"01-1825452.010","o":"SHELBY COUNTY HABITAT FOR HUMANITY","a":"506 N OHIO AVE SIDNEY 45365","d":"SIDNEY CITY SCHOOL DISTRICT","t":12136.4,"l":"500: Res-Vacant Land","c":0}},{"type":"Feature","geometry":{"type":"Polygon","coordinates":[[[-84.158688,40.290695],[-84.158706,40.290695],[-84.158708,40.290808],[-84.15869,40.290809],[-84.158688,40.290695]]]},"properties":{"p":"01-1825453.036","o":"LEACH SHELLY","a":"WEST AVE REAR SIDNEY 45365","d":"SIDNEY CITY SCHOOL DISTRICT","t":28.72,"l":"500: Res-Vacant Land","c":0}},{"type":"Feature","geometry":{"type":"Polygon","coordinates":[[[-84.158019,40.291641],[-84.158015,40.291458],[-84.158188,40.291504],[-84.158191,40.29164],[-84.158019,40.291641]]]},"properties":{"p":"01-1825454.003","o":"614 DETAIL LLC","a":"622 N WEST AVE SIDNEY 45365","d":"SIDNEY CITY SCHOOL DISTRICT","t":36267.64,"l":"510: Res-Single Family","c":0}},{"type":"Feature","geometry":{"type":"Polygon","coordinates":[[[-84.246297,40.287062],[-84.247303,40.287037],[-84.247818,40.287188],[-84.247803,40.287216],[-84.248072,40.287277],[-84.247995,40.2877],[-84.24632,40.287741],[-84.246297,40.287062]]]},"properties":{"p":"48-1830476.002","o":"CHAMBERS ANGELA M","a":"9921 STATE ROUTE 47 SIDNEY 45365","d":"HARDIN-HOUSTON LOCAL SCHOOL DISTRICT","t":4174.13,"l":"510: Res-Single Family","c":0}},{"type":"Feature","geometry":{"type":"Polygon","coordinates":[[[-84.171169,40.281022],[-84.171167,40.280939],[-84.171257,40.280938],[-84.171259,40.281022],[-84.171169,40.281022]]]},"properties":{"p":"01-1835281.009","o":"MARTIN BRADLEY D & MEGAN M","a":"CHARLES AVE SIDNEY 45365","d":"SIDNEY CITY SCHOOL DISTRICT","t":60.48,"l":"500: Res-Vacant Land","c":0}},{"type":"Feature","geometry":{"type":"Polygon","coordinates":[[[-84.165904,40.286735],[-84.165899,40.286371],[-84.166007,40.286371],[-84.166011,40.286735],[-84.165904,40.286735]]]},"properties":{"p":"01-1836105.018","o":"TUMBUSCH TRAVIS & BRANDON J","a":"NORTH ST SIDNEY 45365","d":"SIDNEY CITY SCHOOL DISTRICT","t":238.27,"l":"599: Res-Other","c":0}},{"type":"Feature","geometry":{"type":"Polygon","coordinates":[[[-84.166536,40.284782],[-84.166542,40.285177],[-84.166524,40.285175],[-84.166518,40.284782],[-84.166536,40.284782]]]},"properties":{"p":"01-1836109.005","o":"S & S PROPERTY INVESTMENTS LLC","a":"RONAN ST SIDNEY 45365","d":"SIDNEY CITY SCHOOL DISTRICT","t":21.69,"l":"500: Res-Vacant Land","c":0}},{"type":"Feature","geometry":{"type":"Polygon","coordinates":[[[-84.162728,40.287548],[-84.162704,40.287436],[-84.163189,40.287435],[-84.163189,40.287548],[-84.162728,40.287548]]]},"properties":{"p":"01-1836126.014","o":"SCHMIDT HAROLD J II","a":"223 DAYTON AVE SIDNEY 45365","d":"SIDNEY CITY SCHOOL DISTRICT","t":2823.14,"l":"510: Res-Single Family","c":0}},{"type":"Feature","geometry":{"type":"Polygon","coordinates":[[[-84.162407,40.286497],[-84.162391,40.286434],[-84.162558,40.286432],[-84.162559,40.286495],[-84.162407,40.286497]]]},"properties":{"p":"01-1836132.003","o":"KAH WILLIS C TRUSTEE","a":"122 WILKINSON AVE SIDNEY 45365","d":"SIDNEY CITY SCHOOL DISTRICT","t":8175.32,"l":"500: Res-Vacant Land","c":0}},{"type":"Feature","geometry":{"type":"Polygon","coordinates":[[[-84.162378,40.286382],[-84.162374,40.286367],[-84.162557,40.286365],[-84.162557,40.28638],[-84.162378,40.286382]]]},"properties":{"p":"01-1836132.005","o":"KAH WILLIS J","a":"WILKINSON AVE SIDNEY 45365","d":"SIDNEY CITY SCHOOL DISTRICT","t":1098.27,"l":"500: Res-Vacant Land","c":0}},{"type":"Feature","geometry":{"type":"Polygon","coordinates":[[[-84.162374,40.286367],[-84.162344,40.286248],[-84.162554,40.286246],[-84.162557,40.286365],[-84.162374,40.286367]]]},"properties":{"p":"01-1836132.006","o":"KAH WILLIS J","a":"118 N WILKINSON AVE SIDNEY 45365","d":"SIDNEY CITY SCHOOL DISTRICT","t":3815.37,"l":"500: Res-Vacant Land","c":0}},{"type":"Feature","geometry":{"type":"Polygon","coordinates":[[[-84.162157,40.285505],[-84.162152,40.285486],[-84.162539,40.285483],[-84.162539,40.285503],[-84.162157,40.285505]]]},"properties":{"p":"01-1836132.016","o":"WILSON KAYLA","a":"WILKINSON AVE SIDNEY 45365","d":"SIDNEY CITY SCHOOL DISTRICT","t":60.52,"l":"500: Res-Vacant Land","c":0}},{"type":"Feature","geometry":{"type":"Polygon","coordinates":[[[-84.161319,40.286472],[-84.161014,40.286475],[-84.161009,40.286246],[-84.161511,40.286242],[-84.161516,40.286471],[-84.161319,40.286472]]]},"properties":{"p":"01-1836134.004","o":"LENTZ GARY W & JANET L","a":"122 N OAK AVE SIDNEY 45365","d":"SIDNEY CITY SCHOOL DISTRICT","t":4160.09,"l":"510: Res-Single Family","c":0}},{"type":"Feature","geometry":{"type":"Polygon","coordinates":[[[-84.166729,40.281095],[-84.166727,40.281],[-84.167354,40.280996],[-84.167354,40.281091],[-84.166729,40.281095]]]},"properties":{"p":"01-1836158.011","o":"WAGNER TERRY P & SANDRA M STAR","a":"AURORA AVE SIDNEY 45365","d":"SIDNEY CITY SCHOOL DISTRICT","t":855.59,"l":"500: Res-Vacant Land","c":0}},{"type":"Feature","geometry":{"type":"Polygon","coordinates":[[[-84.162719,40.28372],[-84.162719,40.283703],[-84.163177,40.2837],[-84.163177,40.283716],[-84.162719,40.28372]]]},"properties":{"p":"01-1836176.012","o":"MILLS CHARLES","a":"WILKINSON AVE SIDNEY 45365","d":"SIDNEY CITY SCHOOL DISTRICT","t":3665.97,"l":"500: Res-Vacant Land","c":0}},{"type":"Feature","geometry":{"type":"Polygon","coordinates":[[[-84.162719,40.283703],[-84.162719,40.283687],[-84.163176,40.283683],[-84.163177,40.2837],[-84.162719,40.283703]]]},"properties":{"p":"01-1836176.013","o":"MILLS CHARLES","a":"WILKINSON AVE SIDNEY 45365","d":"SIDNEY CITY SCHOOL DISTRICT","t":553.24,"l":"500: Res-Vacant Land","c":0}},{"type":"Feature","geometry":{"type":"Polygon","coordinates":[[[-84.152688,40.28626],[-84.152677,40.285724],[-84.153269,40.285749],[-84.15328,40.286255],[-84.152688,40.28626]]]},"properties":{"p":"01-1836233.005","o":"TRIVIUM CENTRAL SCHOOL LLC","a":"102 N MIAMI AVE SIDNEY 45365","d":"SIDNEY CITY SCHOOL DISTRICT","t":7704.61,"l":"499: Com-Other","c":0}},{"type":"Feature","geometry":{"type":"Polygon","coordinates":[[[-84.155329,40.279749],[-84.155327,40.279635],[-84.155456,40.279634],[-84.155459,40.279748],[-84.155329,40.279749]]]},"properties":{"p":"01-1836405.011","o":"BYERS WILLIAM JR","a":"121 QUEEN ST SIDNEY 45365","d":"SIDNEY CITY SCHOOL DISTRICT","t":459.79,"l":"510: Res-Single Family","c":0}},{"type":"Feature","geometry":{"type":"Polygon","coordinates":[[[-84.151347,40.278632],[-84.151192,40.278455],[-84.151914,40.278447],[-84.151918,40.278626],[-84.151347,40.278632]]]},"properties":{"p":"01-1836429.034","o":"ELMORE MICHAEL W","a":"S MIAMI AVE REAR SIDNEY 45365","d":"SIDNEY CITY SCHOOL DISTRICT","t":258.63,"l":"500: Res-Vacant Land","c":0}},{"type":"Feature","geometry":{"type":"Polygon","coordinates":[[[-84.162391,40.286434],[-84.162378,40.286382],[-84.162557,40.28638],[-84.162558,40.286432],[-84.162391,40.286434]]]},"properties":{"p":"01-1836132.004","o":"KAH WILLIS J","a":"120 WILKINSON AVE SIDNEY 45365","d":"SIDNEY CITY SCHOOL DISTRICT","t":1893.6,"l":"500: Res-Vacant Land","c":0}},{"type":"Feature","geometry":{"type":"Polygon","coordinates":[[[-84.162162,40.285525],[-84.162157,40.285505],[-84.162539,40.285503],[-84.162539,40.285522],[-84.162162,40.285525]]]},"properties":{"p":"01-1836132.015","o":"VANVOORHIS BRYAN A","a":"WILKINSON AVE SIDNEY 45365","d":"SIDNEY CITY SCHOOL DISTRICT","t":85.44,"l":"500: Res-Vacant Land","c":0}},{"type":"Feature","geometry":{"type":"Polygon","coordinates":[[[-84.166919,40.284196],[-84.166912,40.283726],[-84.167056,40.283725],[-84.167063,40.284195],[-84.166919,40.284196]]]},"properties":{"p":"01-1836151.012","o":"CORNER SARAH","a":"728 W TAFT ST SIDNEY 45365","d":"SIDNEY CITY SCHOOL DISTRICT","t":574.19,"l":"510: Res-Single Family","c":0}},{"type":"Feature","geometry":{"type":"Polygon","coordinates":[[[-84.165486,40.281104],[-84.165485,40.281009],[-84.165925,40.281006],[-84.165927,40.281101],[-84.165486,40.281104]]]},"properties":{"p":"01-1836159.009","o":"PROPPS ANDREW H & KIRA L","a":"MONTROSE AVE SIDNEY 45365","d":"SIDNEY CITY SCHOOL DISTRICT","t":476.8,"l":"500: Res-Vacant Land","c":0}},{"type":"Feature","geometry":{"type":"Polygon","coordinates":[[[-84.162722,40.283831],[-84.162719,40.28372],[-84.163177,40.283716],[-84.16318,40.283828],[-84.162722,40.283831]]]},"properties":{"p":"01-1836176.011","o":"MILLS CHARLES","a":"215 S WILKINSON AVE SIDNEY 45365","d":"SIDNEY CITY SCHOOL DISTRICT","t":11120.58,"l":"500: Res-Vacant Land","c":0}},{"type":"Feature","geometry":{"type":"Polygon","coordinates":[[[-84.161756,40.283932],[-84.161542,40.283212],[-84.161281,40.28249],[-84.161562,40.282356],[-84.161942,40.282354],[-84.161985,40.283923],[-84.161837,40.283925],[-84.161938,40.284349],[-84.161866,40.28435],[-84.161756,40.283932]]]},"properties":{"p":"01-1836177.013","o":"AMERICAN CULINARY CORPORATION","a":"WILKINSON AVE REAR SIDNEY 45365","d":"SIDNEY CITY SCHOOL DISTRICT","t":2396.76,"l":"300: Ind-Vacant Land","c":0}},{"type":"Feature","geometry":{"type":"Polygon","coordinates":[[[-84.162854,40.276435],[-84.162853,40.276382],[-84.163459,40.276378],[-84.16346,40.276431],[-84.162854,40.276435]]]},"properties":{"p":"01-1836331.051","o":"PERRY KALEB & SKILER GUSTAFSON","a":"FORAKER AVE SIDNEY 45365","d":"SIDNEY CITY SCHOOL DISTRICT","t":48.46,"l":"500: Res-Vacant Land","c":0}},{"type":"Feature","geometry":{"type":"Polygon","coordinates":[[[-84.158599,40.280181],[-84.158597,40.28009],[-84.159195,40.280086],[-84.159197,40.280177],[-84.158599,40.280181]]]},"properties":{"p":"01-1836401.008","o":"LATIMER ANTHONY W & TIANA R TINGLEY LATIMER","a":"534 S FRANKLIN AVE SIDNEY 45365","d":"SIDNEY CITY SCHOOL DISTRICT","t":716.6,"l":"510: Res-Single Family","c":0}},{"type":"Feature","geometry":{"type":"Polygon","coordinates":[[[-84.152804,40.280664],[-84.15275,40.280664],[-84.152749,40.280587],[-84.152927,40.280585],[-84.152927,40.280552],[-84.153338,40.28055],[-84.15334,40.28066],[-84.152804,40.280664]]]},"properties":{"p":"01-1836427.004","o":"SCHMIDT HAROLD J II","a":"510 S MIAMI AVE SIDNEY 45365","d":"SIDNEY CITY SCHOOL DISTRICT","t":2469.01,"l":"520: Res-Two Family","c":0}},{"type":"Feature","geometry":{"type":"Polygon","coordinates":[[[-84.154079,40.27632],[-84.154077,40.27621],[-84.15467,40.276204],[-84.154672,40.276313],[-84.154079,40.27632]]]},"properties":{"p":"01-1836476.020","o":"CORNER SARAH","a":"848 S MAIN (& 848 1/2) AVE SIDNEY 45365","d":"SIDNEY CITY SCHOOL DISTRICT","t":808.4,"l":"520: Res-Two Family","c":0}}]}