{"type":"FeatureCollection","features":[{"type":"Feature","geometry":{"type":"Polygon","coordinates":[[[-81.921787,40.565865],[-81.921822,40.566008],[-81.921282,40.566006],[-81.921247,40.565863],[-81.921787,40.565865]]]},"properties":{"p":"07-01228-000","o":"SMITH JILL ELAINE","a":"1056  WOOSTER RD  MILLERSBURG 44654","d":"WEST HOLMES LOCAL SCHOOL DISTRICT","t":1822.79,"l":"510: Res-Single Family","c":0}},{"type":"Feature","geometry":{"type":"Polygon","coordinates":[[[-81.920037,40.557449],[-81.920029,40.557585],[-81.919554,40.557569],[-81.919562,40.557433],[-81.920037,40.557449]]]},"properties":{"p":"07-01236-000","o":"RICE RICHARD L","a":"280 N MAD ANTHONY ST 279 MILLERSBURG 44654","d":"WEST HOLMES LOCAL SCHOOL DISTRICT","t":774.47,"l":"510: Res-Single Family","c":0}},{"type":"Feature","geometry":{"type":"Polygon","coordinates":[[[-81.91893,40.545411],[-81.91892,40.545605],[-81.918099,40.545585],[-81.918109,40.545391],[-81.91893,40.545411]]]},"properties":{"p":"07-01411-000","o":"MILLERSBURG MHP LLC","a":"800 S WASHINGTON ST 23 MILLERSBURG 44654","d":"WEST HOLMES LOCAL SCHOOL DISTRICT","t":5677.93,"l":"415: Com-Mobile Home Park","c":0}},{"type":"Feature","geometry":{"type":"Polygon","coordinates":[[[-81.919757,40.544831],[-81.919821,40.54559],[-81.9189,40.545818],[-81.918958,40.544817],[-81.919757,40.544831]]]},"properties":{"p":"07-01408-000","o":"MILLERSBURG MHP LLC","a":"800 S WASHINGTON ST 82 MILLERSBURG 44654","d":"WEST HOLMES LOCAL SCHOOL DISTRICT","t":7936.01,"l":"415: Com-Mobile Home Park","c":0}},{"type":"Feature","geometry":{"type":"Polygon","coordinates":[[[-81.919697,40.544032],[-81.919757,40.544831],[-81.917916,40.544785],[-81.917928,40.543989],[-81.919697,40.544032]]]},"properties":{"p":"07-01407-000","o":"MILLERSBURG MHP LLC","a":"800 S WASHINGTON ST 101 MILLERSBURG 44654","d":"WEST HOLMES LOCAL SCHOOL DISTRICT","t":41044.39,"l":"415: Com-Mobile Home Park","c":0}},{"type":"Feature","geometry":{"type":"Polygon","coordinates":[[[-81.917968,40.554296],[-81.918107,40.554301],[-81.918086,40.554663],[-81.917946,40.554658],[-81.917968,40.554296]]]},"properties":{"p":"07-01342-000","o":"MEDINA-MONTES ALEJANDRO","a":"60 W JACKSON ST 61 MILLERSBURG 44654","d":"WEST HOLMES LOCAL SCHOOL DISTRICT","t":7710.7,"l":"429: Com-Other","c":0}},{"type":"Feature","geometry":{"type":"Polygon","coordinates":[[[-81.911904,40.558583],[-81.91196,40.558584],[-81.911956,40.558594],[-81.911904,40.558583]]]},"properties":{"p":"07-01267-001","o":"SPURLOCK ETHEL","a":"SR 241","d":"WEST HOLMES LOCAL SCHOOL DISTRICT","t":15.1,"l":"500: Res-Vacant Land","c":0}},{"type":"Feature","geometry":{"type":"Polygon","coordinates":[[[-81.91888,40.558201],[-81.919338,40.558214],[-81.919327,40.558395],[-81.918869,40.558382],[-81.91888,40.558201]]]},"properties":{"p":"07-01238-000","o":"TISH BENJAMIN L","a":"359 N MAD ANTHONY ST 413 MILLERSBURG 44654","d":"WEST HOLMES LOCAL SCHOOL DISTRICT","t":821.05,"l":"510: Res-Single Family","c":0}},{"type":"Feature","geometry":{"type":"Polygon","coordinates":[[[-81.905611,40.55579],[-81.905648,40.55579],[-81.905593,40.556639],[-81.905155,40.556618],[-81.905205,40.555789],[-81.905611,40.55579]]]},"properties":{"p":"07-00584-000","o":"SMITH JILL E & JANELLE & JENETTE","a":"835 E JACKSON ST  MILLERSBURG 44654","d":"WEST HOLMES LOCAL SCHOOL DISTRICT","t":1180.67,"l":"510: Res-Single Family","c":0}},{"type":"Feature","geometry":{"type":"Polygon","coordinates":[[[-81.912186,40.552359],[-81.912643,40.552371],[-81.912636,40.552495],[-81.912178,40.552482],[-81.912186,40.552359]]]},"properties":{"p":"07-00490-000","o":"PATTERSON CODY M & HEATHER C","a":"130  FAIRVIEW AVE 4 MILLERSBURG 44654","d":"WEST HOLMES LOCAL SCHOOL DISTRICT","t":1141.26,"l":"510: Res-Single Family","c":0}},{"type":"Feature","geometry":{"type":"Polygon","coordinates":[[[-81.911815,40.55858],[-81.91187,40.558446],[-81.9122,40.558455],[-81.91217,40.55859],[-81.911815,40.55858]]]},"properties":{"p":"07-00210-000","o":"SPURLOCK ETHEL & GREGORY D","a":"508  MASSILLON RD 307 MILLERSBURG 44654","d":"WEST HOLMES LOCAL SCHOOL DISTRICT","t":438.09,"l":"510: Res-Single Family","c":0}},{"type":"Feature","geometry":{"type":"Polygon","coordinates":[[[-81.920166,40.556256],[-81.920173,40.556146],[-81.920642,40.556162],[-81.920635,40.556272],[-81.920166,40.556256]]]},"properties":{"p":"07-00209-000","o":"BLAIR COTY J","a":"175  GRANT ST 259 MILLERSBURG 44654","d":"WEST HOLMES LOCAL SCHOOL DISTRICT","t":390.91,"l":"510: Res-Single Family","c":0}},{"type":"Feature","geometry":{"type":"Polygon","coordinates":[[[-81.889086,40.559538],[-81.889331,40.559771],[-81.889181,40.559849],[-81.888904,40.559587],[-81.888922,40.558685],[-81.888858,40.558634],[-81.888837,40.558565],[-81.88885,40.558519],[-81.888882,40.558478],[-81.888989,40.558434],[-81.889051,40.558435],[-81.889134,40.558466],[-81.889173,40.558502],[-81.889196,40.558571],[-81.889169,40.558631],[-81.889107,40.558674],[-81.889086,40.559538]]]},"properties":{"p":"06-01239-000","o":"SCHLABACH ROMAN D & FANNIE E LAST KNOWN OWNER","a":"TR 321","d":"WEST HOLMES LOCAL SCHOOL DISTRICT","t":812.01,"l":"500: Res-Vacant Land","c":0}},{"type":"Feature","geometry":{"type":"Polygon","coordinates":[[[-81.895062,40.55326],[-81.893251,40.555149],[-81.893158,40.555123],[-81.893122,40.555201],[-81.891452,40.554746],[-81.890317,40.554059],[-81.88901,40.555315],[-81.888912,40.55527],[-81.889443,40.554772],[-81.889326,40.55472],[-81.89077,40.553348],[-81.890528,40.553201],[-81.890585,40.5531],[-81.891009,40.553383],[-81.890454,40.553926],[-81.891559,40.554591],[-81.893204,40.555045],[-81.895827,40.552325],[-81.895824,40.552256],[-81.895867,40.552195],[-81.895972,40.552153],[-81.896089,40.552171],[-81.896135,40.552202],[-81.896172,40.552265],[-81.896172,40.552311],[-81.896151,40.552354],[-81.896088,40.552403],[-81.896001,40.552422],[-81.895149,40.553309],[-81.895062,40.55326]]]},"properties":{"p":"06-01203-000","o":"EASTLAND DEVELOPMENT COMPANY INC","a":"TR 313","d":"WEST HOLMES LOCAL SCHOOL DISTRICT","t":1527.03,"l":"501: Res-Custom Code","c":0}},{"type":"Feature","geometry":{"type":"Polygon","coordinates":[[[-81.960254,40.54965],[-81.960887,40.549692],[-81.960967,40.550568],[-81.960682,40.550469],[-81.960291,40.550391],[-81.960254,40.54965]]]},"properties":{"p":"06-00991-000","o":"KAMER TODD A","a":"9362  TR 301   MILLERSBURG 44654","d":"WEST HOLMES LOCAL SCHOOL DISTRICT","t":5.26,"l":"561: Res-Custom Code","c":0}},{"type":"Feature","geometry":{"type":"Polygon","coordinates":[[[-81.863192,40.554301],[-81.861534,40.554385],[-81.861496,40.554281],[-81.861064,40.553892],[-81.860841,40.553418],[-81.861052,40.553302],[-81.861567,40.553099],[-81.862508,40.552997],[-81.863223,40.553103],[-81.863192,40.554301]]]},"properties":{"p":"06-00810-006","o":"MONTES ALEJANDRO & ROSALINDA MORALES","a":"6611  CR 625   MILLERSBURG 44654","d":"WEST HOLMES LOCAL SCHOOL DISTRICT","t":8305.53,"l":"511: Res-Custom Code","c":0}},{"type":"Feature","geometry":{"type":"Polygon","coordinates":[[[-81.871342,40.560021],[-81.873186,40.55985],[-81.873577,40.56098],[-81.871735,40.561152],[-81.871342,40.560021]]]},"properties":{"p":"06-00610-003","o":"RABER BEN J TRUSTEE","a":"TR 319   MILLERSBURG 44654","d":"WEST HOLMES LOCAL SCHOOL DISTRICT","t":159.49,"l":"100: Agr-Vacant Land","c":0}},{"type":"Feature","geometry":{"type":"Polygon","coordinates":[[[-81.87384,40.562015],[-81.873577,40.56098],[-81.876855,40.560678],[-81.879754,40.561984],[-81.87512,40.564641],[-81.874812,40.565546],[-81.874634,40.565546],[-81.874924,40.564647],[-81.874091,40.564595],[-81.873854,40.563575],[-81.87408,40.563409],[-81.874487,40.562585],[-81.874075,40.562401],[-81.87384,40.562015]]]},"properties":{"p":"06-00610-000","o":"RABER BEN J TRUSTEE","a":"6972  TR 319   MILLERSBURG 44654","d":"WEST HOLMES LOCAL SCHOOL DISTRICT","t":3858.64,"l":"101: Agr-Cash-Grain Farm","c":0}},{"type":"Feature","geometry":{"type":"Polygon","coordinates":[[[-81.872991,40.562315],[-81.87384,40.562015],[-81.874075,40.562401],[-81.873724,40.562532],[-81.87339,40.562733],[-81.873241,40.563078],[-81.873446,40.563535],[-81.873401,40.563556],[-81.873209,40.563171],[-81.873208,40.562611],[-81.872991,40.562315]]]},"properties":{"p":"06-00606-000","o":"RABER BEN J TRUSTEE","a":"6974  TR 319   MILLERSBURG 44654","d":"WEST HOLMES LOCAL SCHOOL DISTRICT","t":3217.2,"l":"101: Agr-Cash-Grain Farm","c":0}},{"type":"Feature","geometry":{"type":"Polygon","coordinates":[[[-81.873089,40.551783],[-81.873226,40.551795],[-81.872955,40.552473],[-81.872259,40.552444],[-81.872263,40.552363],[-81.8721,40.552338],[-81.872097,40.552178],[-81.872217,40.551711],[-81.873089,40.551783]]]},"properties":{"p":"06-00274-001","o":"HERSHBERGER JAMES A & ROSA","a":"5104  TR 311   MILLERSBURG 44654","d":"WEST HOLMES LOCAL SCHOOL DISTRICT","t":1559.22,"l":"511: Res-Custom Code","c":0}},{"type":"Feature","geometry":{"type":"Polygon","coordinates":[[[-81.874162,40.5649],[-81.874091,40.564595],[-81.874924,40.564647],[-81.874835,40.564923],[-81.874162,40.5649]]]},"properties":{"p":"06-00071-001","o":"RABER BEN J TRUSTEE","a":"6968  TR 319","d":"WEST HOLMES LOCAL SCHOOL DISTRICT","t":525.97,"l":"561: Res-Custom Code","c":0}},{"type":"Feature","geometry":{"type":"Polygon","coordinates":[[[-81.775479,40.453616],[-81.776157,40.453631],[-81.776078,40.45594],[-81.774558,40.454598],[-81.774374,40.454405],[-81.775502,40.454244],[-81.775479,40.453616]]]},"properties":{"p":"03-00034-002","o":"YODER MYRON W & LAURA A","a":"CR 600   BALTIC 43804","d":"GARAWAY LOCAL SCHOOL DISTRICT","t":28.83,"l":"100: Agr-Vacant Land","c":0}},{"type":"Feature","geometry":{"type":"Polygon","coordinates":[[[-81.779773,40.453698],[-81.779688,40.456209],[-81.778146,40.456194],[-81.777653,40.456944],[-81.777344,40.45676],[-81.776078,40.45594],[-81.776157,40.453631],[-81.779773,40.453698]]]},"properties":{"p":"03-00033-000","o":"YODER MYRON W & LAURA A & AMANDA","a":"4138  CR 59   BALTIC 43804","d":"GARAWAY LOCAL SCHOOL DISTRICT","t":9952.63,"l":"101: Agr-Cash-Grain Farm","c":0}},{"type":"Feature","geometry":{"type":"Polygon","coordinates":[[[-81.820866,40.560977],[-81.820875,40.560559],[-81.821702,40.560571],[-81.821694,40.560994],[-81.820866,40.560977]]]},"properties":{"p":"01-00816-000","o":"RABER BEN J TRUSTEE","a":"5485  CR 201   MILLERSBURG 44654","d":"EAST HOLMES LOCAL SCHOOL DISTRICT","t":6836.59,"l":"511: Res-Custom Code","c":0}},{"type":"Feature","geometry":{"type":"Polygon","coordinates":[[[-81.913198,40.558692],[-81.913212,40.558414],[-81.913399,40.558419],[-81.913382,40.558697],[-81.913198,40.558692]]]},"properties":{"p":"07-01560-003","o":"LOVELL CRYSTAL","a":"462  HERON ST  MILLERSBURG 44654","d":"WEST HOLMES LOCAL SCHOOL DISTRICT","t":2669.89,"l":"510: Res-Single Family","c":0}},{"type":"Feature","geometry":{"type":"Polygon","coordinates":[[[-81.918407,40.5549],[-81.918396,40.555081],[-81.917939,40.555065],[-81.91795,40.554884],[-81.918407,40.5549]]]},"properties":{"p":"07-01440-000","o":"MEDINA-MONTES ALEJANDRO","a":"N WASHINGTON ST 64","d":"WEST HOLMES LOCAL SCHOOL DISTRICT","t":3208.67,"l":"456: Com-Parking Garage","c":0}},{"type":"Feature","geometry":{"type":"Polygon","coordinates":[[[-81.918957,40.544844],[-81.91893,40.545411],[-81.918109,40.545391],[-81.918121,40.545171],[-81.917288,40.545153],[-81.917273,40.545084],[-81.918124,40.545104],[-81.918139,40.544819],[-81.918957,40.544844]]]},"properties":{"p":"07-01413-000","o":"MILLERSBURG MHP LLC","a":"800 S WASHINGTON ST 48 MILLERSBURG 44654","d":"WEST HOLMES LOCAL SCHOOL DISTRICT","t":13291.94,"l":"415: Com-Mobile Home Park","c":0}},{"type":"Feature","geometry":{"type":"Polygon","coordinates":[[[-81.918121,40.545171],[-81.918099,40.545585],[-81.917378,40.545569],[-81.917288,40.545153],[-81.918121,40.545171]]]},"properties":{"p":"07-01348-000","o":"MILLERSBURG MHP LLC","a":"800 S WASHINGTON ST 42 MILLERSBURG 44654","d":"WEST HOLMES LOCAL SCHOOL DISTRICT","t":11392.77,"l":"415: Com-Mobile Home Park","c":0}},{"type":"Feature","geometry":{"type":"Polygon","coordinates":[[[-81.922395,40.56489],[-81.922935,40.564892],[-81.922931,40.565029],[-81.922391,40.565027],[-81.922395,40.56489]]]},"properties":{"p":"07-00723-000","o":"GRUVER JAMES JR","a":"975  FORLOW ST 8 MILLERSBURG 44654","d":"WEST HOLMES LOCAL SCHOOL DISTRICT","t":128.52,"l":"560: Res-Mobile Home","c":0}},{"type":"Feature","geometry":{"type":"Polygon","coordinates":[[[-81.860471,40.553609],[-81.860841,40.553418],[-81.861064,40.553892],[-81.861496,40.554281],[-81.860674,40.554254],[-81.860471,40.553609]]]},"properties":{"p":"06-00810-005","o":"MONTES ALEJANDRO & ROSALINDA MORALES","a":"6597  CR 625   MILLERSBURG 44654","d":"WEST HOLMES LOCAL SCHOOL DISTRICT","t":182.87,"l":"511: Res-Custom Code","c":0}},{"type":"Feature","geometry":{"type":"Polygon","coordinates":[[[-81.87384,40.562015],[-81.872991,40.562315],[-81.873208,40.562611],[-81.873209,40.563171],[-81.873401,40.563556],[-81.872517,40.563943],[-81.872514,40.565534],[-81.872334,40.565533],[-81.872337,40.56391],[-81.871294,40.563882],[-81.871293,40.563468],[-81.868906,40.563443],[-81.868923,40.562197],[-81.870767,40.562045],[-81.870338,40.561282],[-81.873577,40.56098],[-81.87384,40.562015]]]},"properties":{"p":"06-00607-000","o":"RABER BEN J TRUSTEE","a":"TR 319","d":"WEST HOLMES LOCAL SCHOOL DISTRICT","t":542.22,"l":"190: Agr-Other","c":0}},{"type":"Feature","geometry":{"type":"Polygon","coordinates":[[[-81.781048,40.452516],[-81.781009,40.453722],[-81.776157,40.453631],[-81.776179,40.452423],[-81.781048,40.452516]]]},"properties":{"p":"03-00035-000","o":"YODER MYRON W & LAURA A","a":"CR 59","d":"GARAWAY LOCAL SCHOOL DISTRICT","t":117.12,"l":"100: Agr-Vacant Land","c":0}},{"type":"Feature","geometry":{"type":"Polygon","coordinates":[[[-81.776078,40.45594],[-81.777344,40.45676],[-81.777257,40.458575],[-81.775988,40.458544],[-81.776078,40.45594]]]},"properties":{"p":"03-00033-001","o":"YODER MYRON W & LAURA A","a":"CR 59","d":"GARAWAY LOCAL SCHOOL DISTRICT","t":116.98,"l":"100: Agr-Vacant Land","c":0}},{"type":"Feature","geometry":{"type":"Polygon","coordinates":[[[-82.194128,40.586224],[-82.194282,40.58589],[-82.194417,40.586302],[-82.194292,40.586316],[-82.194128,40.586224]]]},"properties":{"p":"10-00206-000","o":"MOORE HELEN P","a":"RIDGEVIEW DR 72","d":"LOUDONVILLE-PERRYSVILLE EX VILL SCHOOL DISTRICT","t":324.03,"l":"500: Res-Vacant Land","c":0}},{"type":"Feature","geometry":{"type":"Polygon","coordinates":[[[-82.205451,40.585739],[-82.205709,40.58564],[-82.205786,40.585811],[-82.205504,40.585854],[-82.205451,40.585739]]]},"properties":{"p":"10-00352-000","o":"MULLINAX JULIE","a":"HURON WIGWAM  292","d":"LOUDONVILLE-PERRYSVILLE EX VILL SCHOOL DISTRICT","t":45.1,"l":"599: Res-Other","c":0}},{"type":"Feature","geometry":{"type":"Polygon","coordinates":[[[-82.199222,40.585234],[-82.199412,40.585069],[-82.199519,40.585104],[-82.19956,40.585321],[-82.199222,40.585234]]]},"properties":{"p":"10-00354-000","o":"COUCH FRED","a":"ERIE TEPEE  493","d":"LOUDONVILLE-PERRYSVILLE EX VILL SCHOOL DISTRICT","t":50.11,"l":"500: Res-Vacant Land","c":0}},{"type":"Feature","geometry":{"type":"Polygon","coordinates":[[[-82.199519,40.585104],[-82.199706,40.585053],[-82.199696,40.585302],[-82.19956,40.585321],[-82.199519,40.585104]]]},"properties":{"p":"10-00355-000","o":"COUCH FRED","a":"ERIE TEPEE  494","d":"LOUDONVILLE-PERRYSVILLE EX VILL SCHOOL DISTRICT","t":70.02,"l":"599: Res-Other","c":0}},{"type":"Feature","geometry":{"type":"Polygon","coordinates":[[[-82.205547,40.582532],[-82.205575,40.582482],[-82.205575,40.582446],[-82.205859,40.582412],[-82.205766,40.582675],[-82.205547,40.582532]]]},"properties":{"p":"10-00363-000","o":"DELAUDER RANDY & JENNIFER","a":"ALGONQUION AUTUMN  343","d":"LOUDONVILLE-PERRYSVILLE EX VILL SCHOOL DISTRICT","t":0.07,"l":"599: Res-Other","c":0}},{"type":"Feature","geometry":{"type":"Polygon","coordinates":[[[-82.199699,40.585239],[-82.199737,40.58523],[-82.199702,40.585144],[-82.199706,40.585053],[-82.199886,40.585057],[-82.199877,40.585276],[-82.199696,40.585302],[-82.199699,40.585239]]]},"properties":{"p":"10-00389-000","o":"STUTZMAN SABRINA & DYLAN BUSH & KAMRYN BUSH","a":"ERIE TEPEE  495","d":"LOUDONVILLE-PERRYSVILLE EX VILL SCHOOL DISTRICT","t":99.55,"l":"500: Res-Vacant Land","c":0}},{"type":"Feature","geometry":{"type":"Polygon","coordinates":[[[-82.199702,40.585144],[-82.199737,40.58523],[-82.199699,40.585239],[-82.199702,40.585144]]]},"properties":{"p":"10-00389-001","o":"COUCH FRED","a":"ERIE TEPEE  495","d":"LOUDONVILLE-PERRYSVILLE EX VILL SCHOOL DISTRICT","t":4.86,"l":"500: Res-Vacant Land","c":0}},{"type":"Feature","geometry":{"type":"Polygon","coordinates":[[[-82.205035,40.583773],[-82.205323,40.583766],[-82.205327,40.583903],[-82.205039,40.58391],[-82.205035,40.583773]]]},"properties":{"p":"10-00408-000","o":"ANDERSON TIMOTHY L","a":"CAYUGA TRACE 326","d":"LOUDONVILLE-PERRYSVILLE EX VILL SCHOOL DISTRICT","t":2.34,"l":"599: Res-Other","c":0}},{"type":"Feature","geometry":{"type":"Polygon","coordinates":[[[-82.203909,40.585773],[-82.204085,40.585742],[-82.204164,40.585953],[-82.203962,40.585989],[-82.203909,40.585773]]]},"properties":{"p":"10-00450-000","o":"WINDESHEIM JOHN A JR","a":"ONONDAGA TRACE 246","d":"LOUDONVILLE-PERRYSVILLE EX VILL SCHOOL DISTRICT","t":51.92,"l":"500: Res-Vacant Land","c":0}},{"type":"Feature","geometry":{"type":"Polygon","coordinates":[[[-82.203731,40.585789],[-82.203909,40.585773],[-82.203962,40.585989],[-82.203751,40.586008],[-82.203731,40.585789]]]},"properties":{"p":"10-00479-000","o":"WHEATCRAFT TINA","a":"ONONDAGA TRACE 245","d":"LOUDONVILLE-PERRYSVILLE EX VILL SCHOOL DISTRICT","t":103.14,"l":"500: Res-Vacant Land","c":0}},{"type":"Feature","geometry":{"type":"Polygon","coordinates":[[[-82.200634,40.58538],[-82.200346,40.585388],[-82.200414,40.585133],[-82.200637,40.585235],[-82.200648,40.585269],[-82.200634,40.58538]]]},"properties":{"p":"10-00611-000","o":"WINDESHEIM JOHN A JR","a":"DELAWARE LOOKOUT  498","d":"LOUDONVILLE-PERRYSVILLE EX VILL SCHOOL DISTRICT","t":51.92,"l":"500: Res-Vacant Land","c":0}},{"type":"Feature","geometry":{"type":"Polygon","coordinates":[[[-82.129631,40.57773],[-82.129656,40.577203],[-82.131693,40.577262],[-82.131676,40.57779],[-82.129631,40.57773]]]},"properties":{"p":"11-00035-004","o":"HICKMAN JAMES E II & CHRYSTAL S NEAVILL","a":"5778  CR 50   LAKEVILLE 44638","d":"WEST HOLMES LOCAL SCHOOL DISTRICT","t":60.7,"l":"511: Res-Custom Code","c":0}},{"type":"Feature","geometry":{"type":"Polygon","coordinates":[[[-82.095624,40.594678],[-82.097076,40.595096],[-82.097075,40.595124],[-82.09524,40.595116],[-82.095227,40.594563],[-82.095624,40.594678]]]},"properties":{"p":"11-00206-000","o":"SWAREY ENTERPRISES LLC","a":"SR 39","d":"WEST HOLMES LOCAL SCHOOL DISTRICT","t":84.6,"l":"100: Agr-Vacant Land","c":0}},{"type":"Feature","geometry":{"type":"Polygon","coordinates":[[[-81.894014,40.51422],[-81.895497,40.51399],[-81.89515,40.514579],[-81.894268,40.514892],[-81.894014,40.51422]]]},"properties":{"p":"13-00011-002","o":"EVANS JUSTIN T","a":"3730  COUNTY ROAD 58   MILLERSBURG 44654","d":"WEST HOLMES LOCAL SCHOOL DISTRICT","t":43.43,"l":"561: Res-Custom Code","c":0}},{"type":"Feature","geometry":{"type":"Polygon","coordinates":[[[-81.922287,40.504519],[-81.922269,40.504866],[-81.922774,40.504876],[-81.922763,40.505097],[-81.923556,40.505114],[-81.923567,40.504893],[-81.923976,40.504902],[-81.924129,40.505154],[-81.923825,40.505148],[-81.923909,40.505718],[-81.923287,40.506348],[-81.923086,40.506353],[-81.922561,40.505673],[-81.922572,40.505425],[-81.922369,40.505423],[-81.921652,40.504493],[-81.922287,40.504519]]]},"properties":{"p":"13-00033-000","o":"STEINER WENDALL ROBERT","a":"CR 150","d":"WEST HOLMES LOCAL SCHOOL DISTRICT","t":4883.54,"l":"500: Res-Vacant Land","c":0}},{"type":"Feature","geometry":{"type":"Polygon","coordinates":[[[-81.922369,40.505423],[-81.922572,40.505425],[-81.922561,40.505673],[-81.922369,40.505423]]]},"properties":{"p":"13-00038-000","o":"STEINER WENDALL ROBERT","a":"CR 150 REAR","d":"WEST HOLMES LOCAL SCHOOL DISTRICT","t":56.15,"l":"501: Res-Custom Code","c":0}},{"type":"Feature","geometry":{"type":"Polygon","coordinates":[[[-81.830419,40.466198],[-81.831803,40.464788],[-81.83276,40.465366],[-81.831377,40.466776],[-81.830419,40.466198]]]},"properties":{"p":"13-00462-004","o":"YODER JOHN HENRY & ELSIE J","a":"1975  CR 61   BALTIC 43804","d":"WEST HOLMES LOCAL SCHOOL DISTRICT","t":14440.67,"l":"511: Res-Custom Code","c":0}},{"type":"Feature","geometry":{"type":"Polygon","coordinates":[[[-82.041188,40.581939],[-82.040209,40.581901],[-82.040699,40.58085],[-82.041741,40.581506],[-82.042003,40.581645],[-82.04242,40.581809],[-82.042701,40.581886],[-82.042991,40.581941],[-82.042974,40.582008],[-82.041188,40.581939]]]},"properties":{"p":"14-00523-001","o":"LOWE BETHANY A","a":"11621  SR 39   MILLERSBURG 44654","d":"WEST HOLMES LOCAL SCHOOL DISTRICT","t":842.73,"l":"561: Res-Custom Code","c":0}},{"type":"Feature","geometry":{"type":"Polygon","coordinates":[[[-82.067246,40.533618],[-82.067489,40.533485],[-82.067897,40.533322],[-82.068079,40.533267],[-82.068485,40.533177],[-82.069047,40.533118],[-82.069271,40.533081],[-82.069394,40.533043],[-82.069795,40.53286],[-82.070032,40.532703],[-82.070404,40.532966],[-82.071632,40.532976],[-82.071578,40.5339],[-82.070735,40.533976],[-82.067933,40.535197],[-82.066534,40.534382],[-82.066689,40.534279],[-82.066954,40.533863],[-82.067021,40.533792],[-82.067246,40.533618]]]},"properties":{"p":"14-00550-000","o":"MONNIER GORDON LEE","a":"CLOSE TO 4161 TR 251","d":"WEST HOLMES LOCAL SCHOOL DISTRICT","t":2076.21,"l":"100: Agr-Vacant Land","c":0}},{"type":"Feature","geometry":{"type":"Polygon","coordinates":[[[-81.694775,40.644691],[-81.695928,40.644702],[-81.69593,40.64484],[-81.69482,40.644828],[-81.694872,40.64597],[-81.69165,40.645936],[-81.691515,40.644657],[-81.694775,40.644691]]]},"properties":{"p":"15-00621-007","o":"MILLER ROBERT R & SARA E","a":"8686  CR 186   DUNDEE 44624","d":"EAST HOLMES LOCAL SCHOOL DISTRICT","t":7638.92,"l":"511: Res-Custom Code","c":0}},{"type":"Feature","geometry":{"type":"Polygon","coordinates":[[[-81.695696,40.60348],[-81.696186,40.60377],[-81.697102,40.604221],[-81.697822,40.604554],[-81.697814,40.604747],[-81.696999,40.604376],[-81.696078,40.603912],[-81.695564,40.603607],[-81.695317,40.603391],[-81.694956,40.602942],[-81.694195,40.601766],[-81.693895,40.60134],[-81.69402,40.601338],[-81.693862,40.601134],[-81.693701,40.600887],[-81.693534,40.600481],[-81.69356,40.600486],[-81.693479,40.600028],[-81.69359,40.600032],[-81.693667,40.60047],[-81.693816,40.60087],[-81.693964,40.601112],[-81.694377,40.601707],[-81.694818,40.602434],[-81.695473,40.603284],[-81.695696,40.60348]]]},"properties":{"p":"15-00909-000","o":"SPRING HILL ESTATES AN OHIO PARTNERSHIP","a":"TR 664","d":"EAST HOLMES LOCAL SCHOOL DISTRICT","t":21028,"l":"500: Res-Vacant Land","c":0}},{"type":"Feature","geometry":{"type":"Polygon","coordinates":[[[-81.925737,40.629163],[-81.925942,40.629175],[-81.926058,40.629219],[-81.92609,40.629252],[-81.926118,40.62932],[-81.926112,40.629419],[-81.926017,40.629447],[-81.925737,40.629447],[-81.925737,40.629163]]]},"properties":{"p":"19-00051-000","o":"LASTOHKEIN CONNIE R","a":"101  WATER ST 3 HOLMESVILLE 44633","d":"SOUTHEAST LOCAL SCHOOL DISTRICT","t":1436.24,"l":"510: Res-Single Family","c":0}},{"type":"Feature","geometry":{"type":"Polygon","coordinates":[[[-82.176369,40.478581],[-82.176525,40.478464],[-82.176607,40.478382],[-82.176597,40.47876],[-82.176369,40.478581]]]},"properties":{"p":"20-00036-001","o":"LOGSTON JAMES L","a":"TR 4","d":"DANVILLE LOCAL SCHOOL DISTRICT","t":499.92,"l":"500: Res-Vacant Land","c":0}},{"type":"Feature","geometry":{"type":"Polygon","coordinates":[[[-82.063518,40.496575],[-82.064823,40.496134],[-82.065001,40.496572],[-82.063652,40.497068],[-82.063518,40.496575]]]},"properties":{"p":"21-00396-000","o":"BLAGG MCKAYLA L","a":"12176  CR 6   KILLBUCK 44637","d":"WEST HOLMES LOCAL SCHOOL DISTRICT","t":616.2,"l":"561: Res-Custom Code","c":0}},{"type":"Feature","geometry":{"type":"Polygon","coordinates":[[[-82.099313,40.520524],[-82.099327,40.520189],[-82.099542,40.520194],[-82.09953,40.520529],[-82.099313,40.520524]]]},"properties":{"p":"22-00047-000","o":"FRIEND ROBERT & DEANNA WILE & DANIELLE HOFACKER","a":"105  MAIN ST 2","d":"WEST HOLMES LOCAL SCHOOL DISTRICT","t":1717,"l":"560: Res-Mobile Home","c":0}},{"type":"Feature","geometry":{"type":"Polygon","coordinates":[[[-82.098713,40.520857],[-82.098731,40.520528],[-82.098947,40.520535],[-82.098928,40.520864],[-82.098713,40.520857]]]},"properties":{"p":"22-00116-000","o":"BOSLEY ZACHARY R","a":"202  GARLAND ST 8 GLENMONT 44628","d":"WEST HOLMES LOCAL SCHOOL DISTRICT","t":0.19,"l":"510: Res-Single Family","c":0}},{"type":"Feature","geometry":{"type":"Polygon","coordinates":[[[-82.005638,40.6435],[-82.005028,40.643489],[-82.005033,40.642751],[-82.005666,40.642719],[-82.005638,40.6435]]]},"properties":{"p":"23-00341-000","o":"HAAS RAYMOND E & DONNA","a":"8199  TR 528   SHREVE 44676","d":"WEST HOLMES LOCAL SCHOOL DISTRICT","t":900.95,"l":"511: Res-Custom Code","c":0}},{"type":"Feature","geometry":{"type":"Polygon","coordinates":[[[-82.092471,40.666739],[-82.092723,40.666736],[-82.092725,40.666873],[-82.092473,40.666876],[-82.092471,40.666739]]]},"properties":{"p":"23-00676-000","o":"BEARD EDWARD A & CHRISTINA M","a":"13146  TR 1038  50 BIG PRAIRIE 44611","d":"WEST HOLMES LOCAL SCHOOL DISTRICT","t":52.6,"l":"510: Res-Single Family","c":0}},{"type":"Feature","geometry":{"type":"Polygon","coordinates":[[[-81.69384,40.558711],[-81.698029,40.558793],[-81.697914,40.561751],[-81.693492,40.561648],[-81.693628,40.558837],[-81.69384,40.558711]]]},"properties":{"p":"26-00428-000","o":"MILLER DANIEL A & MAE","a":"TR 419","d":"EAST HOLMES LOCAL SCHOOL DISTRICT","t":281.44,"l":"100: Agr-Vacant Land","c":0}},{"type":"Feature","geometry":{"type":"Polygon","coordinates":[[[-81.700248,40.543707],[-81.698632,40.54365],[-81.699151,40.54187],[-81.699684,40.541981],[-81.700562,40.542252],[-81.700066,40.543237],[-81.700569,40.543385],[-81.700404,40.543713],[-81.700248,40.543707]]]},"properties":{"p":"26-01288-000","o":"MILLER DAVID D & ELMINA C","a":"2175  TR 444   SUGARCREEK 44681","d":"EAST HOLMES LOCAL SCHOOL DISTRICT","t":28873.09,"l":"511: Res-Custom Code","c":0}},{"type":"Feature","geometry":{"type":"Polygon","coordinates":[[[-81.667576,40.515796],[-81.667757,40.515858],[-81.667572,40.515872],[-81.667576,40.515796]]]},"properties":{"p":"26-01509-000","o":"HOCHSTETLER ABNER LAST KNOWN OWNER","a":"CR 140","d":"EAST HOLMES LOCAL SCHOOL DISTRICT","t":196.8,"l":"400: Com-Vacant Land","c":0}},{"type":"Feature","geometry":{"type":"Polygon","coordinates":[[[-82.143981,40.618457],[-82.144677,40.618474],[-82.144679,40.618846],[-82.144008,40.618719],[-82.143981,40.618457]]]},"properties":{"p":"28-00094-001","o":"BREITENBUCHER WILLIAM H & REBECCA ANN","a":"7340  TR 466","d":"WEST HOLMES LOCAL SCHOOL DISTRICT","t":1155.08,"l":"561: Res-Custom Code","c":0}},{"type":"Feature","geometry":{"type":"Polygon","coordinates":[[[-82.127984,40.65622],[-82.127992,40.656055],[-82.128136,40.656059],[-82.128141,40.65595],[-82.128264,40.655953],[-82.128234,40.65598],[-82.128305,40.655982],[-82.128319,40.656229],[-82.127984,40.65622]]]},"properties":{"p":"28-00355-000","o":"BUTCHER KAREN V","a":"14106  SR 226  8 LAKEVILLE 44638","d":"WEST HOLMES LOCAL SCHOOL DISTRICT","t":207.12,"l":"510: Res-Single Family","c":0}},{"type":"Feature","geometry":{"type":"Polygon","coordinates":[[[-81.821649,40.616527],[-81.82228,40.616523],[-81.822275,40.61669],[-81.821857,40.616994],[-81.821649,40.616527]]]},"properties":{"p":"34-00397-000","o":"CROSS COUNTRY OHIO EXPRESS LLC","a":"7488  SR 241   MILLERSBURG 44654","d":"EAST HOLMES LOCAL SCHOOL DISTRICT","t":2262.36,"l":"340: Ind-Manufacturing-Light","c":0}},{"type":"Feature","geometry":{"type":"Polygon","coordinates":[[[-81.821698,40.616167],[-81.822099,40.616169],[-81.822098,40.616301],[-81.821789,40.616348],[-81.821688,40.616527],[-81.821408,40.616528],[-81.82141,40.616167],[-81.821698,40.616167]]]},"properties":{"p":"34-00399-000","o":"CROSS COUNTRY OHIO EXPRESS LLC","a":"SR 241","d":"EAST HOLMES LOCAL SCHOOL DISTRICT","t":35.48,"l":"300: Ind-Vacant Land","c":0}},{"type":"Feature","geometry":{"type":"Polygon","coordinates":[[[-81.821147,40.616818],[-81.821544,40.616528],[-81.821649,40.616527],[-81.821857,40.616994],[-81.821598,40.617182],[-81.821147,40.616818]]]},"properties":{"p":"34-00526-000","o":"CROSS COUNTRY OHIO EXPRESS LLC","a":"7500  SR 241   MILLERSBURG 44654","d":"EAST HOLMES LOCAL SCHOOL DISTRICT","t":225.35,"l":"511: Res-Custom Code","c":0}},{"type":"Feature","geometry":{"type":"Polygon","coordinates":[[[-81.822254,40.616524],[-81.822276,40.615737],[-81.822919,40.616111],[-81.822275,40.61669],[-81.82228,40.616523],[-81.822254,40.616524]]]},"properties":{"p":"34-00609-000","o":"CROSS COUNTRY OHIO EXPRESS LLC","a":"7480  SR 241   MILLERSBURG 44654","d":"EAST HOLMES LOCAL SCHOOL DISTRICT","t":289.52,"l":"511: Res-Custom Code","c":0}},{"type":"Feature","geometry":{"type":"Polygon","coordinates":[[[-81.822274,40.615488],[-81.822103,40.615422],[-81.822099,40.616169],[-81.821698,40.616167],[-81.821699,40.616022],[-81.82148,40.616021],[-81.821486,40.615092],[-81.822274,40.615361],[-81.822274,40.615488]]]},"properties":{"p":"34-00610-000","o":"CROSS COUNTRY OHIO EXPRESS LLC","a":"7480  SR 241   MILLERSBURG 44654","d":"EAST HOLMES LOCAL SCHOOL DISTRICT","t":114,"l":"300: Ind-Vacant Land","c":0}},{"type":"Feature","geometry":{"type":"Polygon","coordinates":[[[-81.822098,40.616301],[-81.822103,40.615422],[-81.822274,40.615488],[-81.822276,40.615737],[-81.822254,40.616524],[-81.822097,40.616525],[-81.822098,40.616301]]]},"properties":{"p":"34-00611-000","o":"CROSS COUNTRY OHIO EXPRESS LLC","a":"7480  SR 241   MILLERSBURG 44654","d":"EAST HOLMES LOCAL SCHOOL DISTRICT","t":14.78,"l":"300: Ind-Vacant Land","c":0}},{"type":"Feature","geometry":{"type":"Polygon","coordinates":[[[-81.821544,40.616528],[-81.821147,40.616818],[-81.820936,40.616524],[-81.821544,40.616528]]]},"properties":{"p":"34-00527-000","o":"CROSS COUNTRY OHIO EXPRESS LLC","a":"7488  SR 241   MILLERSBURG 44654","d":"EAST HOLMES LOCAL SCHOOL DISTRICT","t":17.51,"l":"300: Ind-Vacant Land","c":0}},{"type":"Feature","geometry":{"type":"Polygon","coordinates":[[[-81.821699,40.616022],[-81.821698,40.616167],[-81.82141,40.616167],[-81.821408,40.616528],[-81.820936,40.616524],[-81.820941,40.616013],[-81.821699,40.616022]]]},"properties":{"p":"34-00400-000","o":"CROSS COUNTRY OHIO EXPRESS LLC","a":"7488  SR 241   MILLERSBURG 44654","d":"EAST HOLMES LOCAL SCHOOL DISTRICT","t":369.2,"l":"340: Ind-Manufacturing-Light","c":0}},{"type":"Feature","geometry":{"type":"Polygon","coordinates":[[[-81.822098,40.616301],[-81.822097,40.616525],[-81.821688,40.616527],[-81.821789,40.616348],[-81.822098,40.616301]]]},"properties":{"p":"34-00398-000","o":"CROSS COUNTRY OHIO EXPRESS LLC","a":"7488  SR 241   MILLERSBURG 44654","d":"EAST HOLMES LOCAL SCHOOL DISTRICT","t":13.84,"l":"300: Ind-Vacant Land","c":0}},{"type":"Feature","geometry":{"type":"Polygon","coordinates":[[[-81.821485,40.615232],[-81.82148,40.616021],[-81.820941,40.616013],[-81.820939,40.61523],[-81.821485,40.615232]]]},"properties":{"p":"34-00396-000","o":"CROSS COUNTRY OHIO EXPRESS LLC","a":"7488  SR 241   MILLERSBURG 44654","d":"EAST HOLMES LOCAL SCHOOL DISTRICT","t":231,"l":"340: Ind-Manufacturing-Light","c":0}},{"type":"Feature","geometry":{"type":"Polygon","coordinates":[[[-81.822236,40.614945],[-81.822272,40.615093],[-81.822274,40.615361],[-81.821486,40.615092],[-81.821488,40.614739],[-81.822236,40.614945]]]},"properties":{"p":"34-00306-001","o":"CROSS COUNTRY OHIO EXPRESS LLC","a":"SR 241","d":"EAST HOLMES LOCAL SCHOOL DISTRICT","t":24.11,"l":"300: Ind-Vacant Land","c":0}},{"type":"Feature","geometry":{"type":"Polygon","coordinates":[[[-82.12554,40.654615],[-82.12553,40.654711],[-82.125457,40.654872],[-82.125406,40.654944],[-82.125311,40.655019],[-82.125071,40.6551],[-82.124519,40.655097],[-82.124362,40.655059],[-82.124308,40.655023],[-82.124255,40.654958],[-82.124146,40.654605],[-82.124113,40.654583],[-82.123787,40.65472],[-82.123084,40.654766],[-82.122724,40.654856],[-82.122702,40.654882],[-82.1227,40.654749],[-82.122738,40.654776],[-82.123131,40.65469],[-82.123672,40.654668],[-82.123784,40.654649],[-82.124468,40.654318],[-82.124656,40.654279],[-82.124786,40.654286],[-82.125041,40.654337],[-82.125268,40.654359],[-82.125354,40.654384],[-82.12548,40.654473],[-82.12554,40.654615]],[[-82.12519,40.654762],[-82.124775,40.654741],[-82.12429,40.65478],[-82.124338,40.65493],[-82.124426,40.655007],[-82.124523,40.655028],[-82.124955,40.655038],[-82.125074,40.655026],[-82.125185,40.654995],[-82.12528,40.654949],[-82.12535,40.654882],[-82.125407,40.654775],[-82.12519,40.654762]],[[-82.125122,40.654415],[-82.124735,40.654349],[-82.124595,40.654356],[-82.124461,40.6544],[-82.124235,40.654514],[-82.124219,40.654539],[-82.124274,40.654726],[-82.124769,40.654687],[-82.125433,40.654722],[-82.125449,40.65466],[-82.125443,40.654593],[-82.125378,40.654485],[-82.12529,40.654437],[-82.125122,40.654415]]]},"properties":{"p":"28-00812-000","o":"ODELLS LAKE YOUTH CAMP INC","a":"LAKEVIEW DR","d":"WEST HOLMES LOCAL SCHOOL DISTRICT","t":1982.23,"l":"400: Com-Vacant Land","c":0}},{"type":"Feature","geometry":{"type":"Polygon","coordinates":[[[-82.152683,40.66469],[-82.151434,40.665237],[-82.151183,40.664799],[-82.152393,40.664276],[-82.152683,40.66469]]]},"properties":{"p":"28-00294-002","o":"YOUNG NANCY F","a":"14765  SR 3   LOUDONVILLE 44842","d":"WEST HOLMES LOCAL SCHOOL DISTRICT","t":1664.11,"l":"499: Com-Other","c":0}},{"type":"Feature","geometry":{"type":"Polygon","coordinates":[[[-82.146537,40.630903],[-82.146977,40.631559],[-82.145765,40.631552],[-82.146222,40.631145],[-82.146537,40.630903]]]},"properties":{"p":"28-00110-001","o":"SNYDER SANDRA M","a":"14571  TR 468   LAKEVILLE 44638","d":"WEST HOLMES LOCAL SCHOOL DISTRICT","t":506.25,"l":"561: Res-Custom Code","c":0}},{"type":"Feature","geometry":{"type":"Polygon","coordinates":[[[-82.143291,40.618439],[-82.143981,40.618457],[-82.144008,40.618719],[-82.144679,40.618846],[-82.144682,40.619279],[-82.144164,40.618873],[-82.143551,40.618538],[-82.143291,40.618439]]]},"properties":{"p":"28-00094-000","o":"BREITENBUCHER WILLIAM","a":"7340  TR 466   LAKEVILLE 44638","d":"WEST HOLMES LOCAL SCHOOL DISTRICT","t":255.35,"l":"599: Res-Other","c":0}},{"type":"Feature","geometry":{"type":"Polygon","coordinates":[[[-82.152433,40.631591],[-82.152409,40.630625],[-82.153747,40.630634],[-82.153772,40.6316],[-82.152433,40.631591]]]},"properties":{"p":"28-00072-004","o":"SCHIE VERNON D","a":"14752  TR 469   LAKEVILLE 44638","d":"WEST HOLMES LOCAL SCHOOL DISTRICT","t":327.37,"l":"561: Res-Custom Code","c":0}},{"type":"Feature","geometry":{"type":"Polygon","coordinates":[[[-82.143327,40.613394],[-82.144245,40.613412],[-82.144307,40.613692],[-82.144411,40.613855],[-82.143345,40.613838],[-82.143327,40.613394]]]},"properties":{"p":"28-00031-002","o":"HOCHSTETLER JOHN & VALERIE M","a":"7070  TR 466   LAKEVILLE 44638","d":"WEST HOLMES LOCAL SCHOOL DISTRICT","t":1690.01,"l":"561: Res-Custom Code","c":0}},{"type":"Feature","geometry":{"type":"Polygon","coordinates":[[[-82.144716,40.624286],[-82.144667,40.617003],[-82.149415,40.61707],[-82.149442,40.623478],[-82.147739,40.623503],[-82.147606,40.624303],[-82.144716,40.624286]]]},"properties":{"p":"28-00029-000","o":"BREITENBUCHER WILLIAM H & REBECCA ANN","a":"7361  TR 466   LAKEVILLE 44638","d":"WEST HOLMES LOCAL SCHOOL DISTRICT","t":11448.83,"l":"111: Agr-CAUV-Cash-Grain Farm","c":0}},{"type":"Feature","geometry":{"type":"Polygon","coordinates":[[[-82.18605,40.632168],[-82.186008,40.633354],[-82.186305,40.63348],[-82.186395,40.633413],[-82.187323,40.632543],[-82.187395,40.632433],[-82.187438,40.632253],[-82.187464,40.633699],[-82.180204,40.633783],[-82.180138,40.631493],[-82.180148,40.629334],[-82.180381,40.629374],[-82.181058,40.629136],[-82.181407,40.628644],[-82.181616,40.627568],[-82.182702,40.6262],[-82.182701,40.626419],[-82.183496,40.626842],[-82.183537,40.627788],[-82.187376,40.627723],[-82.187378,40.62786],[-82.186297,40.627879],[-82.186305,40.628477],[-82.185962,40.628482],[-82.185969,40.629087],[-82.187393,40.629063],[-82.187437,40.632154],[-82.18605,40.632168]]]},"properties":{"p":"27-00343-000","o":"YOUNG NANCY F","a":"7700  TR 462   LOUDONVILLE 44842","d":"LOUDONVILLE-PERRYSVILLE EX VILL SCHOOL DISTRICT","t":41531.33,"l":"416: Com-Camp Ground","c":0}},{"type":"Feature","geometry":{"type":"Polygon","coordinates":[[[-82.211455,40.642976],[-82.211582,40.642918],[-82.211666,40.643115],[-82.21146,40.643173],[-82.211455,40.642976]]]},"properties":{"p":"27-00317-000","o":"YOUNG NANCY F","a":"SR 3","d":"LOUDONVILLE-PERRYSVILLE EX VILL SCHOOL DISTRICT","t":33.08,"l":"501: Res-Custom Code","c":0}},{"type":"Feature","geometry":{"type":"Polygon","coordinates":[[[-82.169766,40.629129],[-82.17156,40.628039],[-82.172401,40.629246],[-82.172123,40.629531],[-82.171926,40.629491],[-82.171608,40.629481],[-82.171101,40.629385],[-82.170921,40.629327],[-82.170259,40.629243],[-82.170127,40.629334],[-82.169849,40.629225],[-82.169766,40.629129]]]},"properties":{"p":"27-00274-001","o":"YELENOSKY BERNARD E","a":"15265  TR 464   LOUDONVILLE 44842","d":"LOUDONVILLE-PERRYSVILLE EX VILL SCHOOL DISTRICT","t":1241.99,"l":"511: Res-Custom Code","c":0}},{"type":"Feature","geometry":{"type":"Polygon","coordinates":[[[-81.705722,40.589236],[-81.705406,40.58922],[-81.705144,40.589374],[-81.705335,40.587926],[-81.705937,40.587969],[-81.705722,40.589236]]]},"properties":{"p":"26-01451-006","o":"GERBER MAXWELL D & CATHERINE E","a":"2411  TR 415   DUNDEE 44624","d":"EAST HOLMES LOCAL SCHOOL DISTRICT","t":1206.56,"l":"511: Res-Custom Code","c":0}},{"type":"Feature","geometry":{"type":"Polygon","coordinates":[[[-81.698575,40.543845],[-81.698632,40.54365],[-81.700248,40.543707],[-81.699874,40.544444],[-81.698575,40.543845]]]},"properties":{"p":"26-00446-002","o":"MILLER DAVID D & ELMINA C","a":"2175  TR 444   SUGARCREEK 44681","d":"EAST HOLMES LOCAL SCHOOL DISTRICT","t":1135.92,"l":"501: Res-Custom Code","c":0}},{"type":"Feature","geometry":{"type":"Polygon","coordinates":[[[-81.693427,40.565524],[-81.693146,40.564541],[-81.692787,40.561631],[-81.697895,40.561755],[-81.697708,40.566011],[-81.694178,40.566354],[-81.693917,40.565437],[-81.693625,40.565499],[-81.693427,40.565524]]]},"properties":{"p":"26-00426-004","o":"MILLER DANIEL A & MAE","a":"5590  CR 172   MILLERSBURG 44654","d":"EAST HOLMES LOCAL SCHOOL DISTRICT","t":6411.37,"l":"101: Agr-Cash-Grain Farm","c":0}},{"type":"Feature","geometry":{"type":"Polygon","coordinates":[[[-81.709341,40.591043],[-81.709226,40.590754],[-81.709744,40.590708],[-81.70976,40.590827],[-81.710497,40.590748],[-81.710556,40.591652],[-81.709862,40.591977],[-81.709727,40.592009],[-81.709341,40.591043]]]},"properties":{"p":"26-00157-004","o":"GINGERICH ROBERT D & PATRICIA A","a":"TR 414","d":"EAST HOLMES LOCAL SCHOOL DISTRICT","t":833.98,"l":"501: Res-Custom Code","c":0}},{"type":"Feature","geometry":{"type":"Polygon","coordinates":[[[-82.092468,40.666601],[-82.092721,40.666599],[-82.092723,40.666736],[-82.092471,40.666739],[-82.092468,40.666601]]]},"properties":{"p":"23-00675-000","o":"BEARD EDWARD A & CHRISTINA M","a":"THIRD ST 49","d":"WEST HOLMES LOCAL SCHOOL DISTRICT","t":48.81,"l":"500: Res-Vacant Land","c":0}},{"type":"Feature","geometry":{"type":"Polygon","coordinates":[[[-82.092721,40.666599],[-82.092973,40.666597],[-82.092975,40.666734],[-82.092723,40.666736],[-82.092721,40.666599]]]},"properties":{"p":"23-00665-000","o":"MOORHEAD MICHAEL A & REBECCA B","a":"13158  THIRD ST 49 BIG PRAIRIE 44611","d":"WEST HOLMES LOCAL SCHOOL DISTRICT","t":231.32,"l":"510: Res-Single Family","c":0}},{"type":"Feature","geometry":{"type":"Polygon","coordinates":[[[-82.09524,40.595116],[-82.097075,40.595124],[-82.097068,40.59559],[-82.097683,40.595779],[-82.097713,40.598331],[-82.095261,40.598336],[-82.09524,40.595116]]]},"properties":{"p":"23-00210-000","o":"SWAREY ENTERPRISES LLC","a":"13225  SR 39   BIG PRAIRIE 44611","d":"WEST HOLMES LOCAL SCHOOL DISTRICT","t":3001.5,"l":"111: Agr-CAUV-Cash-Grain Farm","c":0}},{"type":"Feature","geometry":{"type":"Polygon","coordinates":[[[-82.032027,40.623781],[-82.03376,40.623616],[-82.033758,40.624074],[-82.032063,40.624062],[-82.032027,40.623781]]]},"properties":{"p":"23-00110-000","o":"HALL JEFFREY E","a":"7682  SR 754   SHREVE 44676","d":"WEST HOLMES LOCAL SCHOOL DISTRICT","t":1812.21,"l":"511: Res-Custom Code","c":0}},{"type":"Feature","geometry":{"type":"Polygon","coordinates":[[[-82.096705,40.520105],[-82.096686,40.520435],[-82.096471,40.520428],[-82.096489,40.520099],[-82.096705,40.520105]]]},"properties":{"p":"22-00174-000","o":"DYE BETHANY S","a":"127  MAIN ST 53 GLENMONT 44628","d":"WEST HOLMES LOCAL SCHOOL DISTRICT","t":257.88,"l":"510: Res-Single Family","c":0}},{"type":"Feature","geometry":{"type":"Polygon","coordinates":[[[-82.099716,40.520794],[-82.099727,40.520534],[-82.100177,40.520559],[-82.100322,40.520678],[-82.099716,40.520794]]]},"properties":{"p":"22-00050-000","o":"FRIEND ROBERT & DEANNA WILE & DANIELLE HOFACKER","a":"MAIN ST 5","d":"WEST HOLMES LOCAL SCHOOL DISTRICT","t":75.81,"l":"500: Res-Vacant Land","c":0}},{"type":"Feature","geometry":{"type":"Polygon","coordinates":[[[-82.099758,40.520199],[-82.099977,40.520196],[-82.100177,40.520559],[-82.099745,40.520534],[-82.099758,40.520199]]]},"properties":{"p":"22-00049-000","o":"FRIEND ROBERT & DEANNA WILE & DANIELLE HOFACKER","a":"MAIN ST 4 GLENMONT 44628","d":"WEST HOLMES LOCAL SCHOOL DISTRICT","t":354.63,"l":"500: Res-Vacant Land","c":0}},{"type":"Feature","geometry":{"type":"Polygon","coordinates":[[[-82.099727,40.520534],[-82.09953,40.520529],[-82.099542,40.520194],[-82.099758,40.520199],[-82.099745,40.520534],[-82.099727,40.520534]]]},"properties":{"p":"22-00048-000","o":"FRIEND ROBERT & DEANNA WILE & DANIELLE HOFACKER","a":"MAIN ST 3 GLENMONT 44628","d":"WEST HOLMES LOCAL SCHOOL DISTRICT","t":438.18,"l":"500: Res-Vacant Land","c":0}},{"type":"Feature","geometry":{"type":"Polygon","coordinates":[[[-82.094427,40.490382],[-82.094433,40.490224],[-82.094539,40.490227],[-82.094532,40.490385],[-82.094427,40.490382]]]},"properties":{"p":"21-00664-000","o":"BUCY ELIZA B","a":"CR 6","d":"WEST HOLMES LOCAL SCHOOL DISTRICT","t":297.29,"l":"501: Res-Custom Code","c":0}},{"type":"Feature","geometry":{"type":"Polygon","coordinates":[[[-82.147186,40.52151],[-82.147014,40.521953],[-82.145814,40.521479],[-82.147186,40.52151]]]},"properties":{"p":"21-00381-001","o":"MONNIER GORDON","a":"TR 16","d":"WEST HOLMES LOCAL SCHOOL DISTRICT","t":125.99,"l":"500: Res-Vacant Land","c":0}},{"type":"Feature","geometry":{"type":"Polygon","coordinates":[[[-82.122515,40.500278],[-82.122539,40.499795],[-82.123489,40.499973],[-82.124269,40.500229],[-82.124695,40.500279],[-82.125042,40.500205],[-82.125522,40.5],[-82.125932,40.499711],[-82.126287,40.499213],[-82.12676,40.498934],[-82.128943,40.49841],[-82.128618,40.497435],[-82.128711,40.496504],[-82.128881,40.496623],[-82.128801,40.497417],[-82.129119,40.49837],[-82.129124,40.498416],[-82.129109,40.49846],[-82.129052,40.498514],[-82.126869,40.499046],[-82.126956,40.49927],[-82.126866,40.499717],[-82.126446,40.49999],[-82.125025,40.500454],[-82.123685,40.5005],[-82.122515,40.500278]]]},"properties":{"p":"21-00349-004","o":"PALMER JOHN B III & BARBARA J","a":"2848  TR 7   BRINKHAVEN 43006","d":"WEST HOLMES LOCAL SCHOOL DISTRICT","t":5091.38,"l":"511: Res-Custom Code","c":0}},{"type":"Feature","geometry":{"type":"Polygon","coordinates":[[[-82.149934,40.498312],[-82.149646,40.498314],[-82.14968,40.49767],[-82.150741,40.497696],[-82.149934,40.498312]]]},"properties":{"p":"21-00282-003","o":"HANKINS PHIL L","a":"14542  TR 32   GLENMONT 44628","d":"WEST HOLMES LOCAL SCHOOL DISTRICT","t":75.7,"l":"561: Res-Custom Code","c":0}},{"type":"Feature","geometry":{"type":"Polygon","coordinates":[[[-82.101562,40.461156],[-82.101575,40.46057],[-82.102085,40.46057],[-82.102072,40.461192],[-82.101562,40.461156]]]},"properties":{"p":"21-00261-005","o":"JABER MERWAN MARK & MIREILLE K","a":"US 62","d":"WEST HOLMES LOCAL SCHOOL DISTRICT","t":388.25,"l":"501: Res-Custom Code","c":0}},{"type":"Feature","geometry":{"type":"Polygon","coordinates":[[[-82.147379,40.522064],[-82.147014,40.521953],[-82.147186,40.52151],[-82.150554,40.521593],[-82.150472,40.523369],[-82.150119,40.523179],[-82.14966,40.522981],[-82.148002,40.522295],[-82.147379,40.522064]]]},"properties":{"p":"21-00143-003","o":"MONNIER GORDON LEE","a":"14565  SR 520   GLENMONT 44628","d":"WEST HOLMES LOCAL SCHOOL DISTRICT","t":11369.85,"l":"511: Res-Custom Code","c":0}},{"type":"Feature","geometry":{"type":"Polygon","coordinates":[[[-82.171496,40.457862],[-82.17115,40.457841],[-82.170823,40.456935],[-82.171527,40.456909],[-82.17154,40.457867],[-82.171496,40.457862]]]},"properties":{"p":"20-00089-000","o":"SANFORD ROBERT LEO","a":"15092  US 62   BRINKHAVEN 43006","d":"DANVILLE LOCAL SCHOOL DISTRICT","t":202.09,"l":"561: Res-Custom Code","c":0}},{"type":"Feature","geometry":{"type":"Polygon","coordinates":[[[-82.157332,40.48385],[-82.157324,40.484015],[-82.156816,40.484001],[-82.156841,40.483836],[-82.157332,40.48385]]]},"properties":{"p":"20-00065-003","o":"GEOG GLEN L","a":"14844  TR 4   BRINKHAVEN 43006","d":"DANVILLE LOCAL SCHOOL DISTRICT","t":1067.55,"l":"511: Res-Custom Code","c":0}},{"type":"Feature","geometry":{"type":"Polygon","coordinates":[[[-82.176369,40.478581],[-82.176597,40.47876],[-82.176587,40.479201],[-82.177268,40.479216],[-82.177258,40.479726],[-82.176126,40.479701],[-82.17614,40.47873],[-82.176236,40.478681],[-82.176369,40.478581]]]},"properties":{"p":"20-00049-001","o":"COCHRUN RUSSELL M","a":"15235  TR 4   BRINKHAVEN 43006","d":"DANVILLE LOCAL SCHOOL DISTRICT","t":535.67,"l":"561: Res-Custom Code","c":0}},{"type":"Feature","geometry":{"type":"Polygon","coordinates":[[[-81.920527,40.630546],[-81.920754,40.630547],[-81.920753,40.63072],[-81.920526,40.630719],[-81.920527,40.630546]]]},"properties":{"p":"19-00208-000","o":"SMITH MARIE","a":"109  N WOOD ST  36 HOLMESVILLE 44633","d":"SOUTHEAST LOCAL SCHOOL DISTRICT","t":727.67,"l":"510: Res-Single Family","c":0}},{"type":"Feature","geometry":{"type":"Polygon","coordinates":[[[-81.959553,40.638953],[-81.959944,40.638584],[-81.959918,40.639003],[-81.959553,40.638953]]]},"properties":{"p":"17-00397-007","o":"RATTA CLIFFORD E","a":"TR 560","d":"SOUTHEAST LOCAL SCHOOL DISTRICT","t":3.3,"l":"501: Res-Custom Code","c":0}},{"type":"Feature","geometry":{"type":"Polygon","coordinates":[[[-81.959277,40.638906],[-81.958787,40.638823],[-81.958785,40.638209],[-81.959967,40.638209],[-81.959944,40.638584],[-81.959553,40.638953],[-81.959277,40.638906]]]},"properties":{"p":"17-00397-006","o":"RATTA CLIFFORD E","a":"TR 323","d":"SOUTHEAST LOCAL SCHOOL DISTRICT","t":196.69,"l":"501: Res-Custom Code","c":0}},{"type":"Feature","geometry":{"type":"Polygon","coordinates":[[[-81.959968,40.637795],[-81.959967,40.638209],[-81.958785,40.638209],[-81.958784,40.637797],[-81.959968,40.637795]]]},"properties":{"p":"17-00035-001","o":"RATTA CLIFFORD E","a":"9460  TR 560   HOLMESVILLE 44633","d":"SOUTHEAST LOCAL SCHOOL DISTRICT","t":1818.56,"l":"511: Res-Custom Code","c":0}},{"type":"Feature","geometry":{"type":"Polygon","coordinates":[[[-81.715539,40.627107],[-81.715545,40.62756],[-81.715075,40.627617],[-81.715069,40.627164],[-81.715539,40.627107]]]},"properties":{"p":"15-60005-000","o":"TRUSTEES OF LUTHERAN CHURCH AKA SCHENKELBERGER","a":"TR 669","d":"EAST HOLMES LOCAL SCHOOL DISTRICT","t":163.85,"l":"690: Exm-Graveyards","c":0}},{"type":"Feature","geometry":{"type":"Polygon","coordinates":[[[-82.040192,40.582119],[-82.040209,40.581901],[-82.041188,40.581939],[-82.041178,40.582157],[-82.040192,40.582119]]]},"properties":{"p":"14-00607-001","o":"LOWE BETHANY A","a":"11619  SR 39   MILLERSBURG 44654","d":"WEST HOLMES LOCAL SCHOOL DISTRICT","t":84.06,"l":"501: Res-Custom Code","c":0}},{"type":"Feature","geometry":{"type":"Polygon","coordinates":[[[-81.998333,40.529053],[-81.998386,40.528156],[-82.001801,40.527574],[-82.001726,40.52773],[-82.000972,40.528409],[-82.000365,40.529109],[-81.998333,40.529053]]]},"properties":{"p":"14-00600-000","o":"BLAGG JAMES E & SUSAN L CRIDDLE","a":"4096  TR 271   KILLBUCK 44637","d":"WEST HOLMES LOCAL SCHOOL DISTRICT","t":7589.7,"l":"511: Res-Custom Code","c":0}},{"type":"Feature","geometry":{"type":"Polygon","coordinates":[[[-82.070827,40.532128],[-82.071679,40.532158],[-82.071632,40.532976],[-82.070404,40.532966],[-82.070032,40.532703],[-82.070827,40.532128]]]},"properties":{"p":"14-00550-002","o":"MONNIER GORDON","a":"4161  TR 251   GLENMONT 44628","d":"WEST HOLMES LOCAL SCHOOL DISTRICT","t":1869.35,"l":"190: Agr-Other","c":0}},{"type":"Feature","geometry":{"type":"Polygon","coordinates":[[[-81.993299,40.550488],[-81.99331,40.550276],[-81.994324,40.550305],[-81.994313,40.550517],[-81.993299,40.550488]]]},"properties":{"p":"14-00506-000","o":"ZICKEFOOSE GARY RAY","a":"4675  CR 400   MILLERSBURG 44654","d":"WEST HOLMES LOCAL SCHOOL DISTRICT","t":783.64,"l":"560: Res-Mobile Home","c":0}},{"type":"Feature","geometry":{"type":"Polygon","coordinates":[[[-82.005939,40.586808],[-82.005847,40.587181],[-82.005608,40.587608],[-82.005444,40.58765],[-82.005176,40.588036],[-82.005251,40.588243],[-82.004941,40.588797],[-82.004476,40.589762],[-82.002379,40.589681],[-82.002445,40.58859],[-82.003257,40.58851],[-82.003768,40.588311],[-82.004409,40.587974],[-82.003982,40.586404],[-82.003143,40.585947],[-82.004103,40.585987],[-82.004139,40.585699],[-82.004722,40.585739],[-82.004695,40.586554],[-82.005486,40.586607],[-82.005497,40.586263],[-82.006038,40.586308],[-82.005939,40.586808]]]},"properties":{"p":"14-00078-003","o":"CLINAGE RANDALL DAVID & SHERRY LYNN","a":"10463  TR 262   MILLERSBURG 44654","d":"WEST HOLMES LOCAL SCHOOL DISTRICT","t":6313.36,"l":"101: Agr-Cash-Grain Farm","c":0}},{"type":"Feature","geometry":{"type":"Polygon","coordinates":[[[-82.006954,40.586852],[-82.0069,40.58776],[-82.007451,40.587779],[-82.007414,40.588405],[-82.005477,40.588864],[-82.005176,40.588036],[-82.005444,40.58765],[-82.005918,40.587527],[-82.006438,40.587238],[-82.006481,40.586832],[-82.006954,40.586852]]]},"properties":{"p":"14-00076-000","o":"CLINAGE LUMBER CO","a":"10481  TR 262   MILLERSBURG 44654","d":"WEST HOLMES LOCAL SCHOOL DISTRICT","t":9118.51,"l":"415: Com-Mobile Home Park","c":0}},{"type":"Feature","geometry":{"type":"Polygon","coordinates":[[[-81.923979,40.506363],[-81.923287,40.506348],[-81.923909,40.505718],[-81.923825,40.505148],[-81.924129,40.505154],[-81.924199,40.505411],[-81.924227,40.505755],[-81.924146,40.506036],[-81.923979,40.506363]]]},"properties":{"p":"13-00467-002","o":"STEINER WENDALL ROBERT","a":"CR 150   MILLERSBURG 44654","d":"WEST HOLMES LOCAL SCHOOL DISTRICT","t":991.67,"l":"501: Res-Custom Code","c":0}},{"type":"Feature","geometry":{"type":"Polygon","coordinates":[[[-81.884345,40.503692],[-81.884461,40.503937],[-81.88222,40.503888],[-81.882228,40.503643],[-81.884345,40.503692]]]},"properties":{"p":"13-00354-000","o":"PLANT EVELYN ELANE","a":"3344  CR 58   MILLERSBURG 44654","d":"WEST HOLMES LOCAL SCHOOL DISTRICT","t":3563.89,"l":"599: Res-Other","c":0}},{"type":"Feature","geometry":{"type":"Polygon","coordinates":[[[-81.90331,40.452742],[-81.903508,40.452717],[-81.90371,40.45272],[-81.903907,40.452751],[-81.904094,40.452807],[-81.904343,40.452938],[-81.904479,40.453051],[-81.904586,40.453181],[-81.904662,40.453324],[-81.904724,40.453527],[-81.903833,40.453606],[-81.903832,40.454071],[-81.904598,40.454108],[-81.904667,40.453788],[-81.904776,40.45371],[-81.904816,40.453843],[-81.904662,40.454255],[-81.904573,40.454244],[-81.904512,40.45454],[-81.903753,40.454525],[-81.903236,40.454572],[-81.90331,40.452742]]]},"properties":{"p":"13-00120-002","o":"LAURIHA FRAN","a":"CR 150","d":"WEST HOLMES LOCAL SCHOOL DISTRICT","t":358.7,"l":"599: Res-Other","c":0}},{"type":"Feature","geometry":{"type":"Polygon","coordinates":[[[-81.886148,40.521209],[-81.887177,40.521662],[-81.887159,40.522067],[-81.884832,40.521959],[-81.885618,40.520978],[-81.886148,40.521209]]]},"properties":{"p":"13-00093-004","o":"COX WILLIAM M","a":"TR 129","d":"WEST HOLMES LOCAL SCHOOL DISTRICT","t":1377.6,"l":"501: Res-Custom Code","c":0}},{"type":"Feature","geometry":{"type":"Polygon","coordinates":[[[-81.922774,40.504876],[-81.923567,40.504893],[-81.923556,40.505114],[-81.922763,40.505097],[-81.922774,40.504876]]]},"properties":{"p":"13-00032-002","o":"STEINER WENDALL ROBERT","a":"3320  CR 150   MILLERSBURG 44654","d":"WEST HOLMES LOCAL SCHOOL DISTRICT","t":2343.36,"l":"511: Res-Custom Code","c":0}},{"type":"Feature","geometry":{"type":"Polygon","coordinates":[[[-82.142843,40.57243],[-82.142865,40.571871],[-82.146181,40.571968],[-82.146176,40.572036],[-82.144377,40.571984],[-82.144339,40.572474],[-82.142843,40.57243]]]},"properties":{"p":"11-00337-007","o":"DEWEY JAMES R III & KENNETH E SUCHAN","a":"5550  TR 466   LAKEVILLE 44638","d":"WEST HOLMES LOCAL SCHOOL DISTRICT","t":1890.63,"l":"419: Com-Other","c":0}},{"type":"Feature","geometry":{"type":"Polygon","coordinates":[[[-82.205323,40.583766],[-82.205035,40.583773],[-82.205031,40.583615],[-82.20532,40.583629],[-82.205323,40.583766]]]},"properties":{"p":"10-00391-000","o":"ANDERSON TIMOTHY L","a":"CAYUGA TRACE 325","d":"LOUDONVILLE-PERRYSVILLE EX VILL SCHOOL DISTRICT","t":3.51,"l":"599: Res-Other","c":0}},{"type":"Feature","geometry":{"type":"Polygon","coordinates":[[[-82.205413,40.582574],[-82.205497,40.582563],[-82.205547,40.582532],[-82.205766,40.582675],[-82.205545,40.582789],[-82.205413,40.582574]]]},"properties":{"p":"10-00362-000","o":"DELAUDER RANDY & JENNIFER","a":"ALGONQUION AUTUMN  342","d":"LOUDONVILLE-PERRYSVILLE EX VILL SCHOOL DISTRICT","t":0.05,"l":"500: Res-Vacant Land","c":0}},{"type":"Feature","geometry":{"type":"Polygon","coordinates":[[[-82.171091,40.584016],[-82.17109,40.584696],[-82.167919,40.584691],[-82.167914,40.584011],[-82.171091,40.584016]]]},"properties":{"p":"10-00036-002","o":"HIDER CHRISTOPHER GEORGE","a":"5987  CR 22   LAKEVILLE 44638","d":"LOUDONVILLE-PERRYSVILLE EX VILL SCHOOL DISTRICT","t":1660.73,"l":"561: Res-Custom Code","c":0}},{"type":"Feature","geometry":{"type":"Polygon","coordinates":[[[-81.978935,40.501444],[-81.978512,40.50143],[-81.978524,40.50121],[-81.978945,40.501224],[-81.978935,40.501444]]]},"properties":{"p":"09-00405-000","o":"COOL LORRAINE M & MARGARET D ROSE","a":"270  ALLISON AVE 44 KILLBUCK 44637","d":"WEST HOLMES LOCAL SCHOOL DISTRICT","t":855.1,"l":"510: Res-Single Family","c":0}},{"type":"Feature","geometry":{"type":"Polygon","coordinates":[[[-81.983764,40.493956],[-81.983771,40.493775],[-81.984246,40.493786],[-81.984238,40.493967],[-81.983764,40.493956]]]},"properties":{"p":"09-00345-000","o":"PAHOUNDIS LOUIS W","a":"240 S MAIN ST 181 KILLBUCK 44637","d":"WEST HOLMES LOCAL SCHOOL DISTRICT","t":102.21,"l":"400: Com-Vacant Land","c":0}},{"type":"Feature","geometry":{"type":"Polygon","coordinates":[[[-81.985392,40.498134],[-81.985398,40.498022],[-81.985721,40.498033],[-81.985715,40.498146],[-81.985392,40.498134]]]},"properties":{"p":"09-00169-000","o":"STROUSE TABITHA TRUSTEE","a":"465  WATER ST 52 KILLBUCK 44637","d":"WEST HOLMES LOCAL SCHOOL DISTRICT","t":12.78,"l":"510: Res-Single Family","c":0}},{"type":"Feature","geometry":{"type":"Polygon","coordinates":[[[-81.985459,40.496921],[-81.985464,40.49683],[-81.985859,40.496844],[-81.985854,40.496935],[-81.985459,40.496921]]]},"properties":{"p":"09-00141-000","o":"BREWER JOSIAH KING","a":"295  WATER ST 46","d":"WEST HOLMES LOCAL SCHOOL DISTRICT","t":455.55,"l":"510: Res-Single Family","c":0}},{"type":"Feature","geometry":{"type":"Polygon","coordinates":[[[-81.985378,40.498384],[-81.985777,40.498398],[-81.985747,40.498565],[-81.985314,40.498554],[-81.985345,40.498382],[-81.985378,40.498384]]]},"properties":{"p":"09-00102-000","o":"SPRINGWATER ACRES RENTALS, LLC","a":"499  WATER ST 54 KILLBUCK 44637","d":"WEST HOLMES LOCAL SCHOOL DISTRICT","t":1352.89,"l":"510: Res-Single Family","c":0}},{"type":"Feature","geometry":{"type":"Polygon","coordinates":[[[-81.985598,40.493577],[-81.985603,40.493412],[-81.986077,40.493424],[-81.986073,40.493585],[-81.985598,40.493577]]]},"properties":{"p":"09-00094-000","o":"BLANKENSHIP DANIEL B & TERRIA P","a":"295  WATER ST 211 KILLBUCK 44637","d":"WEST HOLMES LOCAL SCHOOL DISTRICT","t":124.49,"l":"500: Res-Vacant Land","c":0}},{"type":"Feature","geometry":{"type":"Polygon","coordinates":[[[-81.986615,40.493167],[-81.986643,40.493368],[-81.985606,40.493343],[-81.985614,40.493143],[-81.986615,40.493167]]]},"properties":{"p":"09-00090-002","o":"BLANKENSHIP DANIEL B & TERRIA P","a":"325 S WATER ST  KILLBUCK 44637","d":"WEST HOLMES LOCAL SCHOOL DISTRICT","t":88.99,"l":"560: Res-Mobile Home","c":0}},{"type":"Feature","geometry":{"type":"Polygon","coordinates":[[[-81.986643,40.493368],[-81.986652,40.493437],[-81.985603,40.493412],[-81.985606,40.493343],[-81.986643,40.493368]]]},"properties":{"p":"09-00090-000","o":"BELL JOSEPHINE","a":"WATER ST","d":"WEST HOLMES LOCAL SCHOOL DISTRICT","t":410.06,"l":"500: Res-Vacant Land","c":0}},{"type":"Feature","geometry":{"type":"Polygon","coordinates":[[[-81.978952,40.492428],[-81.979573,40.492916],[-81.980623,40.492572],[-81.980833,40.493048],[-81.980307,40.493272],[-81.980076,40.493415],[-81.979774,40.493533],[-81.978627,40.493494],[-81.978851,40.492347],[-81.978952,40.492428]]]},"properties":{"p":"08-00814-006","o":"HOLMES INVESTMENT FIRM LLC","a":"9877  CR 35   KILLBUCK 44637","d":"WEST HOLMES LOCAL SCHOOL DISTRICT","t":4513.75,"l":"415: Com-Mobile Home Park","c":0}},{"type":"Feature","geometry":{"type":"Polygon","coordinates":[[[-81.988724,40.524102],[-81.988783,40.523167],[-81.989455,40.523363],[-81.989584,40.523107],[-81.989887,40.523196],[-81.990078,40.522811],[-81.990407,40.522907],[-81.990294,40.525016],[-81.988833,40.524965],[-81.988724,40.524102]]]},"properties":{"p":"08-00696-000","o":"ROHSKOPF WILL","a":"10043  CR 292   MILLERSBURG 44654","d":"WEST HOLMES LOCAL SCHOOL DISTRICT","t":43.76,"l":"111: Agr-CAUV-Cash-Grain Farm","c":0}},{"type":"Feature","geometry":{"type":"Polygon","coordinates":[[[-81.941308,40.460941],[-81.941344,40.460012],[-81.946112,40.460072],[-81.946043,40.461063],[-81.941308,40.460941]]]},"properties":{"p":"08-00541-000","o":"AUSTIN TRUMAN & LAURA","a":"TR 80","d":"WEST HOLMES LOCAL SCHOOL DISTRICT","t":1762.74,"l":"110: Agr-CAUV-Vacant Land","c":0}},{"type":"Feature","geometry":{"type":"Polygon","coordinates":[[[-81.936694,40.458069],[-81.941417,40.458187],[-81.941308,40.460941],[-81.936522,40.460833],[-81.93662,40.458067],[-81.936694,40.458069]]]},"properties":{"p":"08-00540-000","o":"AUSTIN TRUMAN & LAURA","a":"1539  TR 80   MILLERSBURG 44654","d":"WEST HOLMES LOCAL SCHOOL DISTRICT","t":6282.04,"l":"111: Agr-CAUV-Cash-Grain Farm","c":0}},{"type":"Feature","geometry":{"type":"Polygon","coordinates":[[[-81.99139,40.519343],[-81.994862,40.517719],[-81.995143,40.518026],[-81.995319,40.518032],[-81.995341,40.525194],[-81.990294,40.525016],[-81.990504,40.521098],[-81.992481,40.520937],[-81.99139,40.519343]]]},"properties":{"p":"08-00537-000","o":"ROHSKOPF WILL A","a":"10251  CR 292   KILLBUCK 44637","d":"WEST HOLMES LOCAL SCHOOL DISTRICT","t":73.22,"l":"101: Agr-Cash-Grain Farm","c":0}},{"type":"Feature","geometry":{"type":"Polygon","coordinates":[[[-81.999886,40.517683],[-82.000481,40.517698],[-82.000718,40.517844],[-81.999882,40.517987],[-81.999886,40.517683]]]},"properties":{"p":"08-00534-000","o":"ROHSKOPF WILL ANDREW","a":"SR 60","d":"WEST HOLMES LOCAL SCHOOL DISTRICT","t":0.24,"l":"110: Agr-CAUV-Vacant Land","c":0}},{"type":"Feature","geometry":{"type":"Polygon","coordinates":[[[-81.997918,40.517634],[-81.997822,40.525281],[-81.995341,40.525194],[-81.995319,40.518032],[-81.995784,40.518034],[-81.995793,40.51758],[-81.997918,40.517634]]]},"properties":{"p":"08-00533-000","o":"ROHSKOPF WILL ANDREW","a":"37800  SR 60   KILLBUCK 44637","d":"WEST HOLMES LOCAL SCHOOL DISTRICT","t":77.12,"l":"111: Agr-CAUV-Cash-Grain Farm","c":0}},{"type":"Feature","geometry":{"type":"Polygon","coordinates":[[[-81.997918,40.517634],[-81.999886,40.517683],[-81.99979,40.525294],[-81.998485,40.525266],[-81.998484,40.525304],[-81.997822,40.525281],[-81.997918,40.517634]]]},"properties":{"p":"08-00532-000","o":"ROHSKOPF WILL ANDREW","a":"SR 60","d":"WEST HOLMES LOCAL SCHOOL DISTRICT","t":11.74,"l":"110: Agr-CAUV-Vacant Land","c":0}},{"type":"Feature","geometry":{"type":"Polygon","coordinates":[[[-81.924023,40.562062],[-81.924084,40.562183],[-81.92422,40.562566],[-81.924188,40.562566],[-81.92404,40.56215],[-81.923998,40.56207],[-81.924023,40.562062]]]},"properties":{"p":"07-01924-000","o":"HOXWORTH PAUL R","a":"WISE ST","d":"WEST HOLMES LOCAL SCHOOL DISTRICT","t":133.02,"l":"500: Res-Vacant Land","c":0}},{"type":"Feature","geometry":{"type":"Polygon","coordinates":[[[-81.923966,40.561946],[-81.923938,40.561955],[-81.923898,40.561875],[-81.92393,40.561875],[-81.923966,40.561946]]]},"properties":{"p":"07-01922-000","o":"HOXWORTH PAUL R","a":"WISE ST","d":"WEST HOLMES LOCAL SCHOOL DISTRICT","t":85.75,"l":"500: Res-Vacant Land","c":0}},{"type":"Feature","geometry":{"type":"MultiPolygon","coordinates":[[[[-81.916609,40.557097],[-81.916608,40.55714],[-81.916252,40.557128],[-81.916254,40.557086],[-81.916609,40.557097]]],[[[-81.916623,40.556865],[-81.916268,40.556854],[-81.916271,40.556817],[-81.916626,40.556829],[-81.916623,40.556865]]]]},"properties":{"p":"07-01860-000","o":"PATTERSON ROGER R & SHELBY J LAST KNOWN OWNER","a":"N MONROE ST 400","d":"WEST HOLMES LOCAL SCHOOL DISTRICT","t":3257.69,"l":"500: Res-Vacant Land","c":0}},{"type":"Feature","geometry":{"type":"Polygon","coordinates":[[[-81.91623,40.552027],[-81.916289,40.552029],[-81.916288,40.552056],[-81.915754,40.552044],[-81.915755,40.552016],[-81.91623,40.552027]]]},"properties":{"p":"07-01858-000","o":"CALHOUN MYRTLE E","a":"S MONROE ST","d":"WEST HOLMES LOCAL SCHOOL DISTRICT","t":1595.31,"l":"500: Res-Vacant Land","c":0}},{"type":"Feature","geometry":{"type":"Polygon","coordinates":[[[-81.917058,40.557561],[-81.917058,40.557564],[-81.916583,40.557546],[-81.917058,40.557561]]]},"properties":{"p":"07-01855-000","o":"VOORHES ELISABETH A LAST KNOWN OWNER","a":"N CLAY ST","d":"WEST HOLMES LOCAL SCHOOL DISTRICT","t":435.06,"l":"500: Res-Vacant Land","c":0}},{"type":"Feature","geometry":{"type":"MultiPolygon","coordinates":[[[[-81.916136,40.557083],[-81.916254,40.557086],[-81.916252,40.557128],[-81.916133,40.557124],[-81.916136,40.557083]]],[[[-81.916152,40.556813],[-81.916271,40.556817],[-81.916268,40.556854],[-81.91615,40.55685],[-81.916152,40.556813]]]]},"properties":{"p":"07-01838-000","o":"PATTERSON ROGER R & SHELBY J LAST KNOWN OWNER","a":"N MONROE ST","d":"WEST HOLMES LOCAL SCHOOL DISTRICT","t":2119.58,"l":"500: Res-Vacant Land","c":0}},{"type":"Feature","geometry":{"type":"Polygon","coordinates":[[[-81.918572,40.551441],[-81.918572,40.551457],[-81.918115,40.551445],[-81.918116,40.551428],[-81.918572,40.551441]]]},"properties":{"p":"07-01821-000","o":"GROVE DAVID S & TERRI L","a":"S WASHINGTON ST","d":"WEST HOLMES LOCAL SCHOOL DISTRICT","t":140.31,"l":"500: Res-Vacant Land","c":0}},{"type":"Feature","geometry":{"type":"Polygon","coordinates":[[[-81.917648,40.545632],[-81.917396,40.545652],[-81.917378,40.545569],[-81.91892,40.545605],[-81.918892,40.545971],[-81.918038,40.546032],[-81.917994,40.545738],[-81.917671,40.545735],[-81.917648,40.545632]]]},"properties":{"p":"07-01681-000","o":"MILLERSBURG MHP LLC","a":"800 S WASHINGTON ST 3 MILLERSBURG 44654","d":"WEST HOLMES LOCAL SCHOOL DISTRICT","t":5714.45,"l":"415: Com-Mobile Home Park","c":0}},{"type":"Feature","geometry":{"type":"Polygon","coordinates":[[[-81.917994,40.545738],[-81.917998,40.545765],[-81.917681,40.545777],[-81.917671,40.545735],[-81.917994,40.545738]]]},"properties":{"p":"07-01679-000","o":"MILLERSBURG MHP LLC","a":"S WASHINGTON ST 83","d":"WEST HOLMES LOCAL SCHOOL DISTRICT","t":880.65,"l":"400: Com-Vacant Land","c":0}},{"type":"Feature","geometry":{"type":"Polygon","coordinates":[[[-81.918038,40.546032],[-81.917776,40.546051],[-81.917749,40.545919],[-81.917714,40.545923],[-81.917681,40.545777],[-81.917998,40.545765],[-81.918038,40.546032]]]},"properties":{"p":"07-01677-000","o":"MILLERSBURG MHP LLC","a":"800 S WASHINGTON ST 83 MILLERSBURG 44654","d":"WEST HOLMES LOCAL SCHOOL DISTRICT","t":4310.94,"l":"447: Com-Office","c":0}},{"type":"Feature","geometry":{"type":"Polygon","coordinates":[[[-81.822276,40.615737],[-81.822274,40.615488],[-81.823216,40.615784],[-81.823051,40.615991],[-81.822919,40.616111],[-81.822276,40.615737]]]},"properties":{"p":"34-00612-000","o":"CROSS COUNTRY OHIO EXPRESS LLC","a":"SR 241","d":"EAST HOLMES LOCAL SCHOOL DISTRICT","t":30.72,"l":"500: Res-Vacant Land","c":0}},{"type":"Feature","geometry":{"type":"Polygon","coordinates":[[[-81.821488,40.614736],[-81.821485,40.615232],[-81.820939,40.61523],[-81.820939,40.614735],[-81.821488,40.614736]]]},"properties":{"p":"34-00304-001","o":"CROSS COUNTRY OHIO EXPRESS LLC","a":"TR 618   MILLERSBURG 44654","d":"EAST HOLMES LOCAL SCHOOL DISTRICT","t":37.33,"l":"501: Res-Custom Code","c":0}},{"type":"Feature","geometry":{"type":"Polygon","coordinates":[[[-82.092478,40.667164],[-82.092723,40.667162],[-82.092723,40.667175],[-82.092478,40.667178],[-82.092478,40.667164]]]},"properties":{"p":"23-00668-001","o":"MOORHEAD MIRIAM","a":"THIRD ST 51","d":"WEST HOLMES LOCAL SCHOOL DISTRICT","t":8.1,"l":"500: Res-Vacant Land","c":0}}]}