{"type":"FeatureCollection","features":[{"type":"Feature","geometry":{"type":"Polygon","coordinates":[[[-83.589358,39.596063],[-83.589418,39.59554],[-83.589646,39.595556],[-83.589586,39.596079],[-83.589358,39.596063]]]},"properties":{"p":"030-002-0-01-067-01","o":"BLAIR ROBERT JOSEPH","a":"6433 ALLEY ST 16 LOT","d":"MIAMI TRACE LOCAL SCHOOL DISTRICT","t":190.58,"l":"500: Res-Vacant Land","c":0}},{"type":"Feature","geometry":{"type":"Polygon","coordinates":[[[-83.589586,39.596079],[-83.589646,39.595556],[-83.589742,39.595563],[-83.589682,39.596085],[-83.589586,39.596079]]]},"properties":{"p":"030-002-0-01-067-02","o":"BLAIR ROBERT JOSEPH","a":"ALLEY ST 17 LOT","d":"MIAMI TRACE LOCAL SCHOOL DISTRICT","t":46.73,"l":"500: Res-Vacant Land","c":0}},{"type":"Feature","geometry":{"type":"Polygon","coordinates":[[[-83.571496,39.557034],[-83.571506,39.556969],[-83.57239,39.557024],[-83.572184,39.558451],[-83.5713,39.558396],[-83.571496,39.557034]]]},"properties":{"p":"030-010-0-00-006-01","o":"ELKINS ROBERT J & MARY ELLEN","a":"6566 PALMER NW RD","d":"MIAMI TRACE LOCAL SCHOOL DISTRICT","t":3603.69,"l":"511: Res-Custom Code","c":0}},{"type":"Feature","geometry":{"type":"Polygon","coordinates":[[[-83.519578,39.521934],[-83.519763,39.520292],[-83.520559,39.520335],[-83.520486,39.51976],[-83.52082,39.519739],[-83.520948,39.520416],[-83.52102,39.520417],[-83.521229,39.521596],[-83.521271,39.522021],[-83.519578,39.521934]]]},"properties":{"p":"030-018-0-00-034-00","o":"RODGERS RICHARD","a":"180 JASPER COIL NW RD","d":"MIAMI TRACE LOCAL SCHOOL DISTRICT","t":197.64,"l":"511: Res-Custom Code","c":0}},{"type":"Feature","geometry":{"type":"Polygon","coordinates":[[[-83.520096,39.517734],[-83.520123,39.517732],[-83.520216,39.517979],[-83.519716,39.518082],[-83.519644,39.517767],[-83.520096,39.517734]]]},"properties":{"p":"030-018-0-02-002-00","o":"MICKLE MARK","a":"JASPER COIL RD US HWY 22","d":"MIAMI TRACE LOCAL SCHOOL DISTRICT","t":429.08,"l":"599: Res-Other","c":0}},{"type":"Feature","geometry":{"type":"Polygon","coordinates":[[[-83.518604,39.51971],[-83.519209,39.519574],[-83.519203,39.519823],[-83.51974,39.51984],[-83.519714,39.520166],[-83.518664,39.520094],[-83.518604,39.51971]]]},"properties":{"p":"030-018-0-02-014-00","o":"CARPENTER DOUG","a":"66 JASPER COIL SW RD","d":"MIAMI TRACE LOCAL SCHOOL DISTRICT","t":477.33,"l":"599: Res-Other","c":0}},{"type":"Feature","geometry":{"type":"Polygon","coordinates":[[[-83.519209,39.519574],[-83.519772,39.519447],[-83.51974,39.51984],[-83.519203,39.519823],[-83.519209,39.519574]]]},"properties":{"p":"030-018-0-02-016-00","o":"CARPENTER DOUGLAS R","a":"144 JASPER COIL NW RD","d":"MIAMI TRACE LOCAL SCHOOL DISTRICT","t":826.85,"l":"561: Res-Custom Code","c":0}},{"type":"Feature","geometry":{"type":"Polygon","coordinates":[[[-83.614103,39.606021],[-83.614117,39.606003],[-83.614321,39.606091],[-83.614072,39.606435],[-83.613869,39.606344],[-83.614103,39.606021]]]},"properties":{"p":"050-011-0-02-037-00","o":"HIXON AUSTIN","a":"8116 RAILROAD ST 16 LOT","d":"MIAMI TRACE LOCAL SCHOOL DISTRICT","t":1086.72,"l":"510: Res-Single Family","c":0}},{"type":"Feature","geometry":{"type":"Polygon","coordinates":[[[-83.557029,39.650024],[-83.555885,39.649988],[-83.555288,39.649463],[-83.557236,39.649535],[-83.557208,39.65003],[-83.557029,39.650024]]]},"properties":{"p":"060-009-0-03-001-00","o":"WILSON JORDANNA MACY & CHRIS","a":"ST RT 729 NW","d":"MIAMI TRACE LOCAL SCHOOL DISTRICT","t":443.38,"l":"501: Res-Custom Code","c":0}},{"type":"Feature","geometry":{"type":"Polygon","coordinates":[[[-83.558419,39.660248],[-83.558499,39.659865],[-83.558692,39.65989],[-83.558615,39.660259],[-83.558419,39.660248]]]},"properties":{"p":"060-009-0-03-237-00","o":"GRIFFIN JAMES R & HALL BETTY E","a":"ST RT 729 NW 55 WH LOT","d":"MIAMI TRACE LOCAL SCHOOL DISTRICT","t":103.76,"l":"500: Res-Vacant Land","c":0}},{"type":"Feature","geometry":{"type":"Polygon","coordinates":[[[-83.558615,39.660259],[-83.558692,39.65989],[-83.558886,39.659915],[-83.558812,39.660269],[-83.558615,39.660259]]]},"properties":{"p":"060-009-0-03-238-00","o":"GRIFFIN JAMES R & HALL BETTY E","a":"ST RT 729 NW 54 WH LOT","d":"MIAMI TRACE LOCAL SCHOOL DISTRICT","t":101.55,"l":"500: Res-Vacant Land","c":0}},{"type":"Feature","geometry":{"type":"Polygon","coordinates":[[[-83.558544,39.659649],[-83.558567,39.65954],[-83.559148,39.659615],[-83.559126,39.659723],[-83.558544,39.659649]]]},"properties":{"p":"060-009-0-03-242-00","o":"GRIFFIN ALLIE & JAMES SURVIVORSHIP","a":"WALNUT ST 50 LOT","d":"MIAMI TRACE LOCAL SCHOOL DISTRICT","t":90.42,"l":"500: Res-Vacant Land","c":0}},{"type":"Feature","geometry":{"type":"Polygon","coordinates":[[[-83.558567,39.65954],[-83.55859,39.659432],[-83.559171,39.659506],[-83.559148,39.659615],[-83.558567,39.65954]]]},"properties":{"p":"060-009-0-03-243-00","o":"GRIFFIN ALLIE & JAMES SURVIVORSHIP","a":"WALNUT ST 49 LOT","d":"MIAMI TRACE LOCAL SCHOOL DISTRICT","t":175.21,"l":"500: Res-Vacant Land","c":0}},{"type":"Feature","geometry":{"type":"Polygon","coordinates":[[[-83.55439,39.64865],[-83.552754,39.647172],[-83.557432,39.647325],[-83.557388,39.648054],[-83.554453,39.647961],[-83.55439,39.64865]]]},"properties":{"p":"060-012-0-00-024-00","o":"YOAKUM FRANK P","a":"ST RT 729 NW","d":"MIAMI TRACE LOCAL SCHOOL DISTRICT","t":601.61,"l":"501: Res-Custom Code","c":0}},{"type":"Feature","geometry":{"type":"Polygon","coordinates":[[[-83.534268,39.640159],[-83.53437,39.640136],[-83.534951,39.641659],[-83.533481,39.641996],[-83.532903,39.640466],[-83.534268,39.640159]]]},"properties":{"p":"060-012-0-00-047-00","o":"BARKER EDWARD L & BRANDON L","a":"9706 ST RT 41 NW","d":"MIAMI TRACE LOCAL SCHOOL DISTRICT","t":7734.33,"l":"429: Com-Other","c":0}},{"type":"Feature","geometry":{"type":"Polygon","coordinates":[[[-83.532903,39.640466],[-83.533481,39.641996],[-83.531922,39.642344],[-83.532074,39.640753],[-83.532903,39.640466]]]},"properties":{"p":"060-012-0-00-047-00","o":"BARKER EDWARD L & BRANDON L","a":"9706 ST RT 41 NW","d":"MIAMI TRACE LOCAL SCHOOL DISTRICT","t":7734.33,"l":"429: Com-Other","c":0}},{"type":"Feature","geometry":{"type":"Polygon","coordinates":[[[-83.650238,39.619449],[-83.649978,39.619218],[-83.65058,39.618833],[-83.650954,39.619165],[-83.650364,39.619562],[-83.650238,39.619449]]]},"properties":{"p":"060-014-0-00-001-01","o":"HAMMOND JOHN & LINDA","a":"9181 JENKS NW RD","d":"MIAMI TRACE LOCAL SCHOOL DISTRICT","t":70.86,"l":"511: Res-Custom Code","c":0}},{"type":"Feature","geometry":{"type":"Polygon","coordinates":[[[-83.607677,39.623404],[-83.60769,39.623258],[-83.608249,39.623283],[-83.608238,39.623428],[-83.607677,39.623404]]]},"properties":{"p":"060-015-0-02-025-00","o":"ELLIOTT DAWN RENEA & HAROLD W","a":"9140 MILL NW ST","d":"MIAMI TRACE LOCAL SCHOOL DISTRICT","t":288.1,"l":"510: Res-Single Family","c":0}},{"type":"Feature","geometry":{"type":"Polygon","coordinates":[[[-83.562094,39.623104],[-83.562315,39.622628],[-83.562422,39.622632],[-83.562534,39.622583],[-83.562617,39.62258],[-83.562572,39.623128],[-83.562094,39.623104]]]},"properties":{"p":"060-016-0-02-004-00","o":"TYREE TRACY L & RONDA R SURVIVORSHIP","a":"4444 HEDGE CT 4 LOT","d":"MIAMI TRACE LOCAL SCHOOL DISTRICT","t":1240.76,"l":"510: Res-Single Family","c":0}},{"type":"Feature","geometry":{"type":"Polygon","coordinates":[[[-83.529261,39.614717],[-83.529285,39.614384],[-83.52972,39.6144],[-83.52971,39.614739],[-83.529261,39.614717]]]},"properties":{"p":"060-017-0-02-004-00","o":"MAPLE HILL RENTAL PROPERTIES LLC","a":"2382 PARROTT STATION NW RD","d":"MIAMI TRACE LOCAL SCHOOL DISTRICT","t":751.05,"l":"510: Res-Single Family","c":0}},{"type":"Feature","geometry":{"type":"Polygon","coordinates":[[[-83.489868,39.585354],[-83.490866,39.585596],[-83.490861,39.585665],[-83.489834,39.585686],[-83.489825,39.585552],[-83.489868,39.585354]]]},"properties":{"p":"060-021-0-01-001-00","o":"SMITH ANDREW J","a":"3367 VIRGINIA NW CT 12 LOT","d":"MIAMI TRACE LOCAL SCHOOL DISTRICT","t":1987.76,"l":"510: Res-Single Family","c":0}},{"type":"Feature","geometry":{"type":"Polygon","coordinates":[[[-83.559825,39.650961],[-83.55984,39.650637],[-83.5601,39.650645],[-83.560083,39.65097],[-83.559825,39.650961]]]},"properties":{"p":"080-009-0-03-019-00","o":"AFFORDABLE FENCE BUILDERS LLC","a":"20 JANES ST 14 LOT","d":"MIAMI TRACE LOCAL SCHOOL DISTRICT","t":918.95,"l":"510: Res-Single Family","c":0}},{"type":"Feature","geometry":{"type":"Polygon","coordinates":[[[-83.562465,39.652481],[-83.562642,39.65236],[-83.563024,39.652707],[-83.562848,39.652828],[-83.562465,39.652481]]]},"properties":{"p":"080-009-0-03-070-01","o":"YOAKUM FRANK P","a":"WALNUT ST 37 LOT","d":"MIAMI TRACE LOCAL SCHOOL DISTRICT","t":74.85,"l":"500: Res-Vacant Land","c":0}},{"type":"Feature","geometry":{"type":"Polygon","coordinates":[[[-83.562642,39.65236],[-83.56282,39.652238],[-83.563203,39.652584],[-83.563024,39.652707],[-83.562642,39.65236]]]},"properties":{"p":"080-009-0-03-071-01","o":"YOAKUM FRANK P","a":"WALNUT ST 38 LOT","d":"MIAMI TRACE LOCAL SCHOOL DISTRICT","t":58.1,"l":"500: Res-Vacant Land","c":0}},{"type":"Feature","geometry":{"type":"Polygon","coordinates":[[[-83.563356,39.652722],[-83.563388,39.652701],[-83.563624,39.652913],[-83.563231,39.653174],[-83.563001,39.652966],[-83.563356,39.652722]]]},"properties":{"p":"080-009-0-03-072-00","o":"YOAKUM FRANK P","a":"WALNUT ST 39 LOT","d":"MIAMI TRACE LOCAL SCHOOL DISTRICT","t":28.24,"l":"500: Res-Vacant Land","c":0}},{"type":"Feature","geometry":{"type":"Polygon","coordinates":[[[-83.564767,39.65532],[-83.56521,39.655024],[-83.565285,39.655092],[-83.564846,39.655391],[-83.564767,39.65532]]]},"properties":{"p":"080-009-0-03-115-00","o":"STIRES JASON","a":"27 MAIN ST 45 LOT","d":"MIAMI TRACE LOCAL SCHOOL DISTRICT","t":400.82,"l":"510: Res-Single Family","c":0}},{"type":"Feature","geometry":{"type":"Polygon","coordinates":[[[-83.557119,39.653137],[-83.55756,39.652846],[-83.557713,39.652984],[-83.557272,39.653274],[-83.557119,39.653137]]]},"properties":{"p":"080-009-0-03-386-00","o":"JONES CRYSTAL D","a":"19 FENT ST 26 LOT","d":"MIAMI TRACE LOCAL SCHOOL DISTRICT","t":192.05,"l":"510: Res-Single Family","c":0}},{"type":"Feature","geometry":{"type":"Polygon","coordinates":[[[-83.557518,39.657729],[-83.558096,39.657803],[-83.558058,39.657982],[-83.55748,39.657908],[-83.557518,39.657729]]]},"properties":{"p":"080-009-0-03-431-00","o":"WILLIAMS JUEL A","a":"2 VINE ST 52 LOT","d":"MIAMI TRACE LOCAL SCHOOL DISTRICT","t":566.66,"l":"510: Res-Single Family","c":0}},{"type":"Feature","geometry":{"type":"Polygon","coordinates":[[[-83.555574,39.653071],[-83.555589,39.652917],[-83.555836,39.653139],[-83.555728,39.65321],[-83.555574,39.653071]]]},"properties":{"p":"080-009-0-03-484-00","o":"VILLAGE OF JEFFERSONVILLE","a":"5 SMITH ST 10 LOT","d":"MIAMI TRACE LOCAL SCHOOL DISTRICT","t":9233.11,"l":"510: Res-Single Family","c":0}},{"type":"Feature","geometry":{"type":"Polygon","coordinates":[[[-83.555589,39.652917],[-83.555592,39.652884],[-83.555859,39.653124],[-83.555836,39.653139],[-83.555589,39.652917]]]},"properties":{"p":"080-009-0-03-486-00","o":"VILLAGE OF JEFFERSONVILLE","a":"SMITH ST 8 LOT","d":"MIAMI TRACE LOCAL SCHOOL DISTRICT","t":417.99,"l":"500: Res-Vacant Land","c":0}},{"type":"Feature","geometry":{"type":"Polygon","coordinates":[[[-83.362605,39.697779],[-83.362936,39.697373],[-83.366709,39.699158],[-83.366378,39.699564],[-83.362605,39.697779]]]},"properties":{"p":"100-001-0-00-013-17","o":"HOLBERT GALE G JR","a":"11702 KELLOUGH NW RD","d":"MIAMI TRACE LOCAL SCHOOL DISTRICT","t":13979.97,"l":"599: Res-Other","c":0}},{"type":"Feature","geometry":{"type":"Polygon","coordinates":[[[-83.299723,39.681931],[-83.299772,39.681872],[-83.300663,39.682024],[-83.300078,39.682629],[-83.299379,39.682347],[-83.299723,39.681931]]]},"properties":{"p":"100-003-0-00-011-00","o":"CULWELL ELZIE ETAL","a":"13044 US HWY 62 NE","d":"MIAMI TRACE LOCAL SCHOOL DISTRICT","t":2566.55,"l":"501: Res-Custom Code","c":0}},{"type":"Feature","geometry":{"type":"Polygon","coordinates":[[[-83.299005,39.68181],[-83.299056,39.681749],[-83.299772,39.681872],[-83.298902,39.682928],[-83.298173,39.682823],[-83.299005,39.68181]]]},"properties":{"p":"100-003-0-00-012-00","o":"WILSON OSCAR","a":"11419 COOK YANKEETOWN NW RD","d":"MIAMI TRACE LOCAL SCHOOL DISTRICT","t":1030.05,"l":"511: Res-Custom Code","c":0}},{"type":"Feature","geometry":{"type":"Polygon","coordinates":[[[-83.355895,39.685716],[-83.356202,39.685314],[-83.356599,39.685322],[-83.356283,39.685725],[-83.355895,39.685716]]]},"properties":{"p":"100-006-0-00-004-00","o":"ADKINS DANIEL & AMANDA","a":"10444 WHITE OAK NE RD","d":"MIAMI TRACE LOCAL SCHOOL DISTRICT","t":671.57,"l":"599: Res-Other","c":0}},{"type":"Feature","geometry":{"type":"Polygon","coordinates":[[[-83.33124,39.648564],[-83.331457,39.648336],[-83.331852,39.64867],[-83.331635,39.648898],[-83.33124,39.648564]]]},"properties":{"p":"100-012-0-01-016-00","o":"JOHNSON SAMUEL","a":"US HWY 62 NE","d":"MIAMI TRACE LOCAL SCHOOL DISTRICT","t":76.43,"l":"501: Res-Custom Code","c":0}},{"type":"Feature","geometry":{"type":"Polygon","coordinates":[[[-83.339526,39.653762],[-83.340229,39.653126],[-83.340546,39.653706],[-83.339905,39.654072],[-83.33947,39.653813],[-83.339526,39.653762]]]},"properties":{"p":"100-012-0-01-028-00","o":"JOHNSON KEITH D","a":"HARRISON NE RD","d":"MIAMI TRACE LOCAL SCHOOL DISTRICT","t":3388,"l":"399: Ind-Other","c":0}},{"type":"Feature","geometry":{"type":"Polygon","coordinates":[[[-83.339402,39.653686],[-83.340332,39.652844],[-83.340453,39.652923],[-83.33947,39.653813],[-83.339344,39.653738],[-83.339402,39.653686]]]},"properties":{"p":"100-012-0-01-028-01","o":"JOHNSON KEITH D","a":"HARRISON NE RD","d":"MIAMI TRACE LOCAL SCHOOL DISTRICT","t":188.11,"l":"399: Ind-Other","c":0}},{"type":"Feature","geometry":{"type":"Polygon","coordinates":[[[-83.344639,39.630023],[-83.345295,39.629878],[-83.347025,39.631076],[-83.346679,39.631436],[-83.344639,39.630023]]]},"properties":{"p":"100-019-0-01-008-00","o":"MATHENY CHRISTOPHER A","a":"POST NE RD 8 LOT","d":"MIAMI TRACE LOCAL SCHOOL DISTRICT","t":89.03,"l":"501: Res-Custom Code","c":0}},{"type":"Feature","geometry":{"type":"Polygon","coordinates":[[[-83.269766,39.620056],[-83.270169,39.620075],[-83.269865,39.62045],[-83.269766,39.620056]]]},"properties":{"p":"100-022-0-00-003-02","o":"KISER SEAN & ASHLIE","a":"WASHINGTON WATERLOO NE RD 7 LOT","d":"MIAMI TRACE LOCAL SCHOOL DISTRICT","t":1272.51,"l":"500: Res-Vacant Land","c":0}},{"type":"Feature","geometry":{"type":"Polygon","coordinates":[[[-83.266068,39.625685],[-83.266625,39.625588],[-83.266691,39.625808],[-83.266131,39.625906],[-83.266068,39.625685]]]},"properties":{"p":"100-022-0-01-015-00","o":"KAVANAGH DIANA","a":"4731 ST RT 207 NE 11 LOT","d":"MIAMI TRACE LOCAL SCHOOL DISTRICT","t":215.31,"l":"510: Res-Single Family","c":0}},{"type":"Feature","geometry":{"type":"Polygon","coordinates":[[[-83.267032,39.626953],[-83.266461,39.62705],[-83.266417,39.626897],[-83.266987,39.626802],[-83.267032,39.626953]]]},"properties":{"p":"100-022-0-01-020-00","o":"SWIM IRAL L","a":"4811 ST RT 207 NE 1 LOT","d":"MIAMI TRACE LOCAL SCHOOL DISTRICT","t":46.24,"l":"429: Com-Other","c":0}},{"type":"Feature","geometry":{"type":"Polygon","coordinates":[[[-83.265053,39.624776],[-83.265537,39.624699],[-83.265565,39.624795],[-83.265081,39.624873],[-83.265053,39.624776]]]},"properties":{"p":"100-022-0-01-051-00","o":"CASE PERRY L","a":"MAIN ST 19 LOT","d":"MIAMI TRACE LOCAL SCHOOL DISTRICT","t":196.05,"l":"599: Res-Other","c":0}},{"type":"Feature","geometry":{"type":"Polygon","coordinates":[[[-83.267761,39.625366],[-83.266733,39.625546],[-83.2666,39.625076],[-83.267629,39.624898],[-83.267761,39.625366]]]},"properties":{"p":"100-022-0-01-068-00","o":"WUNDERLIN ROBERT A & LUCINDA A","a":"4711 ST RT 207 NE 10 LOT","d":"MIAMI TRACE LOCAL SCHOOL DISTRICT","t":2570.19,"l":"599: Res-Other","c":0}},{"type":"Feature","geometry":{"type":"Polygon","coordinates":[[[-83.266157,39.696086],[-83.266178,39.695771],[-83.271223,39.695925],[-83.271204,39.696346],[-83.266157,39.696086]]]},"properties":{"p":"110-004-0-00-006-00","o":"WILSON CHERYL LYNN","a":"N ST RT 207","d":"MADISON-PLAINS LOCAL SCHOOL DISTRICT","t":4632.86,"l":"101: Agr-Cash-Grain Farm","c":0}},{"type":"Feature","geometry":{"type":"Polygon","coordinates":[[[-83.297818,39.562105],[-83.300788,39.560277],[-83.302165,39.562138],[-83.30219,39.562198],[-83.300685,39.562369],[-83.299464,39.562853],[-83.29777,39.562135],[-83.297818,39.562105]]]},"properties":{"p":"120-015-0-00-009-00","o":"CAMPBELL BRENDA S & CARL DAVID STEINHAUSER","a":"1045 WOOD NE RD","d":"MIAMI TRACE LOCAL SCHOOL DISTRICT","t":3434.78,"l":"101: Agr-Cash-Grain Farm","c":0}},{"type":"Feature","geometry":{"type":"Polygon","coordinates":[[[-83.270566,39.616691],[-83.271552,39.616192],[-83.271771,39.616996],[-83.270881,39.617446],[-83.270764,39.617031],[-83.270683,39.61686],[-83.270566,39.616691]]]},"properties":{"p":"125-004-0-00-013-03","o":"THOMAS JUAN & TAMARA","a":"WASHINGTON WATERLOO NE RD 1 LOT","d":"MIAMI TRACE LOCAL SCHOOL DISTRICT","t":435.95,"l":"500: Res-Vacant Land","c":0}},{"type":"Feature","geometry":{"type":"Polygon","coordinates":[[[-83.266594,39.553017],[-83.266614,39.553276],[-83.266208,39.553322],[-83.266151,39.553063],[-83.266594,39.553017]]]},"properties":{"p":"130-016-0-01-040-00","o":"MOORE NORMAN & SARAH","a":"10 MCCLAIN AVE","d":"MIAMI TRACE LOCAL SCHOOL DISTRICT","t":920.31,"l":"511: Res-Custom Code","c":0}},{"type":"Feature","geometry":{"type":"Polygon","coordinates":[[[-83.266594,39.553017],[-83.26658,39.552941],[-83.266948,39.552922],[-83.266958,39.553236],[-83.266614,39.553276],[-83.266594,39.553017]]]},"properties":{"p":"130-016-0-01-040-00","o":"MOORE NORMAN & SARAH","a":"10 MCCLAIN AVE","d":"MIAMI TRACE LOCAL SCHOOL DISTRICT","t":920.31,"l":"511: Res-Custom Code","c":0}},{"type":"Feature","geometry":{"type":"Polygon","coordinates":[[[-83.526193,39.692063],[-83.526593,39.691949],[-83.526675,39.69213],[-83.526276,39.692244],[-83.526193,39.692063]]]},"properties":{"p":"140-001-0-01-001-00","o":"HOLLEY CHARLES","a":"REID NE RD","d":"MIAMI TRACE LOCAL SCHOOL DISTRICT","t":185.25,"l":"500: Res-Vacant Land","c":0}},{"type":"Feature","geometry":{"type":"Polygon","coordinates":[[[-83.526675,39.69213],[-83.526695,39.692124],[-83.526761,39.692269],[-83.526344,39.692391],[-83.526276,39.692244],[-83.526675,39.69213]]]},"properties":{"p":"140-001-0-01-002-00","o":"HOLLEY CHARLES","a":"12945 REID NE RD 9 LOT","d":"MIAMI TRACE LOCAL SCHOOL DISTRICT","t":2272.83,"l":"510: Res-Single Family","c":0}},{"type":"Feature","geometry":{"type":"Polygon","coordinates":[[[-83.526756,39.692271],[-83.526827,39.692414],[-83.52641,39.692534],[-83.526344,39.692391],[-83.526756,39.692271]]]},"properties":{"p":"140-001-0-01-003-00","o":"HOLLEY CHARLES","a":"REID NE RD 8 LOT","d":"MIAMI TRACE LOCAL SCHOOL DISTRICT","t":30.05,"l":"500: Res-Vacant Land","c":0}},{"type":"Feature","geometry":{"type":"Polygon","coordinates":[[[-83.526807,39.69242],[-83.526827,39.692414],[-83.526893,39.69256],[-83.526476,39.692677],[-83.52641,39.692534],[-83.526807,39.69242]]]},"properties":{"p":"140-001-0-01-004-00","o":"HOLLEY CHARLES","a":"REID NE RD 7 LOT","d":"MIAMI TRACE LOCAL SCHOOL DISTRICT","t":30.05,"l":"500: Res-Vacant Land","c":0}},{"type":"Feature","geometry":{"type":"Polygon","coordinates":[[[-83.528154,39.697858],[-83.528767,39.697828],[-83.528819,39.698145],[-83.528237,39.698174],[-83.528154,39.697858]]]},"properties":{"p":"140-001-0-01-018-00","o":"MUNRO VINCENT & CRYSTAL","a":"13345 REID NE RD","d":"MIAMI TRACE LOCAL SCHOOL DISTRICT","t":15219,"l":"511: Res-Custom Code","c":0}},{"type":"Feature","geometry":{"type":"Polygon","coordinates":[[[-83.480255,39.706883],[-83.480564,39.706591],[-83.48108,39.706929],[-83.480255,39.706883]]]},"properties":{"p":"140-002-0-00-016-01","o":"FOX PATRICIA L","a":"GREENE NE RD","d":"MADISON-PLAINS LOCAL SCHOOL DISTRICT","t":375.73,"l":"101: Agr-Cash-Grain Farm","c":0}},{"type":"Feature","geometry":{"type":"Polygon","coordinates":[[[-83.387771,39.608744],[-83.388084,39.609144],[-83.387299,39.60933],[-83.387039,39.608909],[-83.387771,39.608744]]]},"properties":{"p":"140-025-0-03-004-00","o":"MULLINS RONALD","a":"4839 DICKEY NE RD","d":"MIAMI TRACE LOCAL SCHOOL DISTRICT","t":1072.96,"l":"561: Res-Custom Code","c":0}},{"type":"Feature","geometry":{"type":"Polygon","coordinates":[[[-83.387188,39.607996],[-83.387496,39.607927],[-83.387697,39.608259],[-83.387467,39.608353],[-83.387188,39.607996]]]},"properties":{"p":"160-025-0-03-002-01","o":"GRIMMETT TYLER & JAZLYN","a":"DICKEY NE RD","d":"MIAMI TRACE LOCAL SCHOOL DISTRICT","t":180.28,"l":"511: Res-Custom Code","c":0}},{"type":"Feature","geometry":{"type":"Polygon","coordinates":[[[-83.387771,39.608744],[-83.387965,39.6087],[-83.388216,39.609112],[-83.388084,39.609144],[-83.387771,39.608744]]]},"properties":{"p":"160-025-0-03-004-01","o":"MULLINS RONALD","a":"DICKEY NE RD","d":"MIAMI TRACE LOCAL SCHOOL DISTRICT","t":12.03,"l":"500: Res-Vacant Land","c":0}},{"type":"Feature","geometry":{"type":"Polygon","coordinates":[[[-83.395482,39.604251],[-83.395756,39.604183],[-83.395897,39.604513],[-83.395638,39.60457],[-83.395482,39.604251]]]},"properties":{"p":"160-025-0-03-090-00","o":"MANNING CAROL S","a":"63 MIDLAND AVE","d":"MIAMI TRACE LOCAL SCHOOL DISTRICT","t":742.39,"l":"511: Res-Custom Code","c":0}},{"type":"Feature","geometry":{"type":"Polygon","coordinates":[[[-83.393952,39.610898],[-83.394292,39.610819],[-83.394496,39.611345],[-83.394156,39.611424],[-83.393952,39.610898]]]},"properties":{"p":"160-025-0-03-147-00","o":"SOUDER CRYSTAL & STEPHENS PAUL E","a":"76 BIDDLE BLVD 2 LOT","d":"MIAMI TRACE LOCAL SCHOOL DISTRICT","t":1739.23,"l":"510: Res-Single Family","c":0}},{"type":"Feature","geometry":{"type":"Polygon","coordinates":[[[-83.394159,39.605249],[-83.39471,39.605118],[-83.394782,39.605213],[-83.394292,39.605427],[-83.394159,39.605249]]]},"properties":{"p":"160-025-0-03-246-00","o":"KIDDER LINDA","a":"8 WAYNE ST","d":"MIAMI TRACE LOCAL SCHOOL DISTRICT","t":790.87,"l":"560: Res-Mobile Home","c":0}},{"type":"Feature","geometry":{"type":"Polygon","coordinates":[[[-83.395756,39.604687],[-83.396049,39.604622],[-83.396061,39.604638],[-83.395545,39.604865],[-83.39546,39.604752],[-83.395756,39.604687]]]},"properties":{"p":"160-025-0-03-301-00","o":"GREEN JOHN","a":"20 MAIN ST","d":"MIAMI TRACE LOCAL SCHOOL DISTRICT","t":411.88,"l":"420: Com-Retail-Small","c":0}},{"type":"Feature","geometry":{"type":"Polygon","coordinates":[[[-83.398321,39.608486],[-83.398826,39.608254],[-83.398894,39.608345],[-83.398389,39.608576],[-83.398321,39.608486]]]},"properties":{"p":"160-025-0-03-322-00","o":"HERRERA JOANNA GISELE","a":"86 MAIN ST 25 PT LOT","d":"MIAMI TRACE LOCAL SCHOOL DISTRICT","t":1297.26,"l":"510: Res-Single Family","c":0}},{"type":"Feature","geometry":{"type":"Polygon","coordinates":[[[-83.389335,39.606516],[-83.389403,39.606502],[-83.389536,39.606879],[-83.38946,39.606893],[-83.389335,39.606516]]]},"properties":{"p":"160-025-0-03-341-01","o":"OMSAGAR HOTELS LTD","a":"53 MIRON ST 15 LOT","d":"MIAMI TRACE LOCAL SCHOOL DISTRICT","t":65.42,"l":"500: Res-Vacant Land","c":0}},{"type":"Feature","geometry":{"type":"Polygon","coordinates":[[[-83.447745,39.468107],[-83.447974,39.467577],[-83.44894,39.467848],[-83.448717,39.468413],[-83.447724,39.468155],[-83.447745,39.468107]]]},"properties":{"p":"170-001-0-00-016-04","o":"SUGAR GROVE LAKE LLC","a":"733 STAUNTON SUGAR GROVE SW RD","d":"MIAMI TRACE LOCAL SCHOOL DISTRICT","t":948.46,"l":"561: Res-Custom Code","c":0}},{"type":"Feature","geometry":{"type":"Polygon","coordinates":[[[-83.465507,39.43123],[-83.465276,39.42927],[-83.466513,39.429394],[-83.466074,39.431196],[-83.465507,39.43123]]]},"properties":{"p":"170-004-0-00-014-00","o":"WELTON EDWARD H SR & MARY L SURV","a":"6821 CROSS SE RD","d":"MIAMI TRACE LOCAL SCHOOL DISTRICT","t":331.85,"l":"511: Res-Custom Code","c":0}},{"type":"Feature","geometry":{"type":"Polygon","coordinates":[[[-83.487744,39.41779],[-83.487781,39.417717],[-83.488118,39.41803],[-83.487913,39.418474],[-83.487499,39.418276],[-83.487744,39.41779]]]},"properties":{"p":"170-007-0-00-006-00","o":"KNISLEY KANDY","a":"GREENFIELD SABINA SW RD","d":"MIAMI TRACE LOCAL SCHOOL DISTRICT","t":61.3,"l":"501: Res-Custom Code","c":0}},{"type":"Feature","geometry":{"type":"Polygon","coordinates":[[[-83.487238,39.417335],[-83.487265,39.417254],[-83.487781,39.417717],[-83.487499,39.418276],[-83.487005,39.418041],[-83.487238,39.417335]]]},"properties":{"p":"170-007-0-00-007-00","o":"KNISLEY KANDY","a":"GREENFIELD SABINA SW RD","d":"MIAMI TRACE LOCAL SCHOOL DISTRICT","t":264.15,"l":"501: Res-Custom Code","c":0}},{"type":"Feature","geometry":{"type":"Polygon","coordinates":[[[-83.486603,39.416765],[-83.486639,39.416691],[-83.48678,39.416819],[-83.48657,39.416992],[-83.487045,39.41792],[-83.486605,39.419286],[-83.485413,39.419233],[-83.486603,39.416765]]]},"properties":{"p":"170-007-0-00-008-00","o":"KNISLEY KANDY","a":"GREENFIELD SABINA SW RD","d":"MIAMI TRACE LOCAL SCHOOL DISTRICT","t":244.32,"l":"501: Res-Custom Code","c":0}},{"type":"Feature","geometry":{"type":"Polygon","coordinates":[[[-83.486719,39.416869],[-83.48678,39.416819],[-83.487265,39.417254],[-83.487045,39.41792],[-83.48657,39.416992],[-83.486719,39.416869]]]},"properties":{"p":"170-007-0-00-009-00","o":"KNISLEY KANDY","a":"1822 GREENFIELD SABINA SW RD","d":"MIAMI TRACE LOCAL SCHOOL DISTRICT","t":94.38,"l":"511: Res-Custom Code","c":0}},{"type":"Feature","geometry":{"type":"Polygon","coordinates":[[[-83.482934,39.413538],[-83.482964,39.413466],[-83.483432,39.413796],[-83.48408,39.414362],[-83.483687,39.414593],[-83.482876,39.41656],[-83.481826,39.416213],[-83.482934,39.413538]]]},"properties":{"p":"170-007-0-00-016-00","o":"WELTON EDWARD H & MARY L","a":"1194 GREENFIELD SABINA SW RD","d":"MIAMI TRACE LOCAL SCHOOL DISTRICT","t":377.17,"l":"511: Res-Custom Code","c":0}},{"type":"Feature","geometry":{"type":"Polygon","coordinates":[[[-83.463626,39.397367],[-83.463639,39.397346],[-83.464209,39.397575],[-83.463923,39.398039],[-83.463872,39.398018],[-83.464018,39.39778],[-83.463497,39.397575],[-83.463626,39.397367]]]},"properties":{"p":"170-010-0-01-023-00","o":"SMITH ADRIAN & BRANDON","a":"9005 CROSS SE RD 23 LOT","d":"MIAMI TRACE LOCAL SCHOOL DISTRICT","t":1828.12,"l":"560: Res-Mobile Home","c":0}},{"type":"Feature","geometry":{"type":"Polygon","coordinates":[[[-83.46348,39.397603],[-83.463497,39.397575],[-83.464018,39.39778],[-83.463872,39.398018],[-83.463356,39.397805],[-83.46348,39.397603]]]},"properties":{"p":"170-010-0-01-024-00","o":"SMITH BRANDON & ADRIAN","a":"9760 WASHINGTON NEW MARTINSBURG SW RD 24 WH LOT","d":"MIAMI TRACE LOCAL SCHOOL DISTRICT","t":123.93,"l":"510: Res-Single Family","c":0}},{"type":"Feature","geometry":{"type":"Polygon","coordinates":[[[-83.463484,39.398638],[-83.463356,39.398842],[-83.462832,39.398641],[-83.462961,39.398438],[-83.463484,39.398638]]]},"properties":{"p":"170-010-0-01-028-00","o":"BRYAN JASON & BRYAN STACY","a":"9706 WASHINGTON NEW MARTINSBURG SW RD 38 LOT","d":"MIAMI TRACE LOCAL SCHOOL DISTRICT","t":1830.3,"l":"510: Res-Single Family","c":0}},{"type":"Feature","geometry":{"type":"Polygon","coordinates":[[[-83.463356,39.398842],[-83.463228,39.399045],[-83.462704,39.398845],[-83.462832,39.398641],[-83.463356,39.398842]]]},"properties":{"p":"170-010-0-01-029-00","o":"BRYAN JASON & BRYAN STACY","a":"WASHINGTON NEW MARTINSBURG SW RD 39 LOT","d":"MIAMI TRACE LOCAL SCHOOL DISTRICT","t":123.77,"l":"500: Res-Vacant Land","c":0}},{"type":"Feature","geometry":{"type":"Polygon","coordinates":[[[-83.462704,39.398845],[-83.463254,39.399055],[-83.463215,39.399117],[-83.462665,39.398909],[-83.462704,39.398845]]]},"properties":{"p":"170-010-0-01-029-02","o":"BRYAN JASON & BRYAN STACY","a":"NEW MARTINSBURG SE RD 39 LOT","d":"MIAMI TRACE LOCAL SCHOOL DISTRICT","t":6.94,"l":"500: Res-Vacant Land","c":0}},{"type":"Feature","geometry":{"type":"Polygon","coordinates":[[[-83.462484,39.396642],[-83.461539,39.396864],[-83.461972,39.396184],[-83.462613,39.396427],[-83.462484,39.396642]]]},"properties":{"p":"170-010-0-01-051-00","o":"PUNJAB GREENFIELD LLC","a":"117 GREENFIELD SABINA SW RD","d":"MIAMI TRACE LOCAL SCHOOL DISTRICT","t":137.79,"l":"420: Com-Retail-Small","c":0}},{"type":"Feature","geometry":{"type":"Polygon","coordinates":[[[-83.465134,39.394142],[-83.465332,39.393834],[-83.465288,39.393818],[-83.465326,39.393761],[-83.465377,39.39378],[-83.46543,39.393691],[-83.465646,39.393766],[-83.465545,39.393982],[-83.465392,39.394239],[-83.465134,39.394142]]]},"properties":{"p":"170-010-0-01-081-00","o":"KNORR PAUL E & DEBORAH A SURVIVORSHIP","a":"10061 S WASHINGTON NEW MARTINSBURG RD 63 LOT","d":"MIAMI TRACE LOCAL SCHOOL DISTRICT","t":6612.2,"l":"500: Res-Vacant Land","c":0}},{"type":"Feature","geometry":{"type":"Polygon","coordinates":[[[-83.522031,39.569283],[-83.522109,39.56858],[-83.522384,39.568598],[-83.522307,39.569301],[-83.522031,39.569283]]]},"properties":{"p":"190-004-0-01-018-00","o":"STATE OF OHIO","a":"3291 FORD NW RD 18 LOT","d":"MIAMI TRACE LOCAL SCHOOL DISTRICT","t":545.51,"l":"400: Com-Vacant Land","c":0}},{"type":"Feature","geometry":{"type":"Polygon","coordinates":[[[-83.522307,39.569301],[-83.522384,39.568598],[-83.522649,39.568616],[-83.522592,39.56932],[-83.522307,39.569301]]]},"properties":{"p":"190-004-0-01-019-00","o":"STATE OF OHIO","a":"3305 FORD NW RD 19 LOT","d":"MIAMI TRACE LOCAL SCHOOL DISTRICT","t":565.75,"l":"400: Com-Vacant Land","c":0}},{"type":"Feature","geometry":{"type":"Polygon","coordinates":[[[-83.407436,39.58624],[-83.407611,39.586223],[-83.407822,39.586846],[-83.407652,39.586876],[-83.407436,39.58624]]]},"properties":{"p":"190-006-0-00-010-08","o":"GOLDSBERRY MICHAEL A & BARBARA S","a":"MATHEWS NW RD","d":"MIAMI TRACE LOCAL SCHOOL DISTRICT","t":488.66,"l":"501: Res-Custom Code","c":0}},{"type":"Feature","geometry":{"type":"Polygon","coordinates":[[[-83.447615,39.54884],[-83.447122,39.549116],[-83.44707,39.549061],[-83.447565,39.548787],[-83.447615,39.54884]]]},"properties":{"p":"190-011-0-04-027-00","o":"COMBS PHYLLIS J & MALEEA E","a":"1325 PEARL ST 162 LOT","d":"MIAMI TRACE LOCAL SCHOOL DISTRICT","t":106.6,"l":"500: Res-Vacant Land","c":0}},{"type":"Feature","geometry":{"type":"Polygon","coordinates":[[[-83.447122,39.549116],[-83.447615,39.54884],[-83.44767,39.548897],[-83.447175,39.549172],[-83.447122,39.549116]]]},"properties":{"p":"190-011-0-04-028-00","o":"COMBS PHYLLIS J & MALEEA E","a":"1327 PEARL ST 163 LOT","d":"MIAMI TRACE LOCAL SCHOOL DISTRICT","t":106.6,"l":"500: Res-Vacant Land","c":0}},{"type":"Feature","geometry":{"type":"Polygon","coordinates":[[[-83.44837,39.54986],[-83.448442,39.54982],[-83.448749,39.550147],[-83.448606,39.550228],[-83.448298,39.5499],[-83.44837,39.54986]]]},"properties":{"p":"190-011-0-04-087-00","o":"BURNETT TRACY & TINA","a":"417 CLYBURN AVE 103 LOT","d":"MIAMI TRACE LOCAL SCHOOL DISTRICT","t":250.71,"l":"510: Res-Single Family","c":0}},{"type":"Feature","geometry":{"type":"Polygon","coordinates":[[[-83.450479,39.550529],[-83.450743,39.550806],[-83.450495,39.550824],[-83.450308,39.550626],[-83.450479,39.550529]]]},"properties":{"p":"190-011-0-04-107-00","o":"SCHRECKENGAUST MARY","a":"308 MACE ST 127 LOT","d":"MIAMI TRACE LOCAL SCHOOL DISTRICT","t":892.03,"l":"510: Res-Single Family","c":0}},{"type":"Feature","geometry":{"type":"MultiPolygon","coordinates":[[[[-83.484474,39.527161],[-83.485849,39.526864],[-83.485938,39.530847],[-83.484515,39.53088],[-83.484503,39.529316],[-83.484152,39.52723],[-83.484474,39.527161]]],[[[-83.484403,39.524209],[-83.484454,39.524197],[-83.484498,39.526714],[-83.483996,39.526829],[-83.483995,39.526769],[-83.484409,39.526677],[-83.484403,39.524209]]]]},"properties":{"p":"190-016-0-00-001-00","o":"KIDWELL GISELE C","a":"2824 US HWY 22 NW","d":"MIAMI TRACE LOCAL SCHOOL DISTRICT","t":2842.61,"l":"101: Agr-Cash-Grain Farm","c":0}},{"type":"Feature","geometry":{"type":"Polygon","coordinates":[[[-83.469489,39.532794],[-83.469472,39.532518],[-83.470855,39.53251],[-83.470837,39.532581],[-83.470834,39.532804],[-83.469489,39.532794]]]},"properties":{"p":"190-016-0-01-012-00","o":"GILLETTE CHRISTOPHER","a":"346 JAMISON NW RD","d":"MIAMI TRACE LOCAL SCHOOL DISTRICT","t":29.18,"l":"511: Res-Custom Code","c":0}},{"type":"Feature","geometry":{"type":"Polygon","coordinates":[[[-83.418438,39.515096],[-83.418484,39.514948],[-83.42769,39.521858],[-83.427561,39.521961],[-83.418438,39.515096]]]},"properties":{"p":"190-027-0-00-001-05","o":"WCHLAND LLC","a":"OLD US HWY 35 SE","d":"MIAMI TRACE LOCAL SCHOOL DISTRICT","t":829.85,"l":"300: Ind-Vacant Land","c":0}},{"type":"Feature","geometry":{"type":"Polygon","coordinates":[[[-83.369253,39.436199],[-83.3693,39.43614],[-83.374024,39.437555],[-83.380201,39.445227],[-83.372239,39.444126],[-83.368165,39.440342],[-83.367952,39.437849],[-83.369253,39.436199]]]},"properties":{"p":"220-020-0-00-002-00","o":"BRAUN JOHN E","a":"3643 MIAMI TRACE SE RD","d":"MIAMI TRACE LOCAL SCHOOL DISTRICT","t":3508.68,"l":"101: Agr-Cash-Grain Farm","c":0}},{"type":"Feature","geometry":{"type":"Polygon","coordinates":[[[-83.372224,39.377751],[-83.372639,39.377152],[-83.37275,39.377367],[-83.372775,39.377447],[-83.37284,39.377534],[-83.37299,39.377655],[-83.373799,39.378219],[-83.372378,39.378184],[-83.372224,39.377751]]]},"properties":{"p":"220-025-0-00-001-00","o":"COOPER JEFFREY D & LEANN M SURV","a":"WOLFE SE RD","d":"MIAMI TRACE LOCAL SCHOOL DISTRICT","t":1135.03,"l":"501: Res-Custom Code","c":0}},{"type":"Feature","geometry":{"type":"Polygon","coordinates":[[[-83.362025,39.447573],[-83.362332,39.447576],[-83.362318,39.447954],[-83.362008,39.447951],[-83.362025,39.447573]]]},"properties":{"p":"220-020-0-02-107-00","o":"COX CRYSTAL","a":"3963 NORTH SE ST 9 LOT","d":"MIAMI TRACE LOCAL SCHOOL DISTRICT","t":19673.61,"l":"510: Res-Single Family","c":0}},{"type":"Feature","geometry":{"type":"Polygon","coordinates":[[[-83.284056,39.496411],[-83.281911,39.495289],[-83.282326,39.494806],[-83.282993,39.494905],[-83.284076,39.495602],[-83.284131,39.495551],[-83.284728,39.495941],[-83.285003,39.495991],[-83.285361,39.495506],[-83.286365,39.496621],[-83.284473,39.49781],[-83.284058,39.497399],[-83.283645,39.49716],[-83.284056,39.496411]]]},"properties":{"p":"220-010-0-00-015-01","o":"PICKLESIMER DUSTIN S","a":"DOGTOWN SE RD","d":"MIAMI TRACE LOCAL SCHOOL DISTRICT","t":647.26,"l":"101: Agr-Cash-Grain Farm","c":0}},{"type":"Feature","geometry":{"type":"Polygon","coordinates":[[[-83.429593,39.533041],[-83.429704,39.532964],[-83.430094,39.533307],[-83.429983,39.533384],[-83.429593,39.533041]]]},"properties":{"p":"214-015-4-00-117-00","o":"LOWMAN LORI L","a":"420 THIRD ST 882 LOT","d":"WASHINGTON COURT HOUSE CITY SCHOOL DISTRICT","t":763.41,"l":"510: Res-Single Family","c":0}},{"type":"Feature","geometry":{"type":"Polygon","coordinates":[[[-83.42854,39.530953],[-83.428645,39.53088],[-83.428959,39.531153],[-83.428854,39.531226],[-83.42854,39.530953]]]},"properties":{"p":"214-015-4-00-024-00","o":"ROHRER ASHLEY & AIDEN","a":"328 E ELM ST 8 LOT","d":"WASHINGTON COURT HOUSE CITY SCHOOL DISTRICT","t":1095.01,"l":"510: Res-Single Family","c":0}},{"type":"Feature","geometry":{"type":"Polygon","coordinates":[[[-83.429609,39.538731],[-83.429785,39.538714],[-83.429851,39.539166],[-83.429675,39.539182],[-83.429609,39.538731]]]},"properties":{"p":"214-009-4-00-024-00","o":"GUARQUILA ZHAGNAY ANDRES SANTIAGO ETAL","a":"809 WASHINGTON AVE 2 LOT","d":"WASHINGTON COURT HOUSE CITY SCHOOL DISTRICT","t":2640.23,"l":"510: Res-Single Family","c":0}},{"type":"Feature","geometry":{"type":"Polygon","coordinates":[[[-83.427415,39.537173],[-83.427431,39.537482],[-83.427288,39.537494],[-83.427262,39.537043],[-83.427408,39.537031],[-83.427415,39.537173]]]},"properties":{"p":"214-008-4-00-016-00","o":"MCCLENDON ROBERT N","a":"1003 JOHN ST","d":"WASHINGTON COURT HOUSE CITY SCHOOL DISTRICT","t":4041.77,"l":"500: Res-Vacant Land","c":0}},{"type":"Feature","geometry":{"type":"Polygon","coordinates":[[[-83.426388,39.537261],[-83.426394,39.537112],[-83.426674,39.53709],[-83.426646,39.537548],[-83.426585,39.537553],[-83.426554,39.537247],[-83.426388,39.537261]]]},"properties":{"p":"214-008-4-00-011-00","o":"MCCLENDON ROBERT N","a":"JOHN ST","d":"WASHINGTON COURT HOUSE CITY SCHOOL DISTRICT","t":680.99,"l":"500: Res-Vacant Land","c":0}},{"type":"Feature","geometry":{"type":"Polygon","coordinates":[[[-83.432007,39.533204],[-83.432444,39.532905],[-83.432641,39.533077],[-83.432206,39.533376],[-83.432007,39.533204]]]},"properties":{"p":"214-007-4-00-050-00","o":"SURE YOU CAN REAL ESTATE INVESTING LLC","a":"622 S NORTH ST 848 LOT","d":"WASHINGTON COURT HOUSE CITY SCHOOL DISTRICT","t":1000.35,"l":"510: Res-Single Family","c":0}},{"type":"Feature","geometry":{"type":"Polygon","coordinates":[[[-83.432107,39.537562],[-83.432218,39.537279],[-83.432281,39.537296],[-83.432359,39.537393],[-83.432276,39.537603],[-83.432107,39.537562]]]},"properties":{"p":"214-007-4-00-004-00","o":"ARGUETA MARIA","a":"703 JOHN ST 4 LOT","d":"WASHINGTON COURT HOUSE CITY SCHOOL DISTRICT","t":105.97,"l":"510: Res-Single Family","c":0}},{"type":"Feature","geometry":{"type":"Polygon","coordinates":[[[-83.433987,39.536858],[-83.434062,39.536808],[-83.434444,39.537142],[-83.434369,39.537192],[-83.433987,39.536858]]]},"properties":{"p":"214-001-4-00-015-00","o":"FRISBIE HILDA","a":"422 BROADWAY ST 41 LOT","d":"WASHINGTON COURT HOUSE CITY SCHOOL DISTRICT","t":23029.11,"l":"510: Res-Single Family","c":0}},{"type":"Feature","geometry":{"type":"Polygon","coordinates":[[[-83.429057,39.525068],[-83.429179,39.524972],[-83.429589,39.52533],[-83.42946,39.52542],[-83.429057,39.525068]]]},"properties":{"p":"213-029-3-00-013-00","o":"MCCULLOUGH ANTONIO","a":"127 OHIO AVE 74 LOT","d":"WASHINGTON COURT HOUSE CITY SCHOOL DISTRICT","t":699,"l":"510: Res-Single Family","c":0}},{"type":"Feature","geometry":{"type":"Polygon","coordinates":[[[-83.428561,39.52849],[-83.428382,39.528332],[-83.428862,39.528016],[-83.429174,39.528285],[-83.428693,39.528606],[-83.428561,39.52849]]]},"properties":{"p":"213-028-3-01-004-00","o":"KIDWELL GISELE C","a":"1116 S FAYETTE ST 4 LOT","d":"WASHINGTON COURT HOUSE CITY SCHOOL DISTRICT","t":3215.25,"l":"510: Res-Single Family","c":0}},{"type":"Feature","geometry":{"type":"Polygon","coordinates":[[[-83.433046,39.527899],[-83.433478,39.527604],[-83.433573,39.527689],[-83.433143,39.527985],[-83.433046,39.527899]]]},"properties":{"p":"213-028-3-00-157-00","o":"RUTH MILDRED","a":"919 S HINDE ST 35 LOT","d":"WASHINGTON COURT HOUSE CITY SCHOOL DISTRICT","t":293.59,"l":"599: Res-Other","c":0}},{"type":"Feature","geometry":{"type":"Polygon","coordinates":[[[-83.433361,39.527224],[-83.433449,39.527163],[-83.433837,39.527507],[-83.433749,39.527567],[-83.433361,39.527224]]]},"properties":{"p":"213-028-3-00-152-00","o":"RUTH DAVID & TAMMY SURV","a":"226 HICKORY ST 60 LOT","d":"WASHINGTON COURT HOUSE CITY SCHOOL DISTRICT","t":730.07,"l":"510: Res-Single Family","c":0}},{"type":"Feature","geometry":{"type":"Polygon","coordinates":[[[-83.433626,39.527042],[-83.433759,39.526951],[-83.434146,39.527294],[-83.434014,39.527385],[-83.433626,39.527042]]]},"properties":{"p":"213-028-3-00-149-00","o":"WCH RENTALS LLC","a":"236 HICKORY ST 62 LOT","d":"WASHINGTON COURT HOUSE CITY SCHOOL DISTRICT","t":22146.15,"l":"510: Res-Single Family","c":0}},{"type":"Feature","geometry":{"type":"Polygon","coordinates":[[[-83.431239,39.527349],[-83.430813,39.527634],[-83.430735,39.527565],[-83.43116,39.527279],[-83.431239,39.527349]]]},"properties":{"p":"213-028-3-00-082-00","o":"HOYER JERRY A","a":"1033 S MAIN ST 12 PT LOT","d":"WASHINGTON COURT HOUSE CITY SCHOOL DISTRICT","t":94.94,"l":"500: Res-Vacant Land","c":0}},{"type":"Feature","geometry":{"type":"Polygon","coordinates":[[[-83.430662,39.5293],[-83.431126,39.528978],[-83.431241,39.529081],[-83.430765,39.52941],[-83.430648,39.52931],[-83.430662,39.5293]]]},"properties":{"p":"213-028-3-00-046-00","o":"RUTH MILDRED J","a":"931 S FAYETTE ST","d":"WASHINGTON COURT HOUSE CITY SCHOOL DISTRICT","t":752.2,"l":"510: Res-Single Family","c":0}},{"type":"Feature","geometry":{"type":"Polygon","coordinates":[[[-83.439422,39.520242],[-83.439436,39.520196],[-83.439506,39.520116],[-83.439505,39.520028],[-83.439945,39.519911],[-83.439935,39.520249],[-83.439422,39.520242]]]},"properties":{"p":"213-027-3-02-062-00","o":"YEOMAN STEPHEN A & HEATHER M","a":"1337 YELLOWBUD PL 74 LOT","d":"WASHINGTON COURT HOUSE CITY SCHOOL DISTRICT","t":102.74,"l":"510: Res-Single Family","c":0}},{"type":"Feature","geometry":{"type":"Polygon","coordinates":[[[-83.43785,39.528988],[-83.437955,39.528915],[-83.438051,39.528996],[-83.437944,39.52907],[-83.43785,39.528988]]]},"properties":{"p":"213-027-3-00-119-01","o":"PARSON COLTON LEVI","a":"OAK ST 100 LOT","d":"WASHINGTON COURT HOUSE CITY SCHOOL DISTRICT","t":56.1,"l":"501: Res-Custom Code","c":0}},{"type":"Feature","geometry":{"type":"Polygon","coordinates":[[[-83.439197,39.530393],[-83.439197,39.530255],[-83.439722,39.530254],[-83.439722,39.530392],[-83.439197,39.530393]]]},"properties":{"p":"213-027-3-00-048-00","o":"SUGAR GROVE LAKE LLC","a":"528 HIGH ST 3 LOT","d":"WASHINGTON COURT HOUSE CITY SCHOOL DISTRICT","t":1094.71,"l":"510: Res-Single Family","c":0}},{"type":"Feature","geometry":{"type":"Polygon","coordinates":[[[-83.434725,39.52921],[-83.434857,39.529119],[-83.435245,39.529458],[-83.435112,39.529549],[-83.434725,39.52921]]]},"properties":{"p":"213-026-3-00-135-00","o":"ATKINSON LLOYD R SR","a":"208 W ELM ST 4 LOT","d":"WASHINGTON COURT HOUSE CITY SCHOOL DISTRICT","t":1583.35,"l":"510: Res-Single Family","c":0}},{"type":"Feature","geometry":{"type":"Polygon","coordinates":[[[-83.434857,39.529119],[-83.43489,39.529096],[-83.435277,39.529436],[-83.435245,39.529458],[-83.434857,39.529119]]]},"properties":{"p":"213-026-3-00-134-01","o":"ATKINSON LLOYD R SR","a":"210 W ELM ST 7 PT LOT","d":"WASHINGTON COURT HOUSE CITY SCHOOL DISTRICT","t":1064.12,"l":"420: Com-Retail-Small","c":0}},{"type":"Feature","geometry":{"type":"Polygon","coordinates":[[[-83.43426,39.533237],[-83.434216,39.533199],[-83.434505,39.533001],[-83.434601,39.533085],[-83.434312,39.533283],[-83.43426,39.533237]]]},"properties":{"p":"213-026-3-00-028-00","o":"MARZICH BRIAN & TRACEY SURV","a":"512 S FAYETTE ST","d":"WASHINGTON COURT HOUSE CITY SCHOOL DISTRICT","t":2733.29,"l":"510: Res-Single Family","c":0}},{"type":"Feature","geometry":{"type":"Polygon","coordinates":[[[-83.440269,39.531149],[-83.440312,39.530514],[-83.44063,39.53055],[-83.440518,39.531166],[-83.440269,39.531149]]]},"properties":{"p":"213-025-3-00-015-00","o":"BURNS SHAWNA & RICHARD SR","a":"415 CIRCLE AVE","d":"WASHINGTON COURT HOUSE CITY SCHOOL DISTRICT","t":1335.51,"l":"510: Res-Single Family","c":0}},{"type":"Feature","geometry":{"type":"Polygon","coordinates":[[[-83.435404,39.533103],[-83.435597,39.533274],[-83.435378,39.533423],[-83.435184,39.533253],[-83.435404,39.533103]]]},"properties":{"p":"213-024-3-00-065-00","o":"MILBY WILLIAM E & HOLLY M","a":"433 S FAYETTE ST","d":"WASHINGTON COURT HOUSE CITY SCHOOL DISTRICT","t":1992.48,"l":"510: Res-Single Family","c":0}},{"type":"Feature","geometry":{"type":"Polygon","coordinates":[[[-83.450175,39.52226],[-83.450187,39.521848],[-83.450518,39.521854],[-83.450574,39.52188],[-83.450593,39.521924],[-83.450582,39.522267],[-83.450175,39.52226]]]},"properties":{"p":"213-005-0-00-026-00","o":"SHORT MENDY & ROBERT DALE SURV","a":"101 SETH WAY 148 LOT","d":"WASHINGTON COURT HOUSE CITY SCHOOL DISTRICT","t":873.02,"l":"510: Res-Single Family","c":0}},{"type":"Feature","geometry":{"type":"Polygon","coordinates":[[[-83.457823,39.540388],[-83.458108,39.540498],[-83.457802,39.54097],[-83.457516,39.54086],[-83.457823,39.540388]]]},"properties":{"p":"212-023-2-02-006-00","o":"GAULT BRIAN G","a":"1274 DAYTON AVE 27 LOT","d":"WASHINGTON COURT HOUSE CITY SCHOOL DISTRICT","t":1829.39,"l":"510: Res-Single Family","c":0}},{"type":"Feature","geometry":{"type":"Polygon","coordinates":[[[-83.449421,39.541357],[-83.449567,39.54111],[-83.449701,39.541157],[-83.449576,39.54137],[-83.449592,39.541375],[-83.449572,39.54141],[-83.449421,39.541357]]]},"properties":{"p":"212-020-2-00-147-00","o":"WILSON SARAH B","a":"904 LAKEVIEW AVE 262 LOT","d":"WASHINGTON COURT HOUSE CITY SCHOOL DISTRICT","t":306.38,"l":"510: Res-Single Family","c":0}},{"type":"Feature","geometry":{"type":"Polygon","coordinates":[[[-83.444595,39.54277],[-83.444154,39.543053],[-83.444015,39.542924],[-83.444458,39.542641],[-83.444595,39.54277]]]},"properties":{"p":"212-019-2-00-035-00","o":"HINES APRIL E","a":"725 N NORTH ST","d":"WASHINGTON COURT HOUSE CITY SCHOOL DISTRICT","t":194.62,"l":"510: Res-Single Family","c":0}},{"type":"Feature","geometry":{"type":"Polygon","coordinates":[[[-83.441898,39.537305],[-83.442205,39.537097],[-83.442302,39.537182],[-83.441995,39.53739],[-83.441898,39.537305]]]},"properties":{"p":"212-016-2-00-049-00","o":"SMITH ANDREW W","a":"231 N MAIN ST 70 LOT","d":"WASHINGTON COURT HOUSE CITY SCHOOL DISTRICT","t":955.49,"l":"510: Res-Single Family","c":0}},{"type":"Feature","geometry":{"type":"Polygon","coordinates":[[[-83.451989,39.529609],[-83.452476,39.529336],[-83.45253,39.529467],[-83.452084,39.529717],[-83.451989,39.529609]]]},"properties":{"p":"212-015-2-00-003-00","o":"WISEMAN RICHARD D","a":"136 FAIRVIEW AVE 73 LOT","d":"WASHINGTON COURT HOUSE CITY SCHOOL DISTRICT","t":128.27,"l":"510: Res-Single Family","c":0}},{"type":"Feature","geometry":{"type":"Polygon","coordinates":[[[-83.448387,39.532043],[-83.448528,39.53202],[-83.448648,39.532464],[-83.448506,39.532485],[-83.448387,39.532043]]]},"properties":{"p":"212-014-2-00-025-00","o":"WRIGHT HARRY","a":"710 CLINTON AVE","d":"WASHINGTON COURT HOUSE CITY SCHOOL DISTRICT","t":24472.41,"l":"500: Res-Vacant Land","c":0}},{"type":"Feature","geometry":{"type":"Polygon","coordinates":[[[-83.444588,39.547891],[-83.44447,39.547788],[-83.444604,39.547699],[-83.44496,39.548005],[-83.444825,39.548095],[-83.444588,39.547891]]]},"properties":{"p":"211-012-1-00-084-00","o":"LIGHTLE ISAAC J TRUSTEE","a":"515 GIBBS AVE 332 LOT","d":"WASHINGTON COURT HOUSE CITY SCHOOL DISTRICT","t":372.62,"l":"510: Res-Single Family","c":0}},{"type":"Feature","geometry":{"type":"Polygon","coordinates":[[[-83.446838,39.547826],[-83.447106,39.547645],[-83.447255,39.547778],[-83.446986,39.547959],[-83.446838,39.547826]]]},"properties":{"p":"211-012-1-00-035-00","o":"BARRETT ROBIN LYNNE","a":"1228 GRACE ST 399 LOT","d":"WASHINGTON COURT HOUSE CITY SCHOOL DISTRICT","t":515.64,"l":"510: Res-Single Family","c":0}},{"type":"Feature","geometry":{"type":"Polygon","coordinates":[[[-83.440675,39.547678],[-83.440744,39.547631],[-83.441092,39.547939],[-83.440959,39.54803],[-83.440633,39.547742],[-83.440636,39.547704],[-83.440675,39.547678]]]},"properties":{"p":"211-011-1-00-026-00","o":"HOWLAND RONALD JR","a":"719 PEABODY 222 LOT","d":"WASHINGTON COURT HOUSE CITY SCHOOL DISTRICT","t":605.24,"l":"510: Res-Single Family","c":0}},{"type":"Feature","geometry":{"type":"Polygon","coordinates":[[[-83.444556,39.543744],[-83.444596,39.543717],[-83.444712,39.543821],[-83.444345,39.544065],[-83.444229,39.543961],[-83.444556,39.543744]]]},"properties":{"p":"211-010-1-00-119-00","o":"J-ZAP PROPERTY MANAGEMENT LLC","a":"818 N NORTH ST 174 LOT","d":"WASHINGTON COURT HOUSE CITY SCHOOL DISTRICT","t":3416.95,"l":"520: Res-Two Family","c":0}},{"type":"Feature","geometry":{"type":"Polygon","coordinates":[[[-83.443786,39.544256],[-83.444138,39.544573],[-83.444004,39.544663],[-83.443651,39.544346],[-83.443786,39.544256]]]},"properties":{"p":"211-010-1-00-113-00","o":"ZAHEER IMRAN M","a":"331 ROSE AVE 170 LOT","d":"WASHINGTON COURT HOUSE CITY SCHOOL DISTRICT","t":1422.5,"l":"510: Res-Single Family","c":0}},{"type":"Feature","geometry":{"type":"Polygon","coordinates":[[[-83.441175,39.546752],[-83.441308,39.546662],[-83.441648,39.546965],[-83.441379,39.547146],[-83.441039,39.546843],[-83.441175,39.546752]]]},"properties":{"p":"211-010-1-00-095-00","o":"J-ZAP PROPERTY MANAGEMENT LLC","a":"901 DELAWARE ST 206 LOT","d":"WASHINGTON COURT HOUSE CITY SCHOOL DISTRICT","t":572.56,"l":"499: Com-Other","c":0}},{"type":"Feature","geometry":{"type":"Polygon","coordinates":[[[-83.441308,39.546662],[-83.441299,39.546654],[-83.441433,39.546564],[-83.441782,39.546875],[-83.441648,39.546965],[-83.441308,39.546662]]]},"properties":{"p":"211-010-1-00-094-00","o":"J-ZAP PROPERTY MANAGEMENT LLC","a":"622 ROSE AVE 205 LOT","d":"WASHINGTON COURT HOUSE CITY SCHOOL DISTRICT","t":1184.99,"l":"499: Com-Other","c":0}},{"type":"Feature","geometry":{"type":"Polygon","coordinates":[[[-83.441708,39.54638],[-83.441842,39.54629],[-83.442189,39.546602],[-83.442055,39.546692],[-83.441708,39.54638]]]},"properties":{"p":"211-010-1-00-091-00","o":"604 ROSE, LLC","a":"606 ROSE AVE 202 LOT","d":"WASHINGTON COURT HOUSE CITY SCHOOL DISTRICT","t":275.81,"l":"420: Com-Retail-Small","c":0}},{"type":"Feature","geometry":{"type":"Polygon","coordinates":[[[-83.441842,39.54629],[-83.441975,39.546201],[-83.442324,39.546513],[-83.442189,39.546602],[-83.441842,39.54629]]]},"properties":{"p":"211-010-1-00-090-00","o":"604 ROSE, LLC","a":"604 ROSE AVE 201 LOT","d":"WASHINGTON COURT HOUSE CITY SCHOOL DISTRICT","t":841.3,"l":"499: Com-Other","c":0}},{"type":"Feature","geometry":{"type":"Polygon","coordinates":[[[-83.429368,39.549219],[-83.429501,39.549128],[-83.42987,39.549457],[-83.429736,39.549547],[-83.429368,39.549219]]]},"properties":{"p":"211-009-1-00-100-00","o":"COLTER SHAYANN","a":"1254 RAWLINGS ST 138 LOT","d":"WASHINGTON COURT HOUSE CITY SCHOOL DISTRICT","t":148.45,"l":"510: Res-Single Family","c":0}},{"type":"Feature","geometry":{"type":"Polygon","coordinates":[[[-83.438663,39.545783],[-83.438832,39.545669],[-83.439178,39.545982],[-83.43901,39.546096],[-83.438663,39.545783]]]},"properties":{"p":"211-008-1-00-016-00","o":"B & M BROTHERS REAL ESTATE LLC","a":"708 CAMPBELL ST 95 LOT","d":"WASHINGTON COURT HOUSE CITY SCHOOL DISTRICT","t":207.83,"l":"510: Res-Single Family","c":0}},{"type":"Feature","geometry":{"type":"Polygon","coordinates":[[[-83.431645,39.543936],[-83.431864,39.543786],[-83.432141,39.544033],[-83.431922,39.544183],[-83.431645,39.543936]]]},"properties":{"p":"211-005-1-00-142-00","o":"FOX DWIGHT & MELODY","a":"927 E TEMPLE ST 461 LOT","d":"WASHINGTON COURT HOUSE CITY SCHOOL DISTRICT","t":2673.89,"l":"510: Res-Single Family","c":0}},{"type":"Feature","geometry":{"type":"Polygon","coordinates":[[[-83.43233,39.544205],[-83.432552,39.544402],[-83.432331,39.544551],[-83.43211,39.544354],[-83.43233,39.544205]]]},"properties":{"p":"211-005-1-00-129-00","o":"JARET BISHOP RENTALS LLC","a":"930 E TEMPLE ST 429 LOT","d":"WASHINGTON COURT HOUSE CITY SCHOOL DISTRICT","t":11901.49,"l":"499: Com-Other","c":0}},{"type":"Feature","geometry":{"type":"Polygon","coordinates":[[[-83.433924,39.543132],[-83.434147,39.542985],[-83.43437,39.543184],[-83.434147,39.543331],[-83.433924,39.543132]]]},"properties":{"p":"211-005-1-00-115-00","o":"FOX DWIGHT E & MELODY A SURVIVORSHIP","a":"804 E TEMPLE ST 506 LOT","d":"WASHINGTON COURT HOUSE CITY SCHOOL DISTRICT","t":2365.67,"l":"510: Res-Single Family","c":0}},{"type":"Feature","geometry":{"type":"Polygon","coordinates":[[[-83.435448,39.542763],[-83.43567,39.542615],[-83.436057,39.542955],[-83.435836,39.543103],[-83.435448,39.542763]]]},"properties":{"p":"211-005-1-00-099-00","o":"YAHWEH'S OBEDIENT SERVANTS MINISTRY","a":"717 E PAINT ST 157 LOT","d":"WASHINGTON COURT HOUSE CITY SCHOOL DISTRICT","t":771.26,"l":"499: Com-Other","c":0}},{"type":"Feature","geometry":{"type":"Polygon","coordinates":[[[-83.435183,39.54294],[-83.435294,39.542866],[-83.435681,39.543206],[-83.43557,39.54328],[-83.435183,39.54294]]]},"properties":{"p":"211-005-1-00-097-00","o":"NEWMAN ANGELA F","a":"723 E PAINT ST 158 LOT","d":"WASHINGTON COURT HOUSE CITY SCHOOL DISTRICT","t":1008.34,"l":"510: Res-Single Family","c":0}},{"type":"Feature","geometry":{"type":"Polygon","coordinates":[[[-83.431744,39.545259],[-83.431865,39.545179],[-83.432243,39.545524],[-83.432122,39.545605],[-83.431744,39.545259]]]},"properties":{"p":"211-005-1-00-069-00","o":"WILSON CHARLENE M","a":"1017 E PAINT ST 486 LOT","d":"WASHINGTON COURT HOUSE CITY SCHOOL DISTRICT","t":205.39,"l":"510: Res-Single Family","c":0}},{"type":"Feature","geometry":{"type":"Polygon","coordinates":[[[-83.432085,39.545876],[-83.432463,39.546222],[-83.432352,39.546296],[-83.431974,39.54595],[-83.432085,39.545876]]]},"properties":{"p":"211-005-1-00-066-00","o":"HOWE LUCKY E & DIANNA K","a":"1032 E PAINT ST 569 LOT","d":"WASHINGTON COURT HOUSE CITY SCHOOL DISTRICT","t":581.06,"l":"510: Res-Single Family","c":0}},{"type":"Feature","geometry":{"type":"Polygon","coordinates":[[[-83.43345,39.544956],[-83.433524,39.544906],[-83.433719,39.545075],[-83.433645,39.545124],[-83.43345,39.544956]]]},"properties":{"p":"211-005-1-00-055-00","o":"BURLILE GEORGE WILLIAM","a":"920 E PAINT ST 560 LOT","d":"WASHINGTON COURT HOUSE CITY SCHOOL DISTRICT","t":68.36,"l":"500: Res-Vacant Land","c":0}},{"type":"Feature","geometry":{"type":"Polygon","coordinates":[[[-83.433711,39.545785],[-83.434153,39.545489],[-83.434312,39.545636],[-83.433871,39.545932],[-83.433711,39.545785]]]},"properties":{"p":"211-005-1-00-011-00","o":"WOOD RUSSELL","a":"429 LEWIS ST 559 LOT","d":"WASHINGTON COURT HOUSE CITY SCHOOL DISTRICT","t":5494.56,"l":"510: Res-Single Family","c":0}},{"type":"Feature","geometry":{"type":"Polygon","coordinates":[[[-83.434711,39.54104],[-83.434824,39.540964],[-83.435207,39.541302],[-83.435095,39.541378],[-83.434711,39.54104]]]},"properties":{"p":"211-004-1-00-183-00","o":"HOLLAR PAMELA PEARCE & WILLIAM R SURVIVORSHIP","a":"628 E MARKET ST 435 LOT","d":"WASHINGTON COURT HOUSE CITY SCHOOL DISTRICT","t":283.14,"l":"510: Res-Single Family","c":0}},{"type":"Feature","geometry":{"type":"Polygon","coordinates":[[[-83.435299,39.541208],[-83.435319,39.541225],[-83.435297,39.541241],[-83.435299,39.541208]]]},"properties":{"p":"211-004-1-00-182-01","o":"STOLZENBURG LAURA VOSS","a":"E MARKET ST 434 LOT","d":"WASHINGTON COURT HOUSE CITY SCHOOL DISTRICT","t":89.15,"l":"500: Res-Vacant Land","c":0}},{"type":"Feature","geometry":{"type":"Polygon","coordinates":[[[-83.4371,39.543156],[-83.437211,39.543082],[-83.437595,39.543422],[-83.437484,39.543496],[-83.4371,39.543156]]]},"properties":{"p":"211-004-1-00-002-00","o":"BURLILE LINDA L STROUP","a":"627 RAWLING ST 16 LOT","d":"WASHINGTON COURT HOUSE CITY SCHOOL DISTRICT","t":111.55,"l":"510: Res-Single Family","c":0}},{"type":"Feature","geometry":{"type":"Polygon","coordinates":[[[-83.433914,39.54093],[-83.433648,39.540707],[-83.433754,39.54061],[-83.434032,39.540853],[-83.433914,39.54093]]]},"properties":{"p":"211-002-1-00-010-01","o":"WCH RENTALS LLC","a":"704 COLUMBUS AVE 3 LOT","d":"WASHINGTON COURT HOUSE CITY SCHOOL DISTRICT","t":35260.92,"l":"510: Res-Single Family","c":0}},{"type":"Feature","geometry":{"type":"Polygon","coordinates":[[[-83.363852,39.457744],[-83.363239,39.457739],[-83.363232,39.458566],[-83.363052,39.458564],[-83.363063,39.45771],[-83.362443,39.457705],[-83.362432,39.45856],[-83.361522,39.458551],[-83.361295,39.456203],[-83.363856,39.456275],[-83.363821,39.457031],[-83.363852,39.457744]]]},"properties":{"p":"220-017-0-00-012-00","o":"ROBERTS PATRICIA A","a":"0 BRADEN SE RD","d":"MIAMI TRACE LOCAL SCHOOL DISTRICT","t":246.94,"l":"101: Agr-Cash-Grain Farm","c":0}},{"type":"Feature","geometry":{"type":"Polygon","coordinates":[[[-83.383311,39.45376],[-83.383882,39.453857],[-83.383782,39.454211],[-83.383211,39.454114],[-83.383311,39.45376]]]},"properties":{"p":"220-017-0-00-010-01","o":"GILPEN CORY L","a":"3303 ROCK MILLS GOOD HOPE SE RD","d":"MIAMI TRACE LOCAL SCHOOL DISTRICT","t":3363.73,"l":"511: Res-Custom Code","c":0}},{"type":"Feature","geometry":{"type":"Polygon","coordinates":[[[-83.282326,39.494806],[-83.282768,39.494292],[-83.283813,39.494615],[-83.283346,39.495132],[-83.282993,39.494905],[-83.282326,39.494806]]]},"properties":{"p":"220-010-0-00-014-00","o":"INGRAM HELEN B TOD","a":"206 DOGTOWN SE RD","d":"ADENA LOCAL SCHOOL DISTRICT","t":268.21,"l":"501: Res-Custom Code","c":0}},{"type":"Feature","geometry":{"type":"Polygon","coordinates":[[[-83.307202,39.499563],[-83.307261,39.499502],[-83.308549,39.499919],[-83.307931,39.500556],[-83.306818,39.499956],[-83.307202,39.499563]]]},"properties":{"p":"220-006-0-00-017-01","o":"HAYNES JERRY N & LORA","a":"7431 ROBINSON SE RD","d":"MIAMI TRACE LOCAL SCHOOL DISTRICT","t":15212.85,"l":"511: Res-Custom Code","c":0}},{"type":"Feature","geometry":{"type":"Polygon","coordinates":[[[-83.305165,39.498896],[-83.30522,39.49884],[-83.307261,39.499502],[-83.306818,39.499956],[-83.305056,39.499007],[-83.305165,39.498896]]]},"properties":{"p":"220-006-0-00-017-00","o":"HAYNES NICK L","a":"7373 ROBINSON SE RD","d":"MIAMI TRACE LOCAL SCHOOL DISTRICT","t":11187.66,"l":"599: Res-Other","c":0}},{"type":"Feature","geometry":{"type":"Polygon","coordinates":[[[-83.420458,39.542614],[-83.420457,39.542477],[-83.42096,39.542475],[-83.420961,39.542612],[-83.420458,39.542614]]]},"properties":{"p":"215-020-4-00-046-00","o":"OESTERLE TRACIE","a":"524 CAROLYN RD 17 LOT","d":"WASHINGTON COURT HOUSE CITY SCHOOL DISTRICT","t":1043.84,"l":"510: Res-Single Family","c":0}},{"type":"Feature","geometry":{"type":"Polygon","coordinates":[[[-83.42045,39.541928],[-83.420448,39.54179],[-83.420953,39.541788],[-83.420954,39.541925],[-83.42045,39.541928]]]},"properties":{"p":"214-020-4-00-051-00","o":"DEWITT KALISTA JANE","a":"614 CAROLYN RD 12 LOT","d":"WASHINGTON COURT HOUSE CITY SCHOOL DISTRICT","t":989.69,"l":"510: Res-Single Family","c":0}},{"type":"Feature","geometry":{"type":"Polygon","coordinates":[[[-83.428719,39.534097],[-83.428429,39.533844],[-83.42854,39.533767],[-83.428935,39.534113],[-83.428824,39.53419],[-83.428719,39.534097]]]},"properties":{"p":"214-015-4-00-136-00","o":"QUEEN ROXA S & DILLEY ROSEMARY A & JOHN W SURV","a":"524 THIRD ST 907 LOT","d":"WASHINGTON COURT HOUSE CITY SCHOOL DISTRICT","t":247.77,"l":"500: Res-Vacant Land","c":0}},{"type":"Feature","geometry":{"type":"Polygon","coordinates":[[[-83.428738,39.530147],[-83.428845,39.530073],[-83.429155,39.530341],[-83.429047,39.530416],[-83.428738,39.530147]]]},"properties":{"p":"214-015-4-00-029-00","o":"HUYNH CHRISTY","a":"311 E ELM ST 3 LOT","d":"WASHINGTON COURT HOUSE CITY SCHOOL DISTRICT","t":3846.69,"l":"510: Res-Single Family","c":0}},{"type":"Feature","geometry":{"type":"Polygon","coordinates":[[[-83.428645,39.53088],[-83.428741,39.530813],[-83.429055,39.531085],[-83.428959,39.531153],[-83.428645,39.53088]]]},"properties":{"p":"214-015-4-00-024-00","o":"ROHRER ASHLEY & AIDEN","a":"328 E ELM ST 8 LOT","d":"WASHINGTON COURT HOUSE CITY SCHOOL DISTRICT","t":1095.01,"l":"510: Res-Single Family","c":0}},{"type":"Feature","geometry":{"type":"Polygon","coordinates":[[[-83.426636,39.54012],[-83.426689,39.540115],[-83.426711,39.540257],[-83.426077,39.540317],[-83.426055,39.540174],[-83.426636,39.54012]]]},"properties":{"p":"214-010-4-00-040-00","o":"WEST JENNIFER & THOMAS L","a":"717 S ELM ST 369 LOT","d":"WASHINGTON COURT HOUSE CITY SCHOOL DISTRICT","t":877.87,"l":"510: Res-Single Family","c":0}},{"type":"Feature","geometry":{"type":"Polygon","coordinates":[[[-83.424756,39.540912],[-83.424899,39.5409],[-83.424926,39.541076],[-83.424783,39.541089],[-83.424756,39.540912]]]},"properties":{"p":"214-010-4-00-024-00","o":"WCH RENTALS LLC","a":"633 CHURCH ST 348 LOT","d":"WASHINGTON COURT HOUSE CITY SCHOOL DISTRICT","t":26323.77,"l":"510: Res-Single Family","c":0}},{"type":"Feature","geometry":{"type":"Polygon","coordinates":[[[-83.424899,39.5409],[-83.425044,39.540887],[-83.425071,39.541063],[-83.424926,39.541076],[-83.424899,39.5409]]]},"properties":{"p":"214-010-4-00-023-00","o":"WCH RENTALS LLC","a":"1126 YEOMAN ST 348 LOT","d":"WASHINGTON COURT HOUSE CITY SCHOOL DISTRICT","t":2599.73,"l":"500: Res-Vacant Land","c":0}},{"type":"Feature","geometry":{"type":"Polygon","coordinates":[[[-83.42942,39.537452],[-83.429596,39.537437],[-83.42964,39.537738],[-83.429464,39.537752],[-83.42942,39.537452]]]},"properties":{"p":"214-009-4-00-116-00","o":"DILLION HAROLD F & KELLY J SURV","a":"810 JOHN ST 41 LOT","d":"WASHINGTON COURT HOUSE CITY SCHOOL DISTRICT","t":78.3,"l":"510: Res-Single Family","c":0}},{"type":"Feature","geometry":{"type":"Polygon","coordinates":[[[-83.431445,39.537547],[-83.431596,39.537584],[-83.431642,39.537917],[-83.431498,39.53793],[-83.431445,39.537547]]]},"properties":{"p":"214-009-4-00-106-00","o":"WCH RENTALS LLC","a":"707 BROADWAY ST","d":"WASHINGTON COURT HOUSE CITY SCHOOL DISTRICT","t":14834.62,"l":"510: Res-Single Family","c":0}}]}